[{"name":" E - Pharm IDA Pharmacy","mngrFirstName":"Tim","mngrLastName":"Towers","mngrGradYr":"1987","mngrId":"98442","phoneNumber":"+1 (905) 990-7896","address":"713 Indian Rd","city":"Mississauga","postalCode":"L5H 1R3"},{"name":" Pharmasave Thornton Corners","mngrFirstName":"Dominic","mngrLastName":"Barone","mngrGradYr":"1983","mngrId":"98914","phoneNumber":"+1 (905) 240-4646","address":"850 King St W","city":"Oshawa","postalCode":"L1J 2L5"},{"name":" Shoppers Drug Mart","mngrFirstName":"Amanda","mngrLastName":"D'Souza","mngrGradYr":"1995","mngrId":"211312","phoneNumber":"+ (905) 927-7161","address":"2920 Major MacKenzie Dr E","city":"Markham","postalCode":"L6C 0G6"},{"name":"101 Medical Pharmacy","mngrFirstName":"Tatiana","mngrLastName":"Kriachkova","mngrGradYr":"2009","mngrId":"616867","phoneNumber":"+1 (905) 597-4433","address":"1520 Steeles Avenue WestUnit 101","city":"Vaughan","postalCode":"L4K 3B9"},{"name":"16th Avenue Drug Mart","mngrFirstName":"Aram","mngrLastName":"Atamer","mngrGradYr":"1972","mngrId":"84743","phoneNumber":"+1 (905) 471-6010","address":"8-1 Mintleaf Gate","city":"Markham","postalCode":"L3P 5X4"},{"name":"360 Pharmacy","mngrFirstName":"Susanna","mngrLastName":"Wong","mngrGradYr":"1989","mngrId":"100994","phoneNumber":"+1 (905) 889-1360","address":"6-360 Highway 7 East","city":"Richmond Hill","postalCode":"L4B 3Y7"},{"name":"3M Drug Mart","mngrFirstName":"Mike","mngrLastName":"Hanna","mngrGradYr":"1988","mngrId":"215337","phoneNumber":"+1 (905) 882-4774","address":"7117 Bathurst St.Unit 105","city":"Thornhill","postalCode":"L4J 2J6"},{"name":"3M Lawrence Pharmacy","mngrFirstName":"Mike","mngrLastName":"Hanna","mngrGradYr":"1988","mngrId":"215337","phoneNumber":"+1 (416) 782-3333","address":"3077 Bathurst St","city":"North York","postalCode":"M6A 1Z9"},{"name":"700 Main Pharmacy","mngrFirstName":"Marko","mngrLastName":"Stevanovic","mngrGradYr":"1979","mngrId":"69280","phoneNumber":"+1 (905) 544-0040","address":"700 Main St E","city":"Hamilton","postalCode":"L8M 1K7"},{"name":"99 Pharmacy","mngrFirstName":"Melissa","mngrLastName":"So","mngrGradYr":"1984","mngrId":"111683","phoneNumber":"+1 (416) 977-8338","address":"436 Dundas St. W","city":"Toronto","postalCode":"M5T 1G7"},{"name":"9-Eleven Drug Mart","mngrFirstName":"Henry","mngrLastName":"Lee","mngrGradYr":"1979","mngrId":"75981","phoneNumber":"+1 (416) 221-6444","address":"6018 Yonge St","city":"Willowdale","postalCode":"M2M 3V9"},{"name":"A & J Pharmacy","mngrFirstName":"Richard","mngrLastName":"Lee","mngrGradYr":"2010","mngrId":"607850","phoneNumber":"+1 (289) 399-2280","address":"11211 Yonge St","city":"Richmond Hill","postalCode":"L4S 1L2"},{"name":"A & J Pharmacy","mngrFirstName":"Allen","mngrLastName":"Kwong","mngrGradYr":"1978","mngrId":"66664","phoneNumber":"+1 (416) 292-9898","address":"2020 McNicoll Ave","city":"Scarborough","postalCode":"M1V 0B5"},{"name":"A & W Pharmacy","mngrFirstName":"Erwin","mngrLastName":"Au","mngrGradYr":"1986","mngrId":"89265","phoneNumber":"+1 (905) 883-1102","address":"Unit E-9625 Yonge St","city":"Richmond Hill","postalCode":"L4C 5T2"},{"name":"A & W Pharmacy","mngrFirstName":"Johnny","mngrLastName":"Wong","mngrGradYr":"1986","mngrId":"89508","phoneNumber":"+1 (416) 297-7711","address":"250 Alton Tower Cir","city":"Scarborough","postalCode":"M1V 3Z4"},{"name":"A & W Pharmacy","mngrFirstName":"Johnny","mngrLastName":"Wong","mngrGradYr":"1986","mngrId":"89508","phoneNumber":"+1 (416) 492-5507","address":"325 Bamburgh Cir","city":"Scarborough","postalCode":"M1W 3Y1"},{"name":"A & W Pharmacy","mngrFirstName":"Johnny","mngrLastName":"Wong","mngrGradYr":"1986","mngrId":"89508","phoneNumber":"+1 (705) 722-3343","address":"505 Yonge St","city":"Barrie","postalCode":"L4N 4E1"},{"name":"Boggio & Parton Fonthill Pharmacy","mngrFirstName":"Ron","mngrLastName":"Parton","mngrGradYr":"1984","mngrId":"82627","phoneNumber":"+1 (905) 892-4994","address":"155 Highway #20 W","city":"Fonthill","postalCode":"L0S 1E0"},{"name":"Boggio Pharmacy Ltd","mngrFirstName":"Michel","mngrLastName":"Saati","mngrGradYr":"2010","mngrId":"607907","phoneNumber":"+1 (905) 834-3514","address":"200 Catharine St","city":"Port Colborne","postalCode":"L3K 4K8"},{"name":"Bolton Lifecare Pharmacy","mngrFirstName":"Jatin","mngrLastName":"Patel","mngrGradYr":"2001","mngrId":"603464","phoneNumber":"+1 (905) 857-9494","address":"103-30 Martha St","city":"Bolton","postalCode":"L7E 5V1"},{"name":"Boniface Park Medical Pharmacy","mngrFirstName":"Jothica Hasija","mngrLastName":"Vattam","mngrGradYr":"1998","mngrId":"607267","phoneNumber":"+ (416) 438-9997","address":"8-700 Markham Rd","city":"Scarborough","postalCode":"M1H 2A7"},{"name":"Boniface Park Pharmacy","mngrFirstName":"William/bill","mngrLastName":"Liu","mngrGradYr":"1991","mngrId":"110175","phoneNumber":"+1 (416) 264-0771","address":"3545 Kingston RdUnit 16","city":"Scarborough","postalCode":"M1M 1R6"},{"name":"Bonis-Birchmount Pharmacy","mngrFirstName":"Violet","mngrLastName":"Henis","mngrGradYr":"1982","mngrId":"205312","phoneNumber":"+ (416) 335-8877","address":"5 Bonis Ave","city":"Scarborough","postalCode":"M1T 2T9"},{"name":"Bossons Pharmacy","mngrFirstName":"Michael","mngrLastName":"Gleiser","mngrGradYr":"2007","mngrId":"603652","phoneNumber":"+1 (519) 245-3810","address":"35 Front St W","city":"Strathroy","postalCode":"N7G 1X5"},{"name":"Bothwell I.D.A. Pharmacy","mngrFirstName":"Menryt","mngrLastName":"Youssef","mngrGradYr":"1983","mngrId":"208204","phoneNumber":"+1 (519) 695-2723","address":"231 Main St NPO Box 330","city":"Bothwell","postalCode":"N0P 1C0"},{"name":"Bowmanville Clinic Pharmacy Limited","mngrFirstName":"Marlene","mngrLastName":"McCall","mngrGradYr":"1990","mngrId":"105260","phoneNumber":"+1 (905) 623-7611","address":"1103-222 King St E","city":"Bowmanville","postalCode":"L1C 1P6"},{"name":"Bowmanville Medical Pharmacy","mngrFirstName":"Tahir","mngrLastName":"Mehmood","mngrGradYr":"1992","mngrId":"219373","phoneNumber":"+1 (905) 419-5200","address":"196 King Street East","city":"Bowmanville","postalCode":"L1C 1P1"},{"name":"Bowmanville Pharmacy","mngrFirstName":"Riaz","mngrLastName":"Ahmad","mngrGradYr":"1992","mngrId":"212989","phoneNumber":"+1 (905) 419-7000","address":"4-133 King St E","city":"Bowmanville","postalCode":"L1C 1N6"},{"name":"Bradfield Pharmacy","mngrFirstName":"Fady","mngrLastName":"Soliman","mngrGradYr":"1998","mngrId":"603492","phoneNumber":"+1 (905) 295-3883","address":"8251 Dock St","city":"Chippawa","postalCode":"L2G 7G7"},{"name":"Bradley Pharmacy Ltd","mngrFirstName":"Terry","mngrLastName":"McMahon","mngrGradYr":"1991","mngrId":"110566","phoneNumber":"+1 (705) 675-5693","address":"430 Notre Dame Ave","city":"Sudbury","postalCode":"P3C 5K7"},{"name":"Brady's Drug Store","mngrFirstName":"Timothy","mngrLastName":"Brady","mngrGradYr":"2000","mngrId":"216669","phoneNumber":"+1 (519) 961-9610","address":"186 Talbot St S","city":"Essex","postalCode":"N8M 1B6"},{"name":"Bramcentre Pharmacy","mngrFirstName":"Parvinder","mngrLastName":"Singh","mngrGradYr":"1999","mngrId":"207452","phoneNumber":"+1 (905) 497-5177","address":"14-7910 Hurontario St","city":"Brampton","postalCode":"L6Y 0P6"},{"name":"Bramdale Pharmacy","mngrFirstName":"Emad","mngrLastName":"Henein","mngrGradYr":"1998","mngrId":"609750","phoneNumber":"+1 (905) 790-9393","address":"3-945 Peter Robertson Blvd","city":"Brampton","postalCode":"L6R 2R6"},{"name":"Brameast Pharmacy","mngrFirstName":"Nisha","mngrLastName":"Patel","mngrGradYr":"2003","mngrId":"608705","phoneNumber":"+1 (905) 799-0505","address":"Unit 43-442130 North Park Dr.","city":"Brampton","postalCode":"L6S 0C9"},{"name":"Bramiss Pharmacy","mngrFirstName":"Hany","mngrLastName":"Girgis","mngrGradYr":"1985","mngrId":"209948","phoneNumber":"+ 1(905) 460-8877","address":"B2-7955 Financial Dr","city":"Brampton","postalCode":"L6Y 0J8"},{"name":"Clairhurst Medical Pharmacy","mngrFirstName":"Fady","mngrLastName":"Boules","mngrGradYr":"1992","mngrId":"207640","phoneNumber":"+1 (416) 537-1300","address":"109-1466 Bathurst St","city":"Toronto","postalCode":"M5R 3S3"},{"name":"Clairwood Drug Mart","mngrFirstName":"Michael","mngrLastName":"Cheng","mngrGradYr":"1980","mngrId":"72230","phoneNumber":"+1 (416) 654-4133","address":"942 St Clair Ave W","city":"Toronto","postalCode":"M6C 1C8"},{"name":"Clancy's Drug Store (1986) Ltd","mngrFirstName":"Karen","mngrLastName":"Edgar","mngrGradYr":"1976","mngrId":"61093","phoneNumber":"+1 (613) 623-5193","address":"99 John St N","city":"Arnprior","postalCode":"K7S 2N4"},{"name":"Clarence Creek Pharmacy","mngrFirstName":"Michael","mngrLastName":"Hanna","mngrGradYr":"1999","mngrId":"217129","phoneNumber":"+1 (613) 488-2366","address":"1922 Labonte StPO Box 129","city":"Clarence Creek","postalCode":"K0A 1N0"},{"name":"Clarence Pharmacy","mngrFirstName":"Jay","mngrLastName":"Yung","mngrGradYr":"1979","mngrId":"70661","phoneNumber":"+1 (905) 874-1377","address":"Unit 23 - 83 Kennedy Rd. S.","city":"Brampton","postalCode":"L6W 3P3"},{"name":"Clark's Pharmasave Cedar St Clinic","mngrFirstName":"Tahir","mngrLastName":"Virk","mngrGradYr":"1985","mngrId":"204536","phoneNumber":"+ (519) 428-4226","address":"381 Cedar St","city":"Simcoe","postalCode":"N3Y 2J2"},{"name":"Clark's Pharmasave West Street Health Centre","mngrFirstName":"Josiah","mngrLastName":"Odumodu","mngrGradYr":"1967","mngrId":"28991","phoneNumber":"+1 (519) 426-7750","address":"216 West St","city":"Simcoe","postalCode":"N3Y 1S8"},{"name":"Clark's Pharmasave Whitehorse Plaza","mngrFirstName":"Josiah","mngrLastName":"Odumodu","mngrGradYr":"1967","mngrId":"28991","phoneNumber":"+1 (519) 426-6580","address":"White Horse Plaza454 Norfolk St S","city":"Simcoe","postalCode":"N3Y 2X3"},{"name":"Clarkson PharmaChoice","mngrFirstName":"Tony","mngrLastName":"Chaudhry","mngrGradYr":"1987","mngrId":"95427","phoneNumber":"+1 (905) 403-8181","address":"12-1865 Lakeshore Rd W ","city":"Mississauga ","postalCode":"L5J 4P1"},{"name":"Classic Care Pharmacy","mngrFirstName":"Diane","mngrLastName":"Birch","mngrGradYr":"1987","mngrId":"94862","phoneNumber":"+1 (905) 631-9027","address":"1320 Heine Crt","city":"Burlington","postalCode":"L7L 6L9"},{"name":"Classic Care Pharmacy","mngrFirstName":"Wendy","mngrLastName":"Buchanan","mngrGradYr":"1976","mngrId":"62243","phoneNumber":"+1 (613) 747-2067","address":"169 Colonnade Rd S","city":"Ottawa","postalCode":"K2E 7J4"},{"name":"Classic Care Pharmacy","mngrFirstName":"Rankin","mngrLastName":"MacDonald","mngrGradYr":"2009","mngrId":"612899","phoneNumber":"+1 (519)-668-7246","address":"112 Newbold Court","city":"London","postalCode":"N6E 1Z7"},{"name":"Classic Care Pharmacy","mngrFirstName":"Alpinder","mngrLastName":"Grewal","mngrGradYr":"2002","mngrId":"604197","phoneNumber":"+1 (905) 332-0526","address":"1329 Heine Court","city":"Burlington","postalCode":"L7L 6A7"},{"name":"Classic Care Pharmacy","mngrFirstName":"Ramez","mngrLastName":"Hanna","mngrGradYr":"2003","mngrId":"615454","phoneNumber":"+1 (705) 481-1900","address":"B110 - 298 Forest Ave North","city":"Orillia","postalCode":"L3V 0C3"},{"name":"Clements IDA Pharmacy","mngrFirstName":"David","mngrLastName":"Marich","mngrGradYr":"1974","mngrId":"55441","phoneNumber":"+1 (705) 724-3523","address":"497 Main StPo Box 177","city":"Powassan","postalCode":"P0H 1Z0"},{"name":"Cliffside Pharmacy","mngrFirstName":"Sherif","mngrLastName":"Behiry","mngrGradYr":"2000","mngrId":"614581","phoneNumber":"+1 (416) 264-3245","address":"2340 Kingston Rd","city":"Scarborough","postalCode":"M1N 1V2"},{"name":"Cliffway Pharmacy","mngrFirstName":"Peter","mngrLastName":"Chow","mngrGradYr":"1971","mngrId":"60356","phoneNumber":"+1 (905) 276-8198","address":"302 - 2021 Cliff Rd       ","city":"Mississauga","postalCode":"L5A 3N7"},{"name":"Cliffwood IDA Pharmacy","mngrFirstName":"Riad","mngrLastName":"Elsobky","mngrGradYr":"1989","mngrId":"115991","phoneNumber":"+1 (416) 494-3770","address":"Cliffwood Plaza3885 Don Mills Rd","city":"Willowdale","postalCode":"M2H 2S7"},{"name":"Clinic Pharmacy","mngrFirstName":"Hussein","mngrLastName":"Mitha","mngrGradYr":"2008","mngrId":"604788","phoneNumber":"+1 (905) 576-9090","address":"117 King St E","city":"Oshawa","postalCode":"L1H 1B9"},{"name":"Clinic Pharmacy","mngrFirstName":"Nermin","mngrLastName":"Iskandar","mngrGradYr":"2001","mngrId":"603693","phoneNumber":"+1 (705) 526-4269","address":"Huronia Medical Centre240 Penetang RdPo Box 790","city":"Midland","postalCode":"L4R 4P4"},{"name":"Drug Basics","mngrFirstName":"Marie","mngrLastName":"Wassif","mngrGradYr":"1989","mngrId":"210408","phoneNumber":"+ (519) 669-3003","address":"232 Arthur St S","city":"Elmira","postalCode":"N3B 2P2"},{"name":"Drug Basics","mngrFirstName":"Iram","mngrLastName":"Rashid","mngrGradYr":"1987","mngrId":"608318","phoneNumber":"+1 (519) 676-2623","address":"286 Chatham St N","city":"Blenheim","postalCode":"N0P 1A0"},{"name":"Drug Basics #567","mngrFirstName":"Happy","mngrLastName":"Saladeen","mngrGradYr":"1995","mngrId":"200652","phoneNumber":"+1 (905) 272-2828","address":"2550 Hurontario St","city":"Mississauga","postalCode":"L5B 1N5"},{"name":"Drug Basics Pharmacy Inc.","mngrFirstName":"Nadia","mngrLastName":"Shawki","mngrGradYr":"1968","mngrId":"114618","phoneNumber":"+1 (416) 463-7697","address":"1068 Danforth Avenue","city":"Toronto","postalCode":"M4J 1M2"},{"name":"Drug Centre Discount Pharmacy","mngrFirstName":"Johnson","mngrLastName":"Lam","mngrGradYr":"1979","mngrId":"70254","phoneNumber":"+1 (416) 787-4906","address":"1473 Eglinton Ave W","city":"Toronto","postalCode":"M6E 2G6"},{"name":"Drug Inn Pharmacy","mngrFirstName":"Adel","mngrLastName":"Tawadros","mngrGradYr":"1978","mngrId":"204552","phoneNumber":"+1 (905) 874-0644","address":"200 County Court Blvd","city":"Brampton","postalCode":"L6W 4K7"},{"name":"DrugSmart Pharmacy","mngrFirstName":"Irfan","mngrLastName":"Jetha","mngrGradYr":"2005","mngrId":"606194","phoneNumber":"+1 (613) 376-3842","address":"4375 Mill StPO Box 449","city":"Sydenham","postalCode":"K0H 2T0"},{"name":"Drugsmart Pharmacy","mngrFirstName":"Suzanne","mngrLastName":"Kerr","mngrGradYr":"2005","mngrId":"604320","phoneNumber":"+1 (613) 507-7775","address":"B400 & 401 - 284 Earl St","city":"Kingston","postalCode":"K7L 2H8"},{"name":"DrugSmart Pharmacy - Canadian Addiction Treatment Pharmacy LP","mngrFirstName":"Allison","mngrLastName":"Gillis","mngrGradYr":"2007","mngrId":"603666","phoneNumber":"+1 (705) 741-1646","address":"102-849 Alexander Crt","city":"Peterborough","postalCode":"K9J 7H8"},{"name":"Drugstore Pharmacy","mngrFirstName":"Rosemarie","mngrLastName":"Yap","mngrGradYr":"1986","mngrId":"108766","phoneNumber":"+1 (416) 968-7283","address":"17 Leslie St","city":"Toronto","postalCode":"M4M 3H9"},{"name":"Drugstore Pharmacy","mngrFirstName":"Sean","mngrLastName":"Alsaheb-Fosoul","mngrGradYr":"1997","mngrId":"605692","phoneNumber":"+1 (905) 452-9011","address":"295 Queen St E","city":"Brampton","postalCode":"L6W 3R1"},{"name":"Drugstore Pharmacy","mngrFirstName":"Andrew","mngrLastName":"Lam","mngrGradYr":"1984","mngrId":"89915","phoneNumber":"+1 (905) 712-9626","address":"620 Eglinton Ave W","city":"Mississauga","postalCode":"L5R 3V2"},{"name":"Drugstore Pharmacy","mngrFirstName":"Mary","mngrLastName":"Sokoloski","mngrGradYr":"1979","mngrId":"69132","phoneNumber":"+1 (705) 869-0330","address":"745 Centre St","city":"Espanola","postalCode":"P5E 1S8"},{"name":"Drugstore Pharmacy","mngrFirstName":"Nevenka","mngrLastName":"Bojat","mngrGradYr":"1979","mngrId":"603107","phoneNumber":"+1 (416) 421-5727","address":"985 Woodbine Ave","city":"Toronto","postalCode":"M4C 4B8"},{"name":"Drugstore Pharmacy","mngrFirstName":"Amy","mngrLastName":"Kim","mngrGradYr":"2008","mngrId":"604885","phoneNumber":"+1 (416) 588-4973","address":"650 Dupont St","city":"Toronto","postalCode":"M6G 4B1"},{"name":"Drugstore Pharmacy","mngrFirstName":"Gary","mngrLastName":"Smith","mngrGradYr":"1989","mngrId":"208980","phoneNumber":"+1 (905) 852-1206","address":"323 Toronto St SPo Box 788","city":"Uxbridge","postalCode":"L9P 1N2"},{"name":"Drugstore Pharmacy","mngrFirstName":"Navkiran","mngrLastName":"Malhi","mngrGradYr":"2006","mngrId":"610240","phoneNumber":"+1 (519) 763-6299","address":"Hartsland Markets Square160 Kortright Rd W","city":"Guelph","postalCode":"N1G 4W2"},{"name":"Drugstore Pharmacy","mngrFirstName":"Munaza","mngrLastName":"Wasay","mngrGradYr":"1992","mngrId":"205728","phoneNumber":"+1 (613) 254-5334","address":"760 Eagleson Rd","city":"Kanata","postalCode":"K2M 0A7"},{"name":"Drugstore Pharmacy","mngrFirstName":"Ishrat","mngrLastName":"Rehmani","mngrGradYr":"1988","mngrId":"210468","phoneNumber":"+1 (613) 825-3748","address":"3201 Greenbank Rd","city":"Ottawa","postalCode":"K2J 4H9"},{"name":"Fittons Pharmacy","mngrFirstName":"Mike","mngrLastName":"Wang","mngrGradYr":"1994","mngrId":"210772","phoneNumber":"+1 (705) 325-2999","address":"20-425 West St N","city":"Orillia","postalCode":"L3V 7R2"},{"name":"Flesherton Pharmacy","mngrFirstName":"Kathleen","mngrLastName":"Payumo","mngrGradYr":"2007","mngrId":"612718","phoneNumber":"+1 (519) 924-3007","address":"7 Durham StPo Box 370","city":"Flesherton","postalCode":"N0C 1E0"},{"name":"Floradale Medical Pharmacy","mngrFirstName":"Amit","mngrLastName":"Shah","mngrGradYr":"2001","mngrId":"217957","phoneNumber":"+ (905) 279-1773","address":"2444 Hurontario St","city":"Mississauga","postalCode":"L5B 2V1"},{"name":"Fogal Pharmacy Limited","mngrFirstName":"Beena","mngrLastName":"Kantawala","mngrGradYr":"1995","mngrId":"612039","phoneNumber":"+1 (905) 915-8777","address":"E6 - 8920 Highway 50","city":"Brampton","postalCode":"L6P 3A3"},{"name":"Fontainebleu Pharmacy","mngrFirstName":"Elizabeth","mngrLastName":"Vaillancourt","mngrGradYr":"1994","mngrId":"203832","phoneNumber":"+1 (519) 948-1422","address":"2901 Grandview Rd","city":"Windsor","postalCode":"N8T 2L5"},{"name":"Foodland Pharmacy","mngrFirstName":"George","mngrLastName":"Stathakis","mngrGradYr":"2006","mngrId":"605549","phoneNumber":"+1 (905) 936-1189","address":"260 Queen St N","city":"Tottenham","postalCode":"L0G 1W0"},{"name":"Forbes Park Pharmacy","mngrFirstName":"Zubair","mngrLastName":"Saji","mngrGradYr":"2002","mngrId":"211736","phoneNumber":"+ (519) 658-0001","address":"26 Forbes St.","city":"Cambridge","postalCode":"N3C 2E2"},{"name":"Forest Glade Pharmacy","mngrFirstName":"Ziad","mngrLastName":"Hissy","mngrGradYr":"1997","mngrId":"609312","phoneNumber":"+1 (519) 979-9200","address":"3145 Forest Glade Dr.","city":"Windsor","postalCode":"N8R 1W6"},{"name":"Forest Hill Pharmacy","mngrFirstName":"Christopher","mngrLastName":"Miller","mngrGradYr":"2005","mngrId":"604135","phoneNumber":"+1 (519) 745-7305","address":"720 Westmount Rd E","city":"Kitchener","postalCode":"N2E 2M6"},{"name":"Forest Hill Pharmacy","mngrFirstName":"Lawrence","mngrLastName":"Leung","mngrGradYr":"1980","mngrId":"71455","phoneNumber":"+ (416) 619-7768","address":"102-491 Eglinton Ave W","city":"Toronto","postalCode":"M5N 1A8"},{"name":"Forest Pharmasave","mngrFirstName":"Al - Karim","mngrLastName":"Ladak","mngrGradYr":"1994","mngrId":"210412","phoneNumber":"+1 (519) 786-5161","address":"19 King St W","city":"Forest","postalCode":"N0N 1J0"},{"name":"Fort Frances Clinic Dispensary","mngrFirstName":"Kim","mngrLastName":"Metke","mngrGradYr":"1980","mngrId":"82252","phoneNumber":"+1 (807) 274-6204","address":"301 Victoria Ave","city":"Fort Frances","postalCode":"P9A 2C1"},{"name":"Forum Drug Mart","mngrFirstName":"Sam","mngrLastName":"Di Michele","mngrGradYr":"1984","mngrId":"83569","phoneNumber":"+1 (289) 553-7700","address":"100-955 Major MacKenzie Dr","city":"Vaughan","postalCode":"L6A 4P9"},{"name":"Franklin Pharmacy","mngrFirstName":"Liz","mngrLastName":"Mutton","mngrGradYr":"1984","mngrId":"83054","phoneNumber":"+1 (519) 629-3857","address":"1150 Franklin Blvd","city":"Cambridge","postalCode":"N1R 7J2"},{"name":"Frederick Mall Pharmacy","mngrFirstName":"Ramzy","mngrLastName":"Shaker","mngrGradYr":"1991","mngrId":"214573","phoneNumber":"+ (519) 745-4700","address":"385 Frederick St","city":"Kitchener","postalCode":"N2H 2P2"},{"name":"Freitag's Pharmacy","mngrFirstName":"Darryl","mngrLastName":"Freitag","mngrGradYr":"2000","mngrId":"215109","phoneNumber":"+1 (705) 848-1026","address":"36 Prince Edward Walk","city":"Elliot Lake","postalCode":"P5A 1Z8"},{"name":"FreschCo","mngrFirstName":"Scott","mngrLastName":"Le","mngrGradYr":"1995","mngrId":"201032","phoneNumber":"+ (905) 794-5756","address":"3998 Cottrelle Blvd","city":"Brampton","postalCode":"L6P 2R1"},{"name":"Freschco Pharmacy","mngrFirstName":"Austin","mngrLastName":"Le","mngrGradYr":"1996","mngrId":"207952","phoneNumber":"+1 (905) 371-8925","address":"5931 Kalar Road","city":"Niagara Falls","postalCode":"L2H 1T6"},{"name":"FreshCo","mngrFirstName":"Nagwa","mngrLastName":"Khalil","mngrGradYr":"1984","mngrId":"214349","phoneNumber":"+1 (905) 873-1195","address":"325 Guelph St","city":"Georgetown","postalCode":"L7G 4B3"},{"name":"Healthline Pharmacy","mngrFirstName":"Tamer","mngrLastName":"Farag","mngrGradYr":"1993","mngrId":"617151","phoneNumber":"+1 (905) 458-9000","address":"3-150 Yellow Avens Blvd ","city":"Brampton","postalCode":"L6R 0M5"},{"name":"Healthplex Pharmacy","mngrFirstName":"Arun","mngrLastName":"Bhardwaj","mngrGradYr":"1979","mngrId":"605335","phoneNumber":"+ (905) 454-7410","address":"150 West Dr","city":"Brampton","postalCode":"L6T 4P9"},{"name":"Healthplex Pharmacy","mngrFirstName":"Elizabeth","mngrLastName":"Baryluk","mngrGradYr":"1979","mngrId":"115150","phoneNumber":"+1 (416) 621-6161","address":"2-452 Rathburn Rd","city":"Etobicoke","postalCode":"M9C 3S8"},{"name":"Health-Rite Pharmacy","mngrFirstName":"Emad","mngrLastName":"Khalil","mngrGradYr":"1979","mngrId":"106178","phoneNumber":"+1 (905) 428-1711","address":"75 Bayly St W","city":"Ajax","postalCode":"L1S 7K7"},{"name":"Heart Lake IDA Drugs","mngrFirstName":"Antonio","mngrLastName":"Behno","mngrGradYr":"2006","mngrId":"605677","phoneNumber":"+1 (905) 846-3737","address":"230 Sandalwood Pkwy E","city":"Brampton","postalCode":"L6Z 1R3"},{"name":"Hellenic Pharmacy","mngrFirstName":"Manal","mngrLastName":"William","mngrGradYr":"1984","mngrId":"209004","phoneNumber":"+1 (416) 461-0377","address":"374 Danforth Ave","city":"Toronto","postalCode":"M4K 1N8"},{"name":"Henderson Arts Pharmacy","mngrFirstName":"Mourad","mngrLastName":"Grace","mngrGradYr":"1991","mngrId":"207052","phoneNumber":"+1 (905) 383-9370","address":"662 Concession St","city":"Hamilton","postalCode":"L8V 1B8"},{"name":"Henderson's Pharmacy Limited","mngrFirstName":"John","mngrLastName":"Henderson","mngrGradYr":"1965","mngrId":"15490","phoneNumber":"+1 (905) 227-3833","address":"15 Front St South","city":"Thorold","postalCode":"L2V 1W8"},{"name":"Henderson's Woodbridge Medical Pharmacy","mngrFirstName":"Mona","mngrLastName":"Raphael","mngrGradYr":"1987","mngrId":"207816","phoneNumber":"+1 (905) 851-1109","address":"167 Woodbridge Ave","city":"Woodbridge","postalCode":"L4L 2S6"},{"name":"Henley Gardens Pharmacy","mngrFirstName":"Zahir","mngrLastName":"Visram","mngrGradYr":"1979","mngrId":"86827","phoneNumber":"+1 (416) 693-8888","address":"5-1089 Kingston Rd","city":"Scarborough","postalCode":"M1N 4E4"},{"name":"Henry's Drugs","mngrFirstName":"Essam","mngrLastName":"Saleh","mngrGradYr":"1984","mngrId":"101095","phoneNumber":"+1 (416) 439-9802","address":"4-1221 Markham Rd","city":"Scarborough","postalCode":"M1H 3E2"},{"name":"Hensall Pharmacy","mngrFirstName":"Michael","mngrLastName":"Haddad","mngrGradYr":"1984","mngrId":"210432","phoneNumber":"+1 (519) 262-3337","address":"121 King St","city":"Hensall","postalCode":"N0M 1X0"},{"name":"Heritage Glen Pharmacy","mngrFirstName":"Betty","mngrLastName":"Valerio","mngrGradYr":"1987","mngrId":"208860","phoneNumber":"+ (905) 567-5800","address":"6515 Glen Erin Dr","city":"Mississauga","postalCode":"L5N 8P9"},{"name":"Heritage Hills Pharmacy","mngrFirstName":"Ramniklal","mngrLastName":"Sachania","mngrGradYr":"1972","mngrId":"60275","phoneNumber":"+1 (905) 890-1556","address":"9/10-4646 Heritage Hills Blvd","city":"Mississauga","postalCode":"L5R 1Y4"},{"name":"Heritage IDA Pharmacy","mngrFirstName":"Steve","mngrLastName":"Mistry","mngrGradYr":"1991","mngrId":"112542","phoneNumber":"+1 (905) 471-6084","address":"9275 Markham Rd","city":"Markham","postalCode":"L6E 1A3"},{"name":"Heritage Market Pharmacy","mngrFirstName":"Carolyn","mngrLastName":"White","mngrGradYr":"1988","mngrId":"97616","phoneNumber":"+1 (905) 686-7879","address":"16-145 Kingston Rd E","city":"Ajax","postalCode":"L1S 7J4"},{"name":"Heritage Park Pharmacy","mngrFirstName":"Mike","mngrLastName":"Nakhla","mngrGradYr":"2000","mngrId":"608325","phoneNumber":"+1 (519) 744-6770","address":"2-200 Lorraine Ave","city":"Kitchener","postalCode":"N2B 3R3"},{"name":"Heritage Pharmacy","mngrFirstName":"Emil","mngrLastName":"Saad","mngrGradYr":"1982","mngrId":"209496","phoneNumber":"+1 (416) 469-0444","address":"1488 Danforth Ave","city":"Toronto","postalCode":"M4J 1N4"},{"name":"Herman's Pharmacy","mngrFirstName":"Scott","mngrLastName":"Mullen","mngrGradYr":"2003","mngrId":"216305","phoneNumber":"+1 (705) 674-3339","address":"240 Regent St S","city":"Sudbury","postalCode":"P3C 4C5"},{"name":"Hespeler Pharmacy","mngrFirstName":"Matthew","mngrLastName":"Digiovanni","mngrGradYr":"2011","mngrId":"611013","phoneNumber":"+1 (519) 658-4420","address":"13-100 Jamieson Parkway","city":"Cambridge","postalCode":"N3C 4B3"},{"name":"Kipling Heights Pharmacy","mngrFirstName":"Jagdish","mngrLastName":"Prabhakar","mngrGradYr":"1992","mngrId":"613749","phoneNumber":"+1 (416) 747-2999","address":"2291 Kipling Ave","city":"Etobicoke","postalCode":"M9W 4L6"},{"name":"Kipling Pharmacy","mngrFirstName":"Nancy","mngrLastName":"Zaytoon","mngrGradYr":"1989","mngrId":"216605","phoneNumber":"+ (416) 743-8333","address":"5-2141 Kipling Ave","city":"Etobicoke","postalCode":"M9W 4K8"},{"name":"Kipling-Queensway Pharmacy","mngrFirstName":"Lien","mngrLastName":"Lien","mngrGradYr":"1971","mngrId":"84069","phoneNumber":"+1 (416) 252-4567","address":"20-1255 The Queensway","city":"Etobicoke","postalCode":"M8Z 1S1"},{"name":"Kirkland Pharmacy","mngrFirstName":"Chad","mngrLastName":"Wallace","mngrGradYr":"1995","mngrId":"201936","phoneNumber":"+1 (705) 567-3223","address":"38 Government Rd W","city":"Kirkland Lake","postalCode":"P2N 2E2"},{"name":"Kleinburg Pharmacy","mngrFirstName":"Nash","mngrLastName":"Zakhari","mngrGradYr":"1967","mngrId":"204156","phoneNumber":"+1 (905) 893-3747","address":"5-10462 Islington Ave","city":"Kleinburg","postalCode":"L0J 1C0"},{"name":"KLH Pharmacy","mngrFirstName":"Mamdouh","mngrLastName":"Farag","mngrGradYr":"1981","mngrId":"203176","phoneNumber":"+1 (416) 282-2020","address":"4113-A Lawrence Ave. E","city":"Toronto","postalCode":"M1E 2S2"},{"name":"Kohler Drug Store","mngrFirstName":"Anne","mngrLastName":"Matsumoto O'Brien","mngrGradYr":"1978","mngrId":"67342","phoneNumber":"+1 (905) 527-1716","address":"14 James St N","city":"Hamilton","postalCode":"L8R 2J9"},{"name":"Komoka Pharmacy","mngrFirstName":"Michael","mngrLastName":"Tanios","mngrGradYr":"1996","mngrId":"613270","phoneNumber":"+1 (519) 641-0909","address":"3-9952 Glendon DrivePO Box 220","city":"Komoka","postalCode":"N0L 1R0"},{"name":"Konop Chemists Ltd","mngrFirstName":"Richard","mngrLastName":"Konop","mngrGradYr":"1991","mngrId":"110213","phoneNumber":"+1 (416) 925-6313","address":"208 Bloor St W","city":"Toronto","postalCode":"M5S 3B4"},{"name":"Kortright Pharmacy","mngrFirstName":"Jeannine","mngrLastName":"Oliver","mngrGradYr":"2011","mngrId":"611045","phoneNumber":"+1 (519) 763-1118","address":"570 Kortright Rd W","city":"Guelph","postalCode":"N1G 3W8"},{"name":"L & A Pharmacy","mngrFirstName":"Larry","mngrLastName":"Wong","mngrGradYr":"1979","mngrId":"70165","phoneNumber":"+1 (416) 465-1515","address":"1485 Gerrard St E","city":"Toronto","postalCode":"M4L 2A4"},{"name":"La Rose Pharmacy","mngrFirstName":"Kevin","mngrLastName":"Wu","mngrGradYr":"1986","mngrId":"89680","phoneNumber":"+1 (416) 249-8600","address":"140 La Rose Ave","city":"Etobicoke","postalCode":"M9P 1B2"},{"name":"La Verendrye Health Centre","mngrFirstName":"David","mngrLastName":"Evans","mngrGradYr":"1970","mngrId":"9865","phoneNumber":"+1 (807) 274-4811","address":"Pharmacy Dept110 Victoria Ave","city":"Fort Frances","postalCode":"P9A 2B7"},{"name":"La Vita Pharmacy","mngrFirstName":"Viet","mngrLastName":"Hoang","mngrGradYr":"1980","mngrId":"205532","phoneNumber":"+1 (905) 850-3088","address":"3-270 Chancellor Dr","city":"Vaughan","postalCode":"L4L 7M1"},{"name":"Laclie Pharmacy","mngrFirstName":"Dennis","mngrLastName":"Lee","mngrGradYr":"1989","mngrId":"102938","phoneNumber":"+1 (705) 325-1111","address":"400 Laclie St","city":"Orillia","postalCode":"L3V 4P5"},{"name":"Lake Of The Woods District Hos","mngrFirstName":"James","mngrLastName":"Edie","mngrGradYr":"1982","mngrId":"99589","phoneNumber":"+1 (807) 468-9861","address":"Pharmacy Dept21 Sylvan St W","city":"Kenora","postalCode":"P9N 3W7"},{"name":"Lakefield IDA Pharmacy","mngrFirstName":"Daniel","mngrLastName":"Fazzari","mngrGradYr":"1994","mngrId":"203192","phoneNumber":"+1 (705) 652-8184","address":"32 Queen StPO Box 699","city":"Lakefield","postalCode":"K0L 2H0"},{"name":"Lakefront Medical Pharmacy","mngrFirstName":"Jerry","mngrLastName":"Metyas","mngrGradYr":"2011","mngrId":"610800","phoneNumber":"+1 (647) 340-7730","address":"550 Queens Quay WUnit 14","city":"Toronto","postalCode":"M5V 3M8"},{"name":"Lakehead Psychiatric Hospital","mngrFirstName":"Garry","mngrLastName":"Prokopowich","mngrGradYr":"2001","mngrId":"215493","phoneNumber":"+1 (807) 343-4300","address":"Pharmacy Dept580 Algoma St NPo Box 2930","city":"Thunder Bay","postalCode":"P7B 5G4"},{"name":"Lakeridge Health","mngrFirstName":"Linda","mngrLastName":"Skinner","mngrGradYr":"1981","mngrId":"78433","phoneNumber":"+1 (905) 668-6831","address":"Pharmacy Dept300 Gordon St","city":"Whitby","postalCode":"L1N 5T2"},{"name":"Loblaw Pharmacy","mngrFirstName":"Bryce","mngrLastName":"Kowalczyk","mngrGradYr":"2007","mngrId":"614030","phoneNumber":"+1 (416) 665-7636","address":"51 Gerry Fitzgerald Dr","city":"Toronto","postalCode":"M3J 3N4"},{"name":"Loblaw Pharmacy","mngrFirstName":"Maged","mngrLastName":"Morgan","mngrGradYr":"1981","mngrId":"211980","phoneNumber":"+1 (519) 765-2915","address":"657 John St","city":"Aylmer","postalCode":"N5H 3J1"},{"name":"Loblaw Pharmacy","mngrFirstName":"Donna","mngrLastName":"Nelson","mngrGradYr":"2000","mngrId":"604302","phoneNumber":"+1 (905) 726-8334","address":"15900 Bayview Ave","city":"Aurora","postalCode":"L4G 7Y3"},{"name":"Loblaw Pharmacy","mngrFirstName":"Kristin","mngrLastName":"Ferguson","mngrGradYr":"2007","mngrId":"603526","phoneNumber":"+1 (905) 885-5758","address":"20 Jocelyn St","city":"Port Hope","postalCode":"L1A 3V7"},{"name":"Loblaw Pharmacy","mngrFirstName":"Lauren","mngrLastName":"Gooley","mngrGradYr":"2005","mngrId":"217781","phoneNumber":"+1 (705) 455-9779","address":"5121 County Rd #21","city":"Haliburton","postalCode":"K0M 1S0"},{"name":"Loblaw Pharmacy","mngrFirstName":"Monica","mngrLastName":"Kwok","mngrGradYr":"2004","mngrId":"606692","phoneNumber":"+ (416) 733-1350","address":"2877 Bayview Ave","city":"North York","postalCode":"M2K 2S3"},{"name":"Loblaw Pharmacy","mngrFirstName":"Sima","mngrLastName":"Dhanani","mngrGradYr":"1990","mngrId":"203092","phoneNumber":"+1 (613) 824-5448","address":"Real Canadian Superstore4270 Innes Rd","city":"Ottawa","postalCode":"K4A 5E6"},{"name":"Loblaw Pharmacy","mngrFirstName":"Neha","mngrLastName":"Dengre","mngrGradYr":"1991","mngrId":"219153","phoneNumber":"+1 (905) 433-9503","address":"1385 Harmony Rd N","city":"Oshawa","postalCode":"L1H 7K5"},{"name":"Loblaw Pharmacy","mngrFirstName":"Stephen","mngrLastName":"Heighton","mngrGradYr":"2004","mngrId":"604080","phoneNumber":"+1 (519) 473-4775","address":"599 Fanshawe Park Rd W","city":"London","postalCode":"N6G 5B3"},{"name":"Loblaw Pharmacy","mngrFirstName":"Satyajeet","mngrLastName":"Rathi","mngrGradYr":"1994","mngrId":"607746","phoneNumber":"+ (905) 451-9987","address":"85 Steeles Ave W","city":"Brampton","postalCode":"L6Y 0B5"},{"name":"Loblaw Pharmacy","mngrFirstName":"Salete","mngrLastName":"Benetton","mngrGradYr":"1985","mngrId":"607254","phoneNumber":"+ (416) 534-9965","address":"No Frills900 Dufferin St","city":"Toronto","postalCode":"M6H 4A9"},{"name":"Loblaw Pharmacy","mngrFirstName":"Tina","mngrLastName":"Chellakudam","mngrGradYr":"1999","mngrId":"218897","phoneNumber":"+ (519) 284-3716","address":"780 Queen St E","city":"St. Marys","postalCode":"N4X 1B1"},{"name":"Loblaw Pharmacy","mngrFirstName":"Tham","mngrLastName":"Truong","mngrGradYr":"2011","mngrId":"616090","phoneNumber":"+1 (519) 821-7444","address":"191 Silvercreek Parkway N","city":"Guelph","postalCode":"N1H 3T2"},{"name":"Loblaw Pharmacy","mngrFirstName":"Komal","mngrLastName":"Chaudhry","mngrGradYr":"2004","mngrId":"609946","phoneNumber":"+ (416) 781-8699","address":"700 Lawrence Ave W","city":"Toronto","postalCode":"M6A 3B4"},{"name":"Loblaw Pharmacy","mngrFirstName":"Alpana","mngrLastName":"Vora","mngrGradYr":"1988","mngrId":"106585","phoneNumber":"+1 (905) 820-7775","address":"2150 Burnhamthorpe Rd","city":"Mississauga","postalCode":"L5L 3A2"},{"name":"Loblaw Pharmacy","mngrFirstName":"Vu","mngrLastName":"Luu","mngrGradYr":"2003","mngrId":"603270","phoneNumber":"+1 (905) 815-5225","address":"125 Cross Ave.","city":"Oakville","postalCode":"L6J 2W8"},{"name":"Loblaw Pharmacy","mngrFirstName":"Marilyn","mngrLastName":"Stanford-Zinck","mngrGradYr":"1976","mngrId":"212881","phoneNumber":"+1 (705) 494-9224","address":"300 Lakeshore Drive","city":"North Bay","postalCode":"P1A 3V2"},{"name":"Loblaw Pharmacy","mngrFirstName":"Hari","mngrLastName":"Pemasani","mngrGradYr":"1992","mngrId":"612175","phoneNumber":"+1 (905) 529-9135","address":"50 Dundurn St","city":"Hamilton","postalCode":"L8P 4W3"},{"name":"Loblaw Pharmacy","mngrFirstName":"Katie","mngrLastName":"Tran","mngrGradYr":"2006","mngrId":"213809","phoneNumber":"+ (519) 662-9990","address":"1540 Haysville Rd","city":"New Hamburg","postalCode":"N3A 0A2"},{"name":"Loblaw Pharmacy","mngrFirstName":"Ram","mngrLastName":"Sriram","mngrGradYr":"1989","mngrId":"612485","phoneNumber":"+ (613) 542-9225","address":"1162 Division St","city":"Kingston","postalCode":"K7K 0C3"},{"name":"McDonald's Pharmacy","mngrFirstName":"Bruce","mngrLastName":"McDonald","mngrGradYr":"1983","mngrId":"80780","phoneNumber":"+1 (705) 235-3941","address":"67 Bruce Ave","city":"South Porcupine","postalCode":"P0N 1H0"},{"name":"McGaffey Medical Pharmacy","mngrFirstName":"Vince","mngrLastName":"Gauthier","mngrGradYr":"1984","mngrId":"86657","phoneNumber":"+1 (519) 944-1717","address":"3955 Tecumseh Rd E","city":"Windsor","postalCode":"N8W 1J5"},{"name":"McGregor IDA Drugs","mngrFirstName":"George","mngrLastName":"Tadros","mngrGradYr":"2002","mngrId":"607359","phoneNumber":"+1 (905) 623-5792","address":"5 King St W","city":"Bowmanville","postalCode":"L1C 1R2"},{"name":"Mcintyre Pharmacy","mngrFirstName":"Upendra","mngrLastName":"Patel","mngrGradYr":"1964","mngrId":"52183","phoneNumber":"+1 (519) 294-6314","address":"238 Main StPo Box 38","city":"Parkhill","postalCode":"N0M 2K0"},{"name":"Mcintyre Pharmacy Ltd","mngrFirstName":"Nicholas","mngrLastName":"Roberts","mngrGradYr":"1998","mngrId":"210904","phoneNumber":"+1 (519) 676-5467","address":"49 Talbot St WPo Box 749","city":"Blenheim","postalCode":"N0P 1A0"},{"name":"McKechnie Pharmacy Ltd","mngrFirstName":"Michael","mngrLastName":"McKechnie","mngrGradYr":"2001","mngrId":"210088","phoneNumber":"+1 (519) 396-2133","address":"44 Queen St","city":"Kincardine","postalCode":"N2Z 3C1"},{"name":"McKenzie's Pharmacy Limited","mngrFirstName":"Peter","mngrLastName":"Mountain","mngrGradYr":"1993","mngrId":"203708","phoneNumber":"+1 (519) 534-0230","address":"608 Berford StPo Box 340","city":"Wiarton","postalCode":"N0H 2T0"},{"name":"McKesson Specialty Prescription Services","mngrFirstName":"Mukta","mngrLastName":"Rathore","mngrGradYr":"2004","mngrId":"220225","phoneNumber":"+1 (416) 467-8698","address":"1 Concord Gate4th Floor","city":"Toronto","postalCode":"M3C 3N6"},{"name":"McLaren Pharmacy","mngrFirstName":"Nilesh","mngrLastName":"Yadav","mngrGradYr":"1985","mngrId":"100374","phoneNumber":"+1 (519) 876-2213","address":"5299 Nauvoo Rd","city":"Watford","postalCode":"N0M 2S0"},{"name":"McLaughlin Medical Pharmacy","mngrFirstName":"Sadek","mngrLastName":"El Zawy","mngrGradYr":"1985","mngrId":"208836","phoneNumber":"+1 (905) 452-9600","address":"20-499 Ray Lawson Blvd","city":"Brampton","postalCode":"L6Y 4E6"},{"name":"McMaster Drugstore","mngrFirstName":"Jason","mngrLastName":"Thomas","mngrGradYr":"2002","mngrId":"211760","phoneNumber":"+1 (905) 521-5019","address":"1200 Main St W","city":"Hamilton","postalCode":"L8N 3Z5"},{"name":"McNeil Pharmacy","mngrFirstName":"Walid","mngrLastName":"Fahim","mngrGradYr":"1995","mngrId":"604336","phoneNumber":"+1 (613) 722-7679","address":"1081 Carling Ave","city":"Ottawa","postalCode":"K1Y 4G2"},{"name":"MD Health Pharmacy","mngrFirstName":"Sam","mngrLastName":"Sadek","mngrGradYr":"1995","mngrId":"610938","phoneNumber":"+ (905) 456-7744","address":"186 Main St S","city":"Brampton","postalCode":"L6W 2E2"},{"name":"Meadowbrook Lane Pharmacy","mngrFirstName":"Ramy","mngrLastName":"Youssef","mngrGradYr":"2006","mngrId":"615540","phoneNumber":"+1 (905) 940-2004","address":"106-4591 Hwy 7","city":"Markham","postalCode":"L3R 1M6"},{"name":"Meadows Pharmacy Limited","mngrFirstName":"Dennis","mngrLastName":"Georgieff","mngrGradYr":"1976","mngrId":"61026","phoneNumber":"+1 (905) 358-3913","address":"Stamford Green Shopping Plaza3493 Portage Rd","city":"Niagara Falls","postalCode":"L2J 2K5"},{"name":"Meadows Pharmacy Limited","mngrFirstName":"Brian","mngrLastName":"Pellow","mngrGradYr":"1975","mngrId":"57746","phoneNumber":"+1 (905) 357-6577","address":"3770 Montrose Rd","city":"Niagara Falls","postalCode":"L2H 3K3"},{"name":"Meadowvale Pharmacy","mngrFirstName":"Pak","mngrLastName":"Ho","mngrGradYr":"1993","mngrId":"202528","phoneNumber":"+1 (905) 824-0701","address":"9A-6750 Winston Churchill Blvd","city":"Mississauga","postalCode":"L5N 4C4"},{"name":"Meadowvale Professional Centre Pharmacy","mngrFirstName":"Nishith","mngrLastName":"Ghelani","mngrGradYr":"1986","mngrId":"90425","phoneNumber":"+1 (905) 821-9992","address":"6855 Meadowvale Town Cntr Cir","city":"Mississauga","postalCode":"L5N 2Y1"},{"name":"Med Health Pharmacy","mngrFirstName":"Mukesh","mngrLastName":"Kshatri","mngrGradYr":"1995","mngrId":"200928","phoneNumber":"+1 (519) 622-0404","address":"614 Coronation Blvd","city":"Cambridge","postalCode":"N1R 3E8"},{"name":"Med Rx Altabank Pharmacy","mngrFirstName":"Samia","mngrLastName":"Abou-Assi","mngrGradYr":"1991","mngrId":"604744","phoneNumber":"+1 (613) 526-4466","address":"1405 A Bank St","city":"Ottawa","postalCode":"K1H 8N1"},{"name":"Muxlow Pharmacy Limited","mngrFirstName":"David","mngrLastName":"Glass","mngrGradYr":"1981","mngrId":"74470","phoneNumber":"+1 (519) 538-1960","address":"54 Sykes St N","city":"Meaford","postalCode":"N4L 1R2"},{"name":"My Care Pharmacy","mngrFirstName":"Nina","mngrLastName":"Hanif","mngrGradYr":"1989","mngrId":"101915","phoneNumber":"+1 (519) 601-6462","address":"844 Wonderland Rd","city":"London","postalCode":"N6K 2V8"},{"name":"My Private Pharmacy ","mngrFirstName":"Aram","mngrLastName":"Tourikian","mngrGradYr":"1982","mngrId":"77011","phoneNumber":"+1 (905) 597-6716","address":"4-80 West Beaver Creek Rd","city":"Richmond Hill","postalCode":"L4B 1H3"},{"name":"N.  L. Gibson's Drugs Limited","mngrFirstName":"Connie","mngrLastName":"Bisutti","mngrGradYr":"1986","mngrId":"89184","phoneNumber":"+1 (905) 522-3547","address":"377 Main St E","city":"Hamilton","postalCode":"L8N 1J4"},{"name":"N.K.S. Health","mngrFirstName":"Nancy","mngrLastName":"Simonot","mngrGradYr":"1991","mngrId":"109908","phoneNumber":"+ (905) 232-2322","address":"500-130 Dundas St E","city":"Mississauga","postalCode":"L5A 3V8"},{"name":"Nam Pharmacy","mngrFirstName":"Hoan","mngrLastName":"Nguyen","mngrGradYr":"1968","mngrId":"111236","phoneNumber":"+1 (416) 630-2140","address":"6-3585 Keele St","city":"Downsview","postalCode":"M3J 3H5"},{"name":"Nanak Pharmacy","mngrFirstName":"Lalit","mngrLastName":"Satija","mngrGradYr":"1990","mngrId":"218577","phoneNumber":"+1 (905) 216-3792","address":"3-10725 Mclaughlin Rd","city":"Brampton","postalCode":"L7A 3E5"},{"name":"Nanaksar Pharmacy","mngrFirstName":"Sri","mngrLastName":"Sathyanarayanan","mngrGradYr":"1988","mngrId":"607073","phoneNumber":"+ (905) 450-7447","address":"2-511 Raylawson Blvd","city":"Brampton","postalCode":"L6Y 0N2"},{"name":"Napanee Richmond Medical Pharmacy ","mngrFirstName":"Mina","mngrLastName":"Guirguis","mngrGradYr":"2004","mngrId":"614230","phoneNumber":"+1 (613) 354-3366","address":"307 Bridge St W","city":"Napanee","postalCode":"K7R 2G3"},{"name":"Nash Pharmacy","mngrFirstName":"Ramsis","mngrLastName":"Hanna","mngrGradYr":"1995","mngrId":"212212","phoneNumber":"+1 (905) 578-6275","address":"691 Queenston RdUnit B","city":"Hamilton","postalCode":"L8G 1A1"},{"name":"Nathan's Pharmacy","mngrFirstName":"Naresh","mngrLastName":"Jain","mngrGradYr":"1995","mngrId":"604710","phoneNumber":"+1 (905) 497-6500","address":"147 Clarence St","city":"Brampton","postalCode":"L6W 1T2"},{"name":"National Pharmacy","mngrFirstName":"Paul","mngrLastName":"Baui","mngrGradYr":"1997","mngrId":"217261","phoneNumber":"+1 (416) 265-9000","address":"7 - 70 Melford Drive","city":"Scarborough","postalCode":"M1B 1Y9"},{"name":"Nebo Medical Pharmacy Inc.","mngrFirstName":"Ashish","mngrLastName":"Sheth","mngrGradYr":"1999","mngrId":"605423","phoneNumber":"+1 (905) 381-9801","address":"260 Nebo Road","city":"Hamilton","postalCode":"L8W 3K5"},{"name":"Neighbourhood Corner Pharmacy","mngrFirstName":"Joseph","mngrLastName":"Liang","mngrGradYr":"1971","mngrId":"20982","phoneNumber":"+1 (519) 252-0333","address":"600 Wyandotte Street East","city":"Windsor","postalCode":"N9A 3J2"},{"name":"Neighbourhood Drug Store","mngrFirstName":"Sara","mngrLastName":"Etemad-Rad","mngrGradYr":"2000","mngrId":"603101","phoneNumber":"+1 (519) 252-3400","address":"493 Wyandotte St E","city":"Windsor","postalCode":"N9A 3H8"},{"name":"Neighbourhood Pharmacy","mngrFirstName":"Alessandro","mngrLastName":"Cipriano","mngrGradYr":"1986","mngrId":"89338","phoneNumber":"+1 (905) 935-2273","address":"532 Lake St","city":"St. Catharines","postalCode":"L2N 4H4"},{"name":"Neighbourhood Pharmacy","mngrFirstName":"Jacqueline","mngrLastName":"Usakovsky","mngrGradYr":"2007","mngrId":"603553","phoneNumber":"+1 (905) 737-2024","address":"10323 Yonge St","city":"Richmond Hill","postalCode":"L4C 3C1"},{"name":"Pharma Plus ","mngrFirstName":"Sherin","mngrLastName":"Chacko","mngrGradYr":"1999","mngrId":"613266","phoneNumber":"+1 (613) 283-4057","address":"2 Beckwith St N","city":"Smiths Falls","postalCode":"K7A 2B1"},{"name":"Pharma Plus","mngrFirstName":"Krystyna","mngrLastName":"Marchow","mngrGradYr":"1971","mngrId":"67075","phoneNumber":"+1 (416) 537-3437","address":"The Galleria Shopping Centre1245 Dupont St","city":"Toronto","postalCode":"M6H 2A6"},{"name":"Pharma Plus ","mngrFirstName":"Kaitlin","mngrLastName":"Green","mngrGradYr":"2012","mngrId":"612413","phoneNumber":"+1 (613) 283-3838","address":"207 Brockville St","city":"Smiths Falls","postalCode":"K7A 3Z3"},{"name":"Pharma Plus ","mngrFirstName":"Randy","mngrLastName":"Krieg","mngrGradYr":"1985","mngrId":"91146","phoneNumber":"+1 (519) 627-3388","address":"440 James St","city":"Wallaceburg","postalCode":"N8A 2N7"},{"name":"Pharma Plus ","mngrFirstName":"Mona","mngrLastName":"Guirguis","mngrGradYr":"1988","mngrId":"214893","phoneNumber":"+1 (416) 239-8360","address":"4890 Dundas St W","city":"Etobicoke","postalCode":"M9A 1B5"},{"name":"Pharma Plus","mngrFirstName":"Lisa","mngrLastName":"Canham","mngrGradYr":"1987","mngrId":"93297","phoneNumber":"+1 (519) 744-2219","address":"696 Belmont Ave W","city":"Kitchener","postalCode":"N2M 1P2"},{"name":"Pharma Plus","mngrFirstName":"Ming","mngrLastName":"Fraser","mngrGradYr":"1981","mngrId":"73768","phoneNumber":"+1 (416) 239-3511","address":"Cloverdale Shopping Cntre250 The East Mall","city":"Etobicoke","postalCode":"M9B 3Y8"},{"name":"Pharma Plus","mngrFirstName":"Myrtle","mngrLastName":"Lesco","mngrGradYr":"1983","mngrId":"80276","phoneNumber":"+1 (519) 833-2333","address":"123 Main StPO Box 220","city":"Erin","postalCode":"N0B 1T0"},{"name":"Pharma Plus ","mngrFirstName":"Carole","mngrLastName":"Chen","mngrGradYr":"2012","mngrId":"612370","phoneNumber":"+1 (705) 728-0971","address":"Bayfield Mall320 Bayfield St","city":"Barrie","postalCode":"L4M 3B9"},{"name":"Pharma Plus","mngrFirstName":"Yvonne","mngrLastName":"Guirgis","mngrGradYr":"1975","mngrId":"204392","phoneNumber":"+1 (905) 454-1202","address":"Brampton Shoppers World499 Main St S","city":"Brampton","postalCode":"L6Y 1N7"},{"name":"Pharma Plus ","mngrFirstName":"Hamchand","mngrLastName":"Goorah","mngrGradYr":"1982","mngrId":"98507","phoneNumber":"+1 (905) 457-2955","address":"Centennial Mall227 Vodden St E","city":"Brampton","postalCode":"L6V 1N2"},{"name":"Pharma Plus","mngrFirstName":"Tan","mngrLastName":"Huynh","mngrGradYr":"1996","mngrId":"200804","phoneNumber":"+1 (519) 822-5140","address":"55 Wyndham St N","city":"Guelph","postalCode":"N1H 7T8"},{"name":"Pharma Plus ","mngrFirstName":"Shadi","mngrLastName":"Alyazgi","mngrGradYr":"1997","mngrId":"618914","phoneNumber":"+1 (905) 522-5447","address":"447 Main St E","city":"Hamilton","postalCode":"L8N 1K1"},{"name":"Pharma Plus ","mngrFirstName":"Bhoj","mngrLastName":"Pidar","mngrGradYr":"1992","mngrId":"214929","phoneNumber":"+1 (905) 389-6211","address":"West Cliff Shopping Plaza636 Mohawk Rd W","city":"Hamilton","postalCode":"L9C 1X6"},{"name":"Pharma Plus ","mngrFirstName":"Ronald","mngrLastName":"Naraine","mngrGradYr":"1976","mngrId":"70742","phoneNumber":"+1 (519) 743-6761","address":"537 Frederick St","city":"Kitchener","postalCode":"N2B 2A7"},{"name":"Pharma Plus ","mngrFirstName":"Betty","mngrLastName":"Wright","mngrGradYr":"1989","mngrId":"100668","phoneNumber":"+1 (519) 471-1780","address":"740 Hyde Park Rd","city":"London","postalCode":"N6H 5W9"},{"name":"Pharma Plus ","mngrFirstName":"Marnie","mngrLastName":"Varley","mngrGradYr":"1986","mngrId":"89354","phoneNumber":"+1 (905) 354-3314","address":"6484 Lundy's Lane","city":"Niagara Falls","postalCode":"L2G 1T6"},{"name":"Pharma Plus","mngrFirstName":"Glen","mngrLastName":"McDonald","mngrGradYr":"1970","mngrId":"32158","phoneNumber":"+1 (705) 566-0220","address":"555 Barrydowne Rd","city":"Sudbury","postalCode":"P3A 3T4"},{"name":"Pharma Plus ","mngrFirstName":"Heng","mngrLastName":"Xu","mngrGradYr":"2008","mngrId":"604933","phoneNumber":"+1 (416) 923-1766","address":"The Manulife Centre23-55 Bloor St W","city":"Toronto","postalCode":"M4W 1A5"},{"name":"Pharma Plus ","mngrFirstName":"Janet","mngrLastName":"Seto","mngrGradYr":"2007","mngrId":"603506","phoneNumber":"+1 (416) 921-2406","address":"St Clair Centre1481 Yonge St","city":"Toronto","postalCode":"M4T 2Z1"},{"name":"Pharmasave Michael's Pharmacy","mngrFirstName":"Michael","mngrLastName":"Ibrahim","mngrGradYr":"1985","mngrId":"205248","phoneNumber":"+ (519) 565-4454","address":"2 Main St S.Box 550","city":"Bayfield","postalCode":"N0M 1G0"},{"name":"Pharmasave Monarch Pharmacy","mngrFirstName":"Mustafa","mngrLastName":"Khan","mngrGradYr":"1976","mngrId":"204464","phoneNumber":"+1 (519) 740-2400","address":"95 Saginaw PkwyUnit 2-A","city":"Cambridge","postalCode":"N1T 1W2"},{"name":"Pharmasave on Wyndham","mngrFirstName":"Scott","mngrLastName":"Sweazey","mngrGradYr":"1990","mngrId":"104914","phoneNumber":"+1 (519) 763-0695","address":"101-45 Wyndham St N","city":"Guelph","postalCode":"N1H 4E4"},{"name":"Pharmasave Pharmacy","mngrFirstName":"Margo","mngrLastName":"Henes","mngrGradYr":"1999","mngrId":"606991","phoneNumber":"+1 (416) 698-1616","address":"462 Birchmount Rd","city":"Scarborough","postalCode":"M1K 1N8"},{"name":"Pharmasave Shellard Lane Pharmacy","mngrFirstName":"Rameshvarkumar","mngrLastName":"Patel","mngrGradYr":"2003","mngrId":"618925","phoneNumber":"+1 (519) 759 6464","address":"7-230 Shellard's Lane","city":"Brantford","postalCode":"N3T 0B9"},{"name":"Pharmasave Simcoe","mngrFirstName":"Kevin","mngrLastName":"MacCarthy","mngrGradYr":"1989","mngrId":"101702","phoneNumber":"+1 (705) 728-2429","address":"301 Blake St","city":"Barrie","postalCode":"L4M 1K7"},{"name":"Pharmasave The Clinic Pharmacy","mngrFirstName":"Rami","mngrLastName":"Abdelmalek","mngrGradYr":"1998","mngrId":"604689","phoneNumber":"+1 (705) 743-2040","address":"26 Hospital Dr","city":"Peterborough","postalCode":"K9J 7C3"},{"name":"Pharmasave Uxbridge Medical Pharmacy","mngrFirstName":"Sameer","mngrLastName":"Remtulla","mngrGradYr":"2008","mngrId":"604916","phoneNumber":"+ (905) 862-2800","address":"1B - 29 Toronto St","city":"Uxbridge","postalCode":"L9P 1V9"},{"name":"Pharmasave Waterdown Village Pharmacy","mngrFirstName":"Scott","mngrLastName":"Penner","mngrGradYr":"1992","mngrId":"206856","phoneNumber":"+1 (905) 690-2882","address":"4 - 287 Dundas Steet EastPO Box 1341","city":"Flamborough","postalCode":"L0R 2H0"},{"name":"Pharmasave Westside Pharmacy","mngrFirstName":"Albert","mngrLastName":"Lo","mngrGradYr":"1975","mngrId":"60976","phoneNumber":"+1 (519) 252-8511","address":"6 - 1550 Huron Church Rd","city":"Windsor","postalCode":"N9C 3Z3"},{"name":"Pharmasave Wynford Heights","mngrFirstName":"Mary","mngrLastName":"Rofael","mngrGradYr":"1985","mngrId":"213877","phoneNumber":"+1 (416) 449-9933","address":"150 Wynford Dr","city":"Toronto","postalCode":"M3C 1K7"},{"name":"Pharmasave Yorkdale Pharmacy ","mngrFirstName":"Soheil","mngrLastName":"Saeedzadeh","mngrGradYr":"2002","mngrId":"606975","phoneNumber":"+1 (905) 770-7775","address":"A104 - 11685 Yonge St","city":"Richmond Hill","postalCode":"L4E 0K7"},{"name":"Pharmaserve","mngrFirstName":"Achal","mngrLastName":"Jain","mngrGradYr":"1997","mngrId":"213997","phoneNumber":"+1 (905) 560-1293","address":"68 Centennial Pkwy N","city":"Hamilton","postalCode":"L8E 1H6"},{"name":"Pharmashield Dispensary","mngrFirstName":"Veronica","mngrLastName":"Rudan","mngrGradYr":"1990","mngrId":"207976","phoneNumber":"+1 (905) 356-8482","address":"Portage Professional Building1-5400 Portage Rd","city":"Niagara Falls","postalCode":"L2G 5X7"},{"name":"Pharma-Star Medical Pharmacy","mngrFirstName":"Mike","mngrLastName":"Mosaad","mngrGradYr":"2002","mngrId":"606560","phoneNumber":"+ (905) 984-4111","address":"448 Welland Ave","city":"St. Catharines","postalCode":"L2M 5V2"},{"name":"PharmaTrust Drug Mart","mngrFirstName":"Mary","mngrLastName":"Ghobrial","mngrGradYr":"1976","mngrId":"204808","phoneNumber":"+1 (416) 743-3351","address":"1935 Sheppard Ave W","city":"Toronto","postalCode":"M3L 1Y8"},{"name":"Pharmcare Centre","mngrFirstName":"Jean Paul","mngrLastName":"Li Cheong Man","mngrGradYr":"1978","mngrId":"76236","phoneNumber":"+1 (416) 245-1221","address":"200 Church St","city":"Toronto","postalCode":"M9N 1N8"},{"name":"Pharmex Direct Inc","mngrFirstName":"Susan","mngrLastName":"Blasko","mngrGradYr":"1988","mngrId":"98531","phoneNumber":"+1 (905) 847-8224","address":"8-2333 Wyecroft Rd","city":"Oakville","postalCode":"L6L 6L4"},{"name":"Pharmore Pharmacy","mngrFirstName":"Roopesh","mngrLastName":"Parikh","mngrGradYr":"1999","mngrId":"217581","phoneNumber":"+ (416) 299-0399","address":"7-5637 Finch Ave E","city":"Scarborough","postalCode":"M1B 2T9"},{"name":"Pharmore Pharmacy","mngrFirstName":"Roopesh","mngrLastName":"Parikh","mngrGradYr":"1999","mngrId":"217581","phoneNumber":"+ (416)-755-6333","address":"2405 Eglington Ave. E.","city":"Scarborough","postalCode":"M1K 2M5"},{"name":"Rexall","mngrFirstName":"Cherryl","mngrLastName":"Kelterborn","mngrGradYr":"1977","mngrId":"67180","phoneNumber":"+1 (705) 428-2344","address":"7377 Hwy 26203 Main St EPO Box 100","city":"Stayner","postalCode":"L0M 1S0"},{"name":"Rexall","mngrFirstName":"Shyama","mngrLastName":"Khastagir","mngrGradYr":"2002","mngrId":"620037","phoneNumber":"+1 (705) 337-1777","address":"30 Circle St","city":"Kapuskasing","postalCode":"P5N 1T7"},{"name":"Rexall","mngrFirstName":"Howard","mngrLastName":"So","mngrGradYr":"1967","mngrId":"58742","phoneNumber":"+1 (416) 291-2421","address":"3607  Sheppard Ave E","city":"Scarborough","postalCode":"M1T 3K8"},{"name":"Rexall","mngrFirstName":"Leslie","mngrLastName":"Groves","mngrGradYr":"1993","mngrId":"202452","phoneNumber":"+1 (613) 342-2672","address":"30 Pearl St W","city":"Brockville","postalCode":"K6V 4B5"},{"name":"Rexall","mngrFirstName":"Tamanna","mngrLastName":"Ahmed","mngrGradYr":"1980","mngrId":"110671","phoneNumber":"+1 (613) 828-4612","address":"Lincoln Heights Galleria2525 Carling Ave","city":"Ottawa","postalCode":"K2B 7Z2"},{"name":"Rexall","mngrFirstName":"Shelagh","mngrLastName":"Campbell","mngrGradYr":"1977","mngrId":"63320","phoneNumber":"+1 (613) 733-9144","address":"Billings Bridge Shopping Cntre2269 Riverside Dr","city":"Ottawa","postalCode":"K1H 8K2"},{"name":"Rexall","mngrFirstName":"Anil","mngrLastName":"Patel","mngrGradYr":"1999","mngrId":"613568","phoneNumber":"+1 (905) 732-6864","address":"200 Fitch StBLDG E","city":"Welland","postalCode":"L3C 4V9"},{"name":"Rexall ","mngrFirstName":"May","mngrLastName":"Wong","mngrGradYr":"1990","mngrId":"204140","phoneNumber":"+1 (416) 922-5816","address":"552 Church St","city":"Toronto","postalCode":"M4Y 2E3"},{"name":"Rexall ","mngrFirstName":"John","mngrLastName":"Vanderlee","mngrGradYr":"1980","mngrId":"71498","phoneNumber":"+1 (905) 852-6155","address":"2 Elgin Park Dr","city":"Uxbridge","postalCode":"L9P 1Y7"},{"name":"Rexall","mngrFirstName":"Katalin","mngrLastName":"Lanczi","mngrGradYr":"1975","mngrId":"94579","phoneNumber":"+1 (519) 822-5921","address":"265 Eramosa Rd ","city":"Guelph","postalCode":"N1E 2M7"},{"name":"Rexall ","mngrFirstName":"Kirstin","mngrLastName":"Hastings","mngrGradYr":"1991","mngrId":"109215","phoneNumber":"+1 (519) 363-3304","address":"55 First Ave S","city":"Chesley","postalCode":"N0G 1L0"},{"name":"Rexall ","mngrFirstName":"Moustafa","mngrLastName":"Ali","mngrGradYr":"2000","mngrId":"617852","phoneNumber":"+1 (613) 267-2110","address":"39 Drummond St W","city":"Perth","postalCode":"K7H 2J9"},{"name":"Rexall","mngrFirstName":"Linh","mngrLastName":"Le","mngrGradYr":"1983","mngrId":"112690","phoneNumber":"+1 (416) 533-9644","address":"1421 Dundas St W","city":"Toronto","postalCode":"M6J 1Y4"},{"name":"Rexall","mngrFirstName":"Avani","mngrLastName":"Patel","mngrGradYr":"2004","mngrId":"612824","phoneNumber":"+1 (519) 797-2113","address":"174 Albert St. S","city":"Southampton","postalCode":"N0H 2L0"},{"name":"Rexall","mngrFirstName":"John","mngrLastName":"Fong","mngrGradYr":"1993","mngrId":"202480","phoneNumber":"+1 (416) 488-1107","address":"393 Spadina Rd","city":"Toronto","postalCode":"M5P 2W1"},{"name":"Rexall","mngrFirstName":"Jennifer","mngrLastName":"Kar","mngrGradYr":"2007","mngrId":"603765","phoneNumber":"+1 (416) 484-6750","address":"Yonge-Eglinton Centre2300 Yonge St","city":"Toronto","postalCode":"M4P 1E4"},{"name":"Rexall  ","mngrFirstName":"Gary","mngrLastName":"Chow","mngrGradYr":"2011","mngrId":"609366","phoneNumber":"+1 (705) 457-1112","address":"224 Highland St","city":"Haliburton","postalCode":"K0M 1S0"},{"name":"Rexall ","mngrFirstName":"Mohamed","mngrLastName":"Salama","mngrGradYr":"1999","mngrId":"607469","phoneNumber":"+1 (613) 692-2424","address":"Manotick Mews Shopping Ctr1160 Beaverwood RdPO Box 370 Stn Main","city":"Manotick","postalCode":"K4M 1A3"},{"name":"Rexall","mngrFirstName":"Debbie","mngrLastName":"Sutherland","mngrGradYr":"1995","mngrId":"214389","phoneNumber":"+1 (807) 854-1025","address":"305 Main St","city":"Geraldton","postalCode":"P0T 1M0"},{"name":"Rexall ","mngrFirstName":"Natalie","mngrLastName":"Patel","mngrGradYr":"1994","mngrId":"205200","phoneNumber":"+1 (613) 354-2132","address":"470 Centre St","city":"Napanee","postalCode":"K7R 1P8"},{"name":"Riepert Pharmasave","mngrFirstName":"Shaun","mngrLastName":"Toolsie","mngrGradYr":"1999","mngrId":"207488","phoneNumber":"+1 (519) 578-1210","address":"98 Highland Rd W","city":"Kitchener","postalCode":"N2M 3B5"},{"name":"Right Care Pharmacy","mngrFirstName":"Mourad","mngrLastName":"Grace","mngrGradYr":"1991","mngrId":"207052","phoneNumber":"+1 (905) 628-3337","address":"7-2 Castlewood Blvd","city":"Dundas","postalCode":"L9H 7M8"},{"name":"Rite Care Pharmacy Inc","mngrFirstName":"Kabirdin","mngrLastName":"Kabani","mngrGradYr":"1974","mngrId":"85421","phoneNumber":"+1 (905) 274-5244","address":"101-150 Lakeshore Rd W","city":"Port Credit","postalCode":"L5H 3R2"},{"name":"Ritson Pharmacy","mngrFirstName":"Bolarinwa","mngrLastName":"Ogunkoya","mngrGradYr":"1990","mngrId":"219433","phoneNumber":"+1 (905) 429-2333","address":"250 Taunton Rd E","city":"Oshawa","postalCode":"L1G 7T1"},{"name":"River Hill Pharmacy","mngrFirstName":"Diep","mngrLastName":"Nguyen","mngrGradYr":"1974","mngrId":"98949","phoneNumber":"+ (416) 614-6623","address":"2086 Lawrence Ave WUnit 1-2","city":"Toronto","postalCode":"M9N 3Z9"},{"name":"River Oaks Medical Pharmacy","mngrFirstName":"Amgad","mngrLastName":"Hakim","mngrGradYr":"1998","mngrId":"604699","phoneNumber":"+1 (905) 842-1113","address":"A3-2163 Sixth Line","city":"Oakville","postalCode":"L6H 3N7"},{"name":"River Run Pharmasave","mngrFirstName":"Sharmil","mngrLastName":"Mithia","mngrGradYr":"1996","mngrId":"207080","phoneNumber":"+1 (905) 819-1999","address":"1525 Bristol Rd WUnit 14 & 15","city":"Mississauga","postalCode":"L5M 4Z1"},{"name":"River Terrace Medical Pharmacy","mngrFirstName":"Bryan","mngrLastName":"Gray","mngrGradYr":"2013","mngrId":"617279","phoneNumber":"+1 (807) 343-0010","address":"1260 Golf Links Rd","city":"Thunder Bay","postalCode":"P7B 0A1"},{"name":"Riverside Drugstore","mngrFirstName":"Paul","mngrLastName":"Lee","mngrGradYr":"2011","mngrId":"609829","phoneNumber":"+1 (613) 523-3066","address":"102-1919 Riverside Dr","city":"Ottawa","postalCode":"K1H 1A2"},{"name":"Riverside Pharmacare Drug Mart","mngrFirstName":"Carol","mngrLastName":"Petrinac","mngrGradYr":"1996","mngrId":"205020","phoneNumber":"+1 (519) 944-2298","address":"7775 Wyandotte St E","city":"Windsor","postalCode":"N8S 1S6"},{"name":"Riverview Pharmacy","mngrFirstName":"Sherine","mngrLastName":"Nader","mngrGradYr":"1998","mngrId":"219829","phoneNumber":"+1 (905) 527-9138","address":"303 King St E","city":"Hamilton","postalCode":"L8N 1C1"},{"name":"Robertson's Drug Store","mngrFirstName":"Carol","mngrLastName":"Robertson","mngrGradYr":"1990","mngrId":"106577","phoneNumber":"+1 (705) 282-2147","address":"39 Meredith StPo Box 85","city":"Gore Bay","postalCode":"P0P 1H0"},{"name":"Robins Pharmacy (1983) Ltd.","mngrFirstName":"Anne","mngrLastName":"Robins","mngrGradYr":"1988","mngrId":"99090","phoneNumber":"+1 (905) 895-2411","address":"191 Main St S","city":"Newmarket","postalCode":"L3Y 3Y9"},{"name":"Robinson's IDA Pharmacy","mngrFirstName":"Berge","mngrLastName":"Shalvardjian","mngrGradYr":"1974","mngrId":"54968","phoneNumber":"+1 (905) 826-1115","address":"181 Queen St S","city":"Streetsville","postalCode":"L5M 1L2"},{"name":"Robinson's Pharmasave","mngrFirstName":"John","mngrLastName":"Kaldus","mngrGradYr":"2011","mngrId":"616302","phoneNumber":"+1 (705) 869-1561","address":"119 Tudhope St","city":"Espanola","postalCode":"P5E 1S6"},{"name":"Rockwood Pharmacy","mngrFirstName":"Nora","mngrLastName":"Dale","mngrGradYr":"1983","mngrId":"79537","phoneNumber":"+1 (519) 856-9486","address":"175 Alma StPO Box 670","city":"Rockwood","postalCode":"N0B 2K0"},{"name":"Rogers Road Pharmacy","mngrFirstName":"Munawar","mngrLastName":"Pasha","mngrGradYr":"1990","mngrId":"213993","phoneNumber":"+ (416) 651-2226","address":"576 Rogers Rd","city":"Toronto","postalCode":"M6M 1B6"},{"name":"Rolling Hills Pharmacy","mngrFirstName":"Sanjay","mngrLastName":"Gandhi","mngrGradYr":"1995","mngrId":"203240","phoneNumber":"+1 (519) 942-2225","address":"140 Rolling Hills Dro","city":"Orangeville","postalCode":"L9W 4X9"},{"name":"Roma Pharmacy","mngrFirstName":"Hany","mngrLastName":"Bouls","mngrGradYr":"tobe","mngrId":"609692","phoneNumber":"+1 (905) 850-4410","address":"8-110 Ansley Grove Rd","city":"Woodbridge","postalCode":"L4L 3R1"},{"name":"Romana Guardian Pharmacy","mngrFirstName":"Soon","mngrLastName":"Yoo","mngrGradYr":"1970","mngrId":"204340","phoneNumber":"+1 (416) 651-2804","address":"851 St Clair Ave W","city":"Toronto","postalCode":"M6C 1C2"},{"name":"Romana Pharmacy","mngrFirstName":"Al","mngrLastName":"Kula","mngrGradYr":"1970","mngrId":"28479","phoneNumber":"+1 (905) 535-1416","address":"716 The Queensway SouthRetail \"A\"","city":"Keswick","postalCode":"L4P 4C9"},{"name":"Rose City Pharmacie","mngrFirstName":"Mariano","mngrLastName":"Guirguis","mngrGradYr":"1997","mngrId":"611925","phoneNumber":"+1 (905) 735-7505","address":"188 East Main St","city":"Welland","postalCode":"L3B 2W3"},{"name":"Rose City Pharmacy","mngrFirstName":"Huu","mngrLastName":"Nguyen","mngrGradYr":"1987","mngrId":"204752","phoneNumber":"+1 (519) 252-7767","address":"402 Wyandotte St W","city":"Windsor","postalCode":"N9A 5X4"},{"name":"Rosedale Pharmacy","mngrFirstName":"Joe (jongmoo)","mngrLastName":"Lee","mngrGradYr":"1982","mngrId":"106372","phoneNumber":"+1 (416) 961-8877","address":"Rosedale Medical Centre600 Sherbourne St","city":"Toronto","postalCode":"M4X 1W4"},{"name":"Roseland Pharmacy Inc","mngrFirstName":"Han Truong","mngrLastName":"Truong","mngrGradYr":"1969","mngrId":"89583","phoneNumber":"+1 (416) 767-0078","address":"3-965 Jane St","city":"Toronto","postalCode":"M6N 4E1"},{"name":"Roseville Medical Pharmacy Ltd.","mngrFirstName":"Heather","mngrLastName":"Landry","mngrGradYr":"2001","mngrId":"214097","phoneNumber":"+1 (519) 944-6333","address":"2525 Roseville Garden Dr","city":"Windsor","postalCode":"N8T 3J8"},{"name":"Ross Memorial Hospital","mngrFirstName":"Susan","mngrLastName":"Fockler","mngrGradYr":"1979","mngrId":"73431","phoneNumber":"+1 (705) 324-6111","address":"Pharmacy Dept10 Angeline St N","city":"Lindsay","postalCode":"K9V 4M8"},{"name":"Roulston's Discount Drugs Ltd","mngrFirstName":"Brent","mngrLastName":"Chanyi","mngrGradYr":"2012","mngrId":"612290","phoneNumber":"+1 (519) 583-2100","address":"414 Main StPo Box 1480","city":"Port Dover","postalCode":"N0A 1N0"},{"name":"Roulston's Discount Drugs Ltd","mngrFirstName":"Krish","mngrLastName":"Menon","mngrGradYr":"1993","mngrId":"202656","phoneNumber":"+1 (519) 426-1731","address":"17 Norfolk St S","city":"Simcoe","postalCode":"N3Y 2V8"},{"name":"Roulston's Discount Drugs Ltd","mngrFirstName":"Ryan","mngrLastName":"Gabet","mngrGradYr":"2009","mngrId":"606634","phoneNumber":"+1 (519) 582-1800","address":"123 King St","city":"Delhi","postalCode":"N4B 1X9"},{"name":"Roulston's Pharmacy","mngrFirstName":"Mark","mngrLastName":"Stephens","mngrGradYr":"1993","mngrId":"202756","phoneNumber":"+1 (519) 426-8011","address":"65 Donly Drive N.","city":"Simcoe","postalCode":"N3Y 0C2"},{"name":"Rowan's Pharmasave","mngrFirstName":"Jason","mngrLastName":"Shreenan","mngrGradYr":"2002","mngrId":"217289","phoneNumber":"+1 (613) 732-2522","address":"115 Pembroke St W","city":"Pembroke","postalCode":"K8A 5M7"},{"name":"Rowntree Gate Drug Mart","mngrFirstName":"Joseph","mngrLastName":"Beshai","mngrGradYr":"1976","mngrId":"214741","phoneNumber":"+1 (416) 744-8825","address":"10-2687 Kipling Ave","city":"Etobicoke","postalCode":"M9V 5G6"},{"name":"Royal Care Pharmacy","mngrFirstName":"Riva","mngrLastName":"Botross","mngrGradYr":"1992","mngrId":"210724","phoneNumber":"+1 (416) 925-5000","address":"295 College St","city":"Toronto","postalCode":"M5T 1S2"},{"name":"Royal City Pharmacy","mngrFirstName":"Mike","mngrLastName":"Abdelmalak","mngrGradYr":"1989","mngrId":"209168","phoneNumber":"+1 (519) 763-8975","address":"84 Gordon St ","city":"Guelph","postalCode":"N1H 4H6"},{"name":"Royal Compounding Pharmacy","mngrFirstName":"Samiha","mngrLastName":"Greiss","mngrGradYr":"1976","mngrId":"72494","phoneNumber":"+1 (905) 889-1588","address":"1A-8100 Yonge St","city":"Thornhill","postalCode":"L4J 1W4"},{"name":"Royal Crest Pharmacy","mngrFirstName":"Muzaffer","mngrLastName":"Toprak","mngrGradYr":"1976","mngrId":"81493","phoneNumber":"+1 (416) 492-5304","address":"3065 Pharmacy Ave","city":"Scarborough","postalCode":"M1W 2H1"},{"name":"Royal Drugs Inc.","mngrFirstName":"Jesi","mngrLastName":"Besa","mngrGradYr":"1992","mngrId":"613133","phoneNumber":"+1 (905) 728-4320","address":"1129 Wentworth St WUnit B-2","city":"Oshawa","postalCode":"L1J 8P7"},{"name":"Royal Oak Pharmacy","mngrFirstName":"Silvana","mngrLastName":"Yassa","mngrGradYr":"2000","mngrId":"606177","phoneNumber":"+ (905) 469-8830","address":"1-2524 Third Line","city":"Oakville","postalCode":"L6M 0G8"},{"name":"Royal Oasis Pharmacy Inc.","mngrFirstName":"Hani","mngrLastName":"Ramadan","mngrGradYr":"2007","mngrId":"607717","phoneNumber":"+ (519) 727-6800","address":"486 Advance BlvdUnit 140BLakeshore Oasis Plaza","city":"Tecumseh","postalCode":"N8N 5G8"},{"name":"Royal Pharmacy","mngrFirstName":"Wilson","mngrLastName":"Kong","mngrGradYr":"1971","mngrId":"28207","phoneNumber":"+1 (416) 251-3007","address":"745 The Queensway","city":"Etobicoke","postalCode":"M8Z 1M8"},{"name":"Royal Windsor Pharmacy","mngrFirstName":"Rocco","mngrLastName":"D'angelo","mngrGradYr":"1976","mngrId":"61689","phoneNumber":"+ (519) 256-1600","address":"100 Park St. W","city":"Windsor","postalCode":"N9A 7A5"},{"name":"Royal York Pharmacy","mngrFirstName":"Brenda","mngrLastName":"Gorendar","mngrGradYr":"1972","mngrId":"51195","phoneNumber":"+1 (416) 247-1000","address":"1436 Royal York Rd","city":"Etobicoke","postalCode":"M9P 3A9"},{"name":"Rumball Drug Mart","mngrFirstName":"Cathy","mngrLastName":"Nguyen","mngrGradYr":"2002","mngrId":"211692","phoneNumber":"+1 (416) 461-6900","address":"553 Sammon Ave","city":"Toronto","postalCode":"M4C 2E1"},{"name":"Runnymede Healthcare Centre","mngrFirstName":"Luba","mngrLastName":"Kelebay","mngrGradYr":"1982","mngrId":"78212","phoneNumber":"+1 (416) 762-7316","address":"Pharmacy Dept625 Runnymede Rd","city":"Toronto","postalCode":"M6S 3A3"},{"name":"Russell Pharmacy","mngrFirstName":"Ian","mngrLastName":"McNeil","mngrGradYr":"1999","mngrId":"215569","phoneNumber":"+1 (613) 445-5555","address":"110 Craig StPo Box 40","city":"Russell","postalCode":"K4R 1C7"},{"name":"Rutherford Guardian Drugs","mngrFirstName":"Victor","mngrLastName":"Remesat","mngrGradYr":"1996","mngrId":"201608","phoneNumber":"+1 (905) 850-9666","address":"2-5283 Rutherford Rd","city":"Woodbridge","postalCode":"L4H 2T2"},{"name":"Rx One","mngrFirstName":"Kami","mngrLastName":"Salmasi","mngrGradYr":"1986","mngrId":"617409","phoneNumber":"+1 (905) 597-7910","address":"10 - 248 Steeles West","city":"Thornhill","postalCode":"L4J 1A1"},{"name":"Rylander Pharmacy","mngrFirstName":"Samia","mngrLastName":"Sahyone","mngrGradYr":"1984","mngrId":"213017","phoneNumber":"+ (416) 281-4223","address":"8-6758 Kingston Rd","city":"Scarborough","postalCode":"M1B 1G8"},{"name":"Rymal Medical Pharmacy","mngrFirstName":"George","mngrLastName":"Oduro","mngrGradYr":"1995","mngrId":"215645","phoneNumber":"+1 (905) 560-0020","address":"2247 Rymal Rd. E","city":"Stoney Creek","postalCode":"L8J 2V8"},{"name":"Saba Pharmacy","mngrFirstName":"Medhat","mngrLastName":"Bokotor","mngrGradYr":"1986","mngrId":"205356","phoneNumber":"+1 (416) 652-9171","address":"547 St. Clair Ave W","city":"Toronto","postalCode":"M6C 1A3"},{"name":"Sadia's Pharmacy","mngrFirstName":"Sadiyeh","mngrLastName":"Ibrahim","mngrGradYr":"1986","mngrId":"93483","phoneNumber":"+1 (905) 896-4642","address":"2-3038 Hurontario St","city":"Mississauga","postalCode":"L5B 3B9"},{"name":"Safeway Pharmacy #664","mngrFirstName":"Wayne","mngrLastName":"Shier","mngrGradYr":"1975","mngrId":"59390","phoneNumber":"+1 (807) 345-1719","address":"70 North Court Street","city":"Thunder Bay","postalCode":"P7A 4T8"},{"name":"Safeway Pharmacy #674","mngrFirstName":"David","mngrLastName":"Schwartz","mngrGradYr":"1995","mngrId":"206844","phoneNumber":"+1 (807) 274-0363","address":"417 Scott Street","city":"Fort Frances","postalCode":"P9A 1H3"},{"name":"Safeway Pharmacy #681","mngrFirstName":"Marcia","mngrLastName":"Wilson","mngrGradYr":"1985","mngrId":"86789","phoneNumber":"+1 +1 (807) 475-4470","address":"115 West Arthur Street","city":"Thunder Bay","postalCode":"P7E 5P7"},{"name":"Safeway Pharmacy #682","mngrFirstName":"Rolf","mngrLastName":"Kurzhals","mngrGradYr":"1987","mngrId":"94366","phoneNumber":"+1 (807) 768-0508","address":"1015 Dawson Road","city":"Thunder Bay","postalCode":"P7B 5J4"},{"name":"Saigon Pharmacy","mngrFirstName":"Tan","mngrLastName":"Vo","mngrGradYr":"1970","mngrId":"90905","phoneNumber":"+1 (416) 979-7510","address":"300 B Spadina Ave","city":"Toronto","postalCode":"M5T 2E7"},{"name":"Samms Pharmacy Ltd","mngrFirstName":"Robert","mngrLastName":"Train","mngrGradYr":"1970","mngrId":"47961","phoneNumber":"+1 (416) 654-1144","address":"324 Silverthorn Ave","city":"Toronto","postalCode":"M6N 3K6"},{"name":"Sam's Geneva Street Pharmacy","mngrFirstName":"Sam","mngrLastName":"Sallam","mngrGradYr":"1980","mngrId":"210808","phoneNumber":"+1 (905) 646-2225","address":"5-284 Geneva St","city":"St. Catharines","postalCode":"L2N 2E8"},{"name":"Sam's I.D.A. Pharmacy","mngrFirstName":"Sami","mngrLastName":"Mikhaeil","mngrGradYr":"1984","mngrId":"210956","phoneNumber":"+1 (416) 483-3003","address":"1901 Yonge St ","city":"Toronto ","postalCode":"M4S1Y6"},{"name":"Sam's Martindale Road Pharmacy","mngrFirstName":"Sam","mngrLastName":"Sallam","mngrGradYr":"1980","mngrId":"210808","phoneNumber":"+1 (905) 685-6662","address":"5 - 100 Martindale Road","city":"St. Catharines","postalCode":"L2S 2Y3"},{"name":"Sandalwood Care Pharmacy","mngrFirstName":"Jaspreet","mngrLastName":"Bajaj","mngrGradYr":"1994","mngrId":"218865","phoneNumber":"+1 (905) 791-6080","address":"10510 Torbram RdUnits D-E","city":"Brampton","postalCode":"L6R 3M9"},{"name":"Sandalwood Drugs","mngrFirstName":"Moheb","mngrLastName":"Maalawy","mngrGradYr":"1999","mngrId":"217189","phoneNumber":"+1 (905) 568-2628","address":"Eglinton Commercial Centre10B-30 Eglinton Ave W","city":"Mississauga","postalCode":"L5R 3E7"},{"name":"Sandalwood Medical Pharmacy","mngrFirstName":"Joseph","mngrLastName":"Yousef","mngrGradYr":"1998","mngrId":"217081","phoneNumber":"+1 (905) 495-5855","address":"170 Sandalwood Parkway E","city":"Brampton","postalCode":"L6Z 1Y5"},{"name":"Sandwich IDA Pharmacy","mngrFirstName":"Samir","mngrLastName":"Kamo","mngrGradYr":"1971","mngrId":"213197","phoneNumber":"+1- (519) -254-8247","address":"3211 Sandwich St","city":"Windsor","postalCode":"N9C 1A9"},{"name":"Sandycove Drug Store","mngrFirstName":"Larry","mngrLastName":"Ho","mngrGradYr":"1979","mngrId":"69949","phoneNumber":"+1 (705) 436-6906","address":"3-902 Lockhart Rd","city":"Innisfil","postalCode":"L9S 4V2"},{"name":"Sarnia Pharmacy","mngrFirstName":"Amgad","mngrLastName":"Kiwan","mngrGradYr":"1993","mngrId":"607782","phoneNumber":"+1 (519) 337-3215","address":"206 Maxwell St","city":"Sarnia","postalCode":"N7T 5C3"},{"name":"Sauble Pharmacy","mngrFirstName":"Madelyne","mngrLastName":"Harnick","mngrGradYr":"1973","mngrId":"53171","phoneNumber":"+1 (519) 422-2584","address":"329 Main StGeneral Delivery","city":"Sauble Beach","postalCode":"N0H 2G0"},{"name":"Sault Area Hospital","mngrFirstName":"Michelle","mngrLastName":"Nogalo","mngrGradYr":"1996","mngrId":"618482","phoneNumber":"+1 (705) 759-3434","address":"Pharmacy Dept750 Great Northern Rd","city":"Sault Ste Marie","postalCode":"P6A 5K7"},{"name":"Savant Pharmacy","mngrFirstName":"Jay","mngrLastName":"Patel","mngrGradYr":"1976","mngrId":"79227","phoneNumber":"+1 (519) 744-2080","address":"200 Highland Rd W","city":"Kitchener","postalCode":"N2M 3C2"},{"name":"Sav-On Drug Mart","mngrFirstName":"Mahsa","mngrLastName":"Shahsavari","mngrGradYr":"2000","mngrId":"608493","phoneNumber":"+1 (416) 742-6711","address":"2528 Jane St","city":"Downsview","postalCode":"M3L 1S1"},{"name":"Sav-On Drug Mart","mngrFirstName":"Emad","mngrLastName":"Mankaruos","mngrGradYr":"1983","mngrId":"208804","phoneNumber":"+1 (416) 259-1175","address":"880 Browns Line","city":"Etobicoke","postalCode":"M8W 3W2"},{"name":"Scarborough Clinic Pharmacy","mngrFirstName":"Leigh","mngrLastName":"Morrant","mngrGradYr":"1983","mngrId":"103896","phoneNumber":"+1 (416) 267-0762","address":"2657 Eglinton Ave East","city":"Scarborough","postalCode":"M1K 2S2"},{"name":"Scarborough Discount Pharmacy","mngrFirstName":"Idris","mngrLastName":"Motiwala","mngrGradYr":"1997","mngrId":"610710","phoneNumber":"+1 (416) 261-0848","address":"1269 Danforth Road","city":"Scarborough","postalCode":"M1J 1E6"},{"name":"Scarborough Pharmacy","mngrFirstName":"George","mngrLastName":"Awad","mngrGradYr":"1978","mngrId":"204704","phoneNumber":"+1 (416) 751-8784","address":"2296 Eglinton Ave E","city":"Scarborough","postalCode":"M1K 2M2"},{"name":"Schill's Pharmacy","mngrFirstName":"William","mngrLastName":"Schill","mngrGradYr":"1993","mngrId":"202720","phoneNumber":"+1 (519) 886-5925","address":"570 University Ave E","city":"Waterloo","postalCode":"N2K 4P2"},{"name":"Sco Hospital","mngrFirstName":"Tim","mngrLastName":"Veregin","mngrGradYr":"1991","mngrId":"206732","phoneNumber":"+1 (613) 562-6262","address":"Pharmacy DeptSt Vincent Pavilion60 Cambridge St","city":"Ottawa","postalCode":"K1R 7A5"},{"name":"Scotts Drug Mart","mngrFirstName":"Bill","mngrLastName":"Mulji","mngrGradYr":"1982","mngrId":"77291","phoneNumber":"+1 (905) 576-7000","address":"1000 Simcoe St N","city":"Oshawa","postalCode":"L1G 4W4"},{"name":"Script City Pharmacy","mngrFirstName":"Svetlana","mngrLastName":"Aharon","mngrGradYr":"2000","mngrId":"215365","phoneNumber":"+1 (905) 553-5363","address":"B7-3300 Rutherford Rd","city":"Vaughan","postalCode":"L4K 5Z2"},{"name":"SDM Specialty Health Services","mngrFirstName":"Katherine","mngrLastName":"Loh","mngrGradYr":"1992","mngrId":"116033","phoneNumber":"+1 (905) 624-9503","address":"1685 Tech Avenue","city":"Mississauga","postalCode":"L4W 0A7"},{"name":"Seamless Care Pharmacy","mngrFirstName":"Marwah","mngrLastName":"Younis","mngrGradYr":"2006","mngrId":"605644","phoneNumber":"+ (905) 432-9900","address":"360 King St W","city":"Oshawa","postalCode":"L1J 2J9"},{"name":"Seaway Valley Pharmacy","mngrFirstName":"Philip","mngrLastName":"Burns","mngrGradYr":"1997","mngrId":"207800","phoneNumber":"+1 (613) 774-2633","address":"507 Main StPO Box 757","city":"Winchester","postalCode":"K0C 2K0"},{"name":"Seaway Valley Pharmacy","mngrFirstName":"Sutinder","mngrLastName":"Sandhar","mngrGradYr":"2005","mngrId":"604939","phoneNumber":"+1 (613) 925-5525","address":"254 King St WPo Box 610","city":"Prescott","postalCode":"K0E 1T0"},{"name":"Seaway Valley Pharmacy Morrisburg","mngrFirstName":"Scott","mngrLastName":"Lane","mngrGradYr":"1994","mngrId":"203512","phoneNumber":"+1 (613) 543-2823","address":"Morrisburg Shopping Centre45 Main StBox 732","city":"Morrisburg","postalCode":"K0C 1X0"},{"name":"Seeleys Bay Drugmart","mngrFirstName":"Hany","mngrLastName":"Girgis","mngrGradYr":"1996","mngrId":"219969","phoneNumber":"+1 (613) 387-3939","address":"4-106 Drynan Way","city":"Seeley's Bay","postalCode":"K0H 2N0"},{"name":"Sensenbrenner Hospital","mngrFirstName":"Ralph","mngrLastName":"Schmidt","mngrGradYr":"1990","mngrId":"105848","phoneNumber":"+1 (705) 337-6111","address":"Pharmacy Dept101 Progress Cres","city":"Kapuskasing","postalCode":"P5N 3H5"},{"name":"Shadlock-Steeles Pharmacy","mngrFirstName":"Dilip","mngrLastName":"Jain","mngrGradYr":"1981","mngrId":"204400","phoneNumber":"+1 (905) 472-4747","address":"3-8 Shadlock St","city":"Markham","postalCode":"L3S 3K9"},{"name":"Shaker's Pharmacy","mngrFirstName":"Wafik","mngrLastName":"Shaker","mngrGradYr":"1977","mngrId":"104094","phoneNumber":"+1 (519) 896-5858","address":"9-1601 River Rd. E","city":"Kitchener","postalCode":"N2A 3Y4"},{"name":"Sharbot Lake PharmaSave","mngrFirstName":"Jocelyn","mngrLastName":"Whalen","mngrGradYr":"1983","mngrId":"79944","phoneNumber":"+1 (613) 279-2901","address":"1036 Elizabeth StPo Box 67","city":"Sharbot Lake","postalCode":"K0H 2P0"},{"name":"Sharon Pharmacy","mngrFirstName":"Ahmed","mngrLastName":"El Hanan","mngrGradYr":"1991","mngrId":"605642","phoneNumber":"+1 (905) 478-1200","address":"19101 Leslie St","city":"Sharon","postalCode":"L0G 1V0"},{"name":"Shas Pharmacy Limited","mngrFirstName":"Naresh","mngrLastName":"Shah","mngrGradYr":"1970","mngrId":"56405","phoneNumber":"+1 (613) 737-4106","address":"1428 Walkley Rd","city":"Ottawa","postalCode":"K1V 6P5"},{"name":"Shaw's Pharmacy","mngrFirstName":"Claire","mngrLastName":"Shaw","mngrGradYr":"1983","mngrId":"79456","phoneNumber":"+1 (705) 673-3788","address":"401 Frood Rd","city":"Sudbury","postalCode":"P3C 4Z7"},{"name":"Shelburne Town Pharmacy","mngrFirstName":"Sanjay","mngrLastName":"Lekhi","mngrGradYr":"1994","mngrId":"219301","phoneNumber":"+1 (519) 306-5500","address":"Unit 4 - 226 First Avenue East","city":"Shelburne","postalCode":"L9V 2X4"},{"name":"Shepherd Drug Mart","mngrFirstName":"George","mngrLastName":"Rizq","mngrGradYr":"1988","mngrId":"212004","phoneNumber":"+1 (905) 812-5111","address":"5A-1474 Pickwick Dr","city":"Mississauga","postalCode":"L5V 2G2"},{"name":"Sheppard Community Pharmacy","mngrFirstName":"Krishna","mngrLastName":"Parekh","mngrGradYr":"1982","mngrId":"607401","phoneNumber":"+1 (647) 799-0669","address":"102 - 5818 Sheppard Ave. E.","city":"Toronto","postalCode":"M1B 4Z6"},{"name":"Sheppard Pharmacy","mngrFirstName":"Henry","mngrLastName":"Wong","mngrGradYr":"1977","mngrId":"109800","phoneNumber":"+1 (416) 293-9333","address":"4465 Sheppard Ave E","city":"Scarborough","postalCode":"M1S 5H9"},{"name":"Sheppard Warden Pharmacy","mngrFirstName":"Sam","mngrLastName":"Abdou","mngrGradYr":"1996","mngrId":"610255","phoneNumber":"+1 (416) 297-6677","address":"3410 Sheppard Ave E","city":"Scarborough","postalCode":"M1T 3K4"},{"name":"Sherbourne Pharmacy","mngrFirstName":"Nguyet","mngrLastName":"Nguyen","mngrGradYr":"1980","mngrId":"94846","phoneNumber":"+1 (416) 972-0189","address":"5-2011 Lawrence Ave W","city":"Toronto","postalCode":"M9N 3V3"},{"name":"Sherbourne Pharmacy","mngrFirstName":"Nguyet","mngrLastName":"Nguyen","mngrGradYr":"1980","mngrId":"94846","phoneNumber":"+1 (647) 748-6668","address":"26-2300 Finch Avenue West","city":"Toronto","postalCode":"M9M 2Y3"},{"name":"Sherbrooke Heights Pharmacy","mngrFirstName":"Prasanna K","mngrLastName":"Vemula","mngrGradYr":"1994","mngrId":"214777","phoneNumber":"+ (705) 748-9800","address":"6-1625 Sherbrooke St W","city":"Peterborough","postalCode":"K9J 6X4"},{"name":"Sheridan Pharmacy","mngrFirstName":"Sandra","mngrLastName":"Miranda","mngrGradYr":"1988","mngrId":"96814","phoneNumber":"+1 (905) 822-7500","address":"1960 Dundas St W","city":"Mississauga","postalCode":"L5K 2R9"},{"name":"Sheridan Pharmacy","mngrFirstName":"Mina","mngrLastName":"Ibrahim","mngrGradYr":"2000","mngrId":"614627","phoneNumber":"+1 (905) 453-8555","address":"373 Steeles Ave WUnit 6-7","city":"Brampton","postalCode":"L6Y 0P8"},{"name":"Sherway Medical Pharmacy","mngrFirstName":"Patrick","mngrLastName":"Joseph","mngrGradYr":"2008","mngrId":"610213","phoneNumber":"+1 (416) 620-7677","address":"190 Sherway Dr","city":"Etobicoke","postalCode":"M9C 5N2"},{"name":"Sherway Pharmasave","mngrFirstName":"Mary","mngrLastName":"Abd El Said","mngrGradYr":"1998","mngrId":"214905","phoneNumber":"+1 (416) 695-4248","address":"1750 The Queensway","city":"Etobicoke","postalCode":"M9C 5H5"},{"name":"Shih Pharmacy","mngrFirstName":"Mabel","mngrLastName":"Shih","mngrGradYr":"1982","mngrId":"76341","phoneNumber":"+1 (416) 740-1623","address":"2700 Kipling Ave","city":"Etobicoke","postalCode":"M9V 4P2"},{"name":"Shipyards Apothecary","mngrFirstName":"Jamie","mngrLastName":"Temple","mngrGradYr":"2004","mngrId":"607788","phoneNumber":"+1 (705) 444-1001","address":"28 Huron St","city":"Collingwood","postalCode":"L9Y 1C4"},{"name":"Shop Rite Pharmacy","mngrFirstName":"John","mngrLastName":"Youhanna","mngrGradYr":"1968","mngrId":"206276","phoneNumber":"+1 (416) 264-1000","address":"685 Kennedy Rd","city":"Toronto","postalCode":"M1K 2B8"},{"name":"Shoppers Drug Mart","mngrFirstName":"Beth","mngrLastName":"McMullen","mngrGradYr":"1989","mngrId":"207072","phoneNumber":"+1 (416) 491-5567","address":"Fairview Mall1800 Sheppard Ave E","city":"Willowdale","postalCode":"M2J 5A7"},{"name":"Shoppers Drug Mart","mngrFirstName":"Carolee","mngrLastName":"Coulter","mngrGradYr":"1993","mngrId":"202820","phoneNumber":"+1 (519) 472-2222","address":"1051 Wonderland Rd S","city":"London","postalCode":"N6K 3X4"},{"name":"Shoppers Drug Mart","mngrFirstName":"Baris","mngrLastName":"Huner","mngrGradYr":"2001","mngrId":"209884","phoneNumber":"+1 (905) 576-6070","address":"20 Warren Ave","city":"Oshawa","postalCode":"L1J 0A1"},{"name":"Shoppers Drug Mart","mngrFirstName":"Frank","mngrLastName":"Hack","mngrGradYr":"1994","mngrId":"200700","phoneNumber":"+1 (416) 423-3131","address":"1012 Pape Ave","city":"Toronto","postalCode":"M4K 3V9"},{"name":"Shoppers Drug Mart","mngrFirstName":"Sylvia","mngrLastName":"Der-sahakian","mngrGradYr":"1984","mngrId":"85367","phoneNumber":"+1 (416) 233-1155","address":"Humbertown Shopping Centre270 The Kingsway","city":"Etobicoke","postalCode":"M9A 3T7"},{"name":"Shoppers Drug Mart","mngrFirstName":"Peter","mngrLastName":"Struthers","mngrGradYr":"1989","mngrId":"100498","phoneNumber":"+1 (519) 376-2876","address":"100 10th St. West","city":"Owen Sound","postalCode":"N4K 3P9"},{"name":"Shoppers Drug Mart","mngrFirstName":"Jennifer","mngrLastName":"Van Alstyne","mngrGradYr":"1989","mngrId":"101435","phoneNumber":"+1 (905) 839-4488","address":"Pickering Town Centre1355 Kingston Rd","city":"Pickering","postalCode":"L1V 1B8"},{"name":"Shoppers Drug Mart","mngrFirstName":"Wilf","mngrLastName":"Fortowsky","mngrGradYr":"1983","mngrId":"80209","phoneNumber":"+1 (519) 728-1610","address":"330 Notre Dame StP.O. Box 418","city":"Belle River","postalCode":"N0R 1A0"},{"name":"Shoppers Drug Mart","mngrFirstName":"Mandy","mngrLastName":"Mastronardi-Morris","mngrGradYr":"2003","mngrId":"217249","phoneNumber":"+1 (519) 326-2663","address":"269 Erie St S","city":"Leamington","postalCode":"N8H 3C4"},{"name":"Shoppers Drug Mart","mngrFirstName":"Jan","mngrLastName":"Groulx","mngrGradYr":"1977","mngrId":"63355","phoneNumber":"+1 (519) 969-1234","address":"100-1421 Grand Marais Rd W","city":"Windsor","postalCode":"N9E 4V1"},{"name":"Shoppers Drug Mart","mngrFirstName":"Mary","mngrLastName":"Wolff","mngrGradYr":"1982","mngrId":"77895","phoneNumber":"+1 (519) 736-5435","address":"199 Sandwich St S","city":"Amherstburg","postalCode":"N9V 1Z9"},{"name":"Shoppers Drug Mart","mngrFirstName":"Yvette","mngrLastName":"Tetzlaff","mngrGradYr":"1994","mngrId":"203536","phoneNumber":"+1 (519) 682-2272","address":"20 Mill St WPO Box 149","city":"Tilbury","postalCode":"N0P 2L0"},{"name":"Shoppers Drug Mart","mngrFirstName":"Patrick","mngrLastName":"Coughlin","mngrGradYr":"1978","mngrId":"66508","phoneNumber":"+1 (519) 738-2226","address":"69 King St EPo Box 669","city":"Harrow","postalCode":"N0R 1G0"},{"name":"Shoppers Drug Mart","mngrFirstName":"Ted","mngrLastName":"Kummer","mngrGradYr":"1983","mngrId":"79820","phoneNumber":"+1 (519) 945-1107","address":"4835 Wyandotte St. E","city":"Windsor","postalCode":"N8Y 1H9"},{"name":"Shoppers Drug Mart","mngrFirstName":"Nekpen","mngrLastName":"Asemota","mngrGradYr":"1986","mngrId":"214701","phoneNumber":"+1 (519) 254-2505","address":"600 Ouellette Ave","city":"Windsor","postalCode":"N9A 6Z3"},{"name":"Shoppers Drug Mart","mngrFirstName":"Sebastiano","mngrLastName":"Di Pietro","mngrGradYr":"2006","mngrId":"612619","phoneNumber":"+1 (519) 945-2304","address":"7980 Menard St","city":"Windsor","postalCode":"N8S 1V9"},{"name":"Shoppers Drug Mart","mngrFirstName":"Carmen","mngrLastName":"Novosel","mngrGradYr":"1993","mngrId":"202992","phoneNumber":"+1 (519) 969-2230","address":"3950 Dougall Ave","city":"Windsor","postalCode":"N9G 1X2"},{"name":"Shoppers Drug Mart","mngrFirstName":"Jim","mngrLastName":"Craig","mngrGradYr":"1974","mngrId":"57231","phoneNumber":"+1 (519) 776-5246","address":"5 Talbot St S","city":"Essex","postalCode":"N8M 1A6"},{"name":"Shoppers Drug Mart","mngrFirstName":"Sohail","mngrLastName":"Aslam","mngrGradYr":"1991","mngrId":"215257","phoneNumber":"+1 (416) 244-6474","address":"York Plaza1597 Wilson Ave","city":"Downsview","postalCode":"M3L 1A5"},{"name":"Shoppers Drug Mart","mngrFirstName":"Hamat","mngrLastName":"Bhana","mngrGradYr":"2000","mngrId":"208272","phoneNumber":"+1 (905) 294-3333","address":"6579 Highway 7 E.","city":"Markham","postalCode":"L3P 3B4"},{"name":"Shoppers Drug Mart","mngrFirstName":"Matthew","mngrLastName":"Kerr","mngrGradYr":"2005","mngrId":"605428","phoneNumber":"+1 (519) 862-1451","address":"420 Lyndock StPo Box 820","city":"Corunna","postalCode":"N0N 1G0"},{"name":"Shoppers Drug Mart","mngrFirstName":"Bob","mngrLastName":"Fesuk","mngrGradYr":"1974","mngrId":"57053","phoneNumber":"+1 (519) 679-4567","address":"759 Adelaide St N","city":"London","postalCode":"N5Y 2L7"},{"name":"Shoppers Drug Mart","mngrFirstName":"Namiesh","mngrLastName":"Seth","mngrGradYr":"2009","mngrId":"606524","phoneNumber":"+1 (416) 439-2121","address":"629 Markham Rd","city":"Scarborough","postalCode":"M1H 2A4"},{"name":"Shoppers Drug Mart","mngrFirstName":"Mehdi","mngrLastName":"Samiee-Zafarghandi","mngrGradYr":"1994","mngrId":"212544","phoneNumber":"+1 (416) 421-5141","address":"East York Town Centre45 Overlea Blvd","city":"Toronto","postalCode":"M4H 1C3"},{"name":"Shoppers Drug Mart","mngrFirstName":"Maria","mngrLastName":"Horner","mngrGradYr":"1987","mngrId":"93173","phoneNumber":"+1 (519) 884-3860","address":"Parkdale Mall Shopping Centre468 Albert St","city":"Waterloo","postalCode":"N2L 3V4"},{"name":"Shoppers Drug Mart","mngrFirstName":"Stacey","mngrLastName":"Andrecyk","mngrGradYr":"2003","mngrId":"220053","phoneNumber":"+1 (519) 537-3491","address":"333 Dundas St.","city":"Woodstock","postalCode":"N4S 1B5"},{"name":"Shoppers Drug Mart","mngrFirstName":"Mervyn","mngrLastName":"Dube","mngrGradYr":"2000","mngrId":"614902","phoneNumber":"+1 (705) 435-6051","address":"67 Victoria St","city":"Alliston","postalCode":"L9R 1L5"},{"name":"Shoppers Drug Mart","mngrFirstName":"Katherine","mngrLastName":"Henry","mngrGradYr":"1978","mngrId":"65846","phoneNumber":"+1 (905) 579-1900","address":"Ritson Centre300 Taunton Rd E","city":"Oshawa","postalCode":"L1G 7T4"},{"name":"Shoppers Drug Mart","mngrFirstName":"Gregory","mngrLastName":"Cummings","mngrGradYr":"2008","mngrId":"610395","phoneNumber":"+1 (705) 949-2143","address":"Cambrian Mall44 Great Northern Rd","city":"Sault Ste Marie","postalCode":"P6B 4Y5"},{"name":"Shoppers Drug Mart","mngrFirstName":"Jim","mngrLastName":"Lococo","mngrGradYr":"1971","mngrId":"30961","phoneNumber":"+1 (905) 934-4260","address":"1-387 Scott St","city":"St. Catharines","postalCode":"L2M 3W2"},{"name":"Shoppers Drug Mart","mngrFirstName":"Mike","mngrLastName":"Morcous","mngrGradYr":"1993","mngrId":"607678","phoneNumber":"+1 (905) 688-2132","address":"Lake Carlton Plaza125 Carlton St","city":"St. Catharines","postalCode":"L2R 1R5"},{"name":"Shoppers Drug Mart","mngrFirstName":"Manal","mngrLastName":"El-Zeftawy","mngrGradYr":"1987","mngrId":"215385","phoneNumber":"+1 (905) 688-5743","address":"Pelham Group Health Centre245 Pelham Rd","city":"St. Catharines","postalCode":"L2S 1X8"},{"name":"Shoppers Drug Mart","mngrFirstName":"David","mngrLastName":"Walker","mngrGradYr":"1975","mngrId":"79294","phoneNumber":"+1 (705) 324-7400","address":"74 Kent St W","city":"Lindsay","postalCode":"K9V 2Y4"},{"name":"Shoppers Drug Mart","mngrFirstName":"Anisha","mngrLastName":"Nayar","mngrGradYr":"2008","mngrId":"607238","phoneNumber":"+1 (519) 945-2371","address":"Tecumseh Mall7720 Tecumseh Rd E","city":"Windsor","postalCode":"N8T 1E9"},{"name":"Shoppers Drug Mart","mngrFirstName":"Prabha","mngrLastName":"Kurian","mngrGradYr":"1992","mngrId":"205596","phoneNumber":"+1 (905) 385-3269","address":"Mountain Plaza Mall661 Upper James St","city":"Hamilton","postalCode":"L9C 5R8"},{"name":"Shoppers Drug Mart","mngrFirstName":"Tom","mngrLastName":"Betts","mngrGradYr":"1973","mngrId":"52736","phoneNumber":"+1 (905) 628-6121","address":"133 King St W","city":"Dundas","postalCode":"L9H 1V3"},{"name":"Shoppers Drug Mart","mngrFirstName":"Asad","mngrLastName":"Baig","mngrGradYr":"1990","mngrId":"204444","phoneNumber":"+1 (416) 757-1154","address":"2428 Eglinton Ave E","city":"Scarborough","postalCode":"M1K 2P7"},{"name":"Shoppers Drug Mart","mngrFirstName":"Trevor","mngrLastName":"Mason","mngrGradYr":"1980","mngrId":"101265","phoneNumber":"+1 (416) 225-2321","address":"5576 Yonge","city":"North York","postalCode":"M2N 5S2"},{"name":"Shoppers Drug Mart","mngrFirstName":"Stephen","mngrLastName":"Gill","mngrGradYr":"1978","mngrId":"603437","phoneNumber":"+1 (905) 775-3187","address":"140 Holland St W","city":"Bradford","postalCode":"L3Z 1Y0"},{"name":"Shoppers Drug Mart","mngrFirstName":"Chris","mngrLastName":"Mazaris","mngrGradYr":"1994","mngrId":"201328","phoneNumber":"+1 (519) 354-1660","address":"475 Grand Ave W","city":"Chatham","postalCode":"N7L 1C5"},{"name":"Shoppers Drug Mart","mngrFirstName":"Geoffrey","mngrLastName":"Bostick","mngrGradYr":"1985","mngrId":"96237","phoneNumber":"+1 (705) 728-5943","address":"Barrie Shopping Centre165 Wellington St W","city":"Barrie","postalCode":"L4N 1L7"},{"name":"Shoppers Drug Mart","mngrFirstName":"Mark","mngrLastName":"McNamara","mngrGradYr":"2005","mngrId":"220289","phoneNumber":"+1 (519) 821-5080","address":"104 Silver Creek Parkway","city":"Guelph","postalCode":"N1H 7B4"},{"name":"Shoppers Drug Mart","mngrFirstName":"Richie","mngrLastName":"Loduca","mngrGradYr":"2002","mngrId":"211612","phoneNumber":"+1 (905) 773-1983","address":"13070 Yonge St","city":"Richmond Hill","postalCode":"L4E 2T2"},{"name":"Shoppers Drug Mart","mngrFirstName":"Karan","mngrLastName":"Dhami","mngrGradYr":"2001","mngrId":"209800","phoneNumber":"+1 (519) 649-0833","address":"1155  Commissioners Rd E","city":"London","postalCode":"N5Z 4L9"},{"name":"Shoppers Drug Mart","mngrFirstName":"Nabil","mngrLastName":"Hanna","mngrGradYr":"1966","mngrId":"67199","phoneNumber":"+1 (613) 523-9999","address":"15-2515 Bank St","city":"Ottawa","postalCode":"K1V 8R9"},{"name":"Shoppers Drug Mart","mngrFirstName":"Aimee","mngrLastName":"Mansfield","mngrGradYr":"2003","mngrId":"213617","phoneNumber":"+1 (705) 457-5020","address":"49 Maple AvePO Box 37","city":"Haliburton","postalCode":"K0M 1S0"},{"name":"Shoppers Drug Mart","mngrFirstName":"Joseph","mngrLastName":"Koo","mngrGradYr":"2009","mngrId":"606376","phoneNumber":"+1 (905) 987-0000","address":"1 King Ave E","city":"Newcastle","postalCode":"L1B 1H3"},{"name":"Shoppers Drug Mart","mngrFirstName":"Yasser","mngrLastName":"Ibrahim","mngrGradYr":"2003","mngrId":"213405","phoneNumber":"+1 (905) 681-1277","address":"Mapleview CentreA6A-900 Maple Ave","city":"Burlington","postalCode":"L7S 2J8"},{"name":"Shoppers Drug Mart","mngrFirstName":"Anne","mngrLastName":"Suthers","mngrGradYr":"1989","mngrId":"100536","phoneNumber":"+1 (519) 979-0009","address":"500 Manning Road","city":"St. Clair Beach","postalCode":"N8N 5H3"},{"name":"Shoppers Drug Mart","mngrFirstName":"Madelyn","mngrLastName":"Rutledge","mngrGradYr":"1985","mngrId":"85588","phoneNumber":"+1 (905) 729-4555","address":"Jackson Plaza50 Main St EPO Box 307","city":"Beeton","postalCode":"L0G 1A0"},{"name":"Shoppers Drug Mart","mngrFirstName":"Avish","mngrLastName":"Shah","mngrGradYr":"2000","mngrId":"610707","phoneNumber":"+1 (613) 267-1616","address":"50 Dufferin St","city":"Perth","postalCode":"K7H 3A6"},{"name":"Shoppers Drug Mart","mngrFirstName":"Kamna","mngrLastName":"Leekha","mngrGradYr":"1998","mngrId":"210832","phoneNumber":"+1 (905) 946-8000","address":"T13-1661 Denison St","city":"Markham","postalCode":"L3R 6E4"},{"name":"Shoppers Drug Mart","mngrFirstName":"Mark","mngrLastName":"Matthews","mngrGradYr":"1984","mngrId":"88994","phoneNumber":"+1 (705) 444-6055","address":"175 First St","city":"Collingwood","postalCode":"L9Y 1A5"},{"name":"Shoppers Drug Mart","mngrFirstName":"Millie","mngrLastName":"Ho","mngrGradYr":"1977","mngrId":"63592","phoneNumber":"+1 (905) 886-6676","address":"9275 Bayview Ave","city":"Richmond Hill","postalCode":"L4C 9X4"},{"name":"Shoppers Drug Mart","mngrFirstName":"Moe","mngrLastName":"Amro","mngrGradYr":"1990","mngrId":"210524","phoneNumber":"+1 (416) 724-6055","address":"207-2863 Ellesmere Rd","city":"Scarborough","postalCode":"M1E 5E9"},{"name":"Shoppers Drug Mart","mngrFirstName":"Terence","mngrLastName":"Wong","mngrGradYr":"1984","mngrId":"83682","phoneNumber":"+1 (905) 851-2199","address":"4000 Hwy 7 ","city":"Woodbridge","postalCode":"L4L 1A6"},{"name":"Shoppers Drug Mart","mngrFirstName":"Lucija","mngrLastName":"Djurovic-Djukic","mngrGradYr":"1977","mngrId":"114332","phoneNumber":"+1 (416) 285-5822","address":"812 O'Connor Dr","city":"Toronto","postalCode":"M4B 2S9"},{"name":"Shoppers Drug Mart","mngrFirstName":"Amit","mngrLastName":"Lekhi","mngrGradYr":"1998","mngrId":"206236","phoneNumber":"+1 (416) 920-0098","address":"728 Yonge St","city":"Toronto","postalCode":"M4Y 2B3"},{"name":"Shoppers Drug Mart","mngrFirstName":"Peter","mngrLastName":"Barreiro","mngrGradYr":"2002","mngrId":"217137","phoneNumber":"+1 (613) 828-4487","address":"1821 Robertson Rd","city":"Ottawa","postalCode":"K2H 8X3"},{"name":"Shoppers Drug Mart","mngrFirstName":"Wally","mngrLastName":"Chiu","mngrGradYr":"1981","mngrId":"74756","phoneNumber":"+1 (416) 777-1300","address":"181 Bay StBox 741","city":"Toronto","postalCode":"M5J 2T3"},{"name":"Shoppers Drug Mart","mngrFirstName":"Jama","mngrLastName":"Ross","mngrGradYr":"1999","mngrId":"207432","phoneNumber":"+1 (705) 739-9411","address":"279 Yonge St","city":"Barrie","postalCode":"L4N 7T9"},{"name":"Shoppers Drug Mart","mngrFirstName":"Tayab","mngrLastName":"Alam","mngrGradYr":"2000","mngrId":"208264","phoneNumber":"+1 (519) 823-8000","address":"615 Scottsdale Dr","city":"Guelph","postalCode":"N1G 3P4"},{"name":"Shoppers Drug Mart","mngrFirstName":"Amira","mngrLastName":"Abdalla","mngrGradYr":"1979","mngrId":"605325","phoneNumber":"+1 (613) 523-2835","address":"Hunt Club Centre3310 Mccarthy Rd","city":"Ottawa","postalCode":"K1V 9S1"},{"name":"Shoppers Drug Mart","mngrFirstName":"Bryan","mngrLastName":"Langel","mngrGradYr":"2010","mngrId":"607835","phoneNumber":"+1 (519) 753-9091","address":"269 Clarence St","city":"Brantford","postalCode":"N3R 3T6"},{"name":"Shoppers Drug Mart","mngrFirstName":"Dominic","mngrLastName":"Kwok","mngrGradYr":"1988","mngrId":"98221","phoneNumber":"+1 (905) 319-3333","address":"3505 Upper Middle Rd","city":"Burlington","postalCode":"L7M 4C6"},{"name":"Shoppers Drug Mart","mngrFirstName":"Viney","mngrLastName":"Bansal","mngrGradYr":"2012","mngrId":"612260","phoneNumber":"+1 (613) 332-4846","address":"118 Hastings St N","city":"Bancroft","postalCode":"K0L 1C0"},{"name":"Shoppers Drug Mart","mngrFirstName":"Stan","mngrLastName":"Tsykov","mngrGradYr":"2009","mngrId":"606351","phoneNumber":"+1 (613) 623-7971","address":"55 Elgin St West ","city":"Arnprior","postalCode":"K7S 1N6"},{"name":"Shoppers Drug Mart","mngrFirstName":"Anna","mngrLastName":"Huynh","mngrGradYr":"2011","mngrId":"609394","phoneNumber":"+1 (705) 730- 6736","address":"C2-509 Bayfield St","city":"Barrie","postalCode":"L4M 4Z8"},{"name":"Shoppers Drug Mart","mngrFirstName":"Jean","mngrLastName":"Adescat","mngrGradYr":"2001","mngrId":"616585","phoneNumber":"+1 (613) 836-3679","address":"5709 Hazeldean Road","city":"Kanata","postalCode":"K2S 0P6"},{"name":"Shoppers Drug Mart","mngrFirstName":"Siva","mngrLastName":"Sivapalan","mngrGradYr":"2008","mngrId":"614298","phoneNumber":"+1 (905) 563-7974","address":"5005 Serena Drive","city":"Beamsville","postalCode":"L0R 1B4"},{"name":"Shoppers Drug Mart","mngrFirstName":"Jaspreet","mngrLastName":"Chahal","mngrGradYr":"2011","mngrId":"609489","phoneNumber":"+1 (905) 788-2111","address":"825 Ontario Rd","city":"Welland","postalCode":"L3B 5V6"},{"name":"Shoppers Drug Mart","mngrFirstName":"Gary","mngrLastName":"Baxter","mngrGradYr":"1991","mngrId":"111902","phoneNumber":"+1 (613) 258-2557","address":"2727 County Rd #43","city":"Kemptville","postalCode":"K0G 1J0"},{"name":"Shoppers Drug Mart","mngrFirstName":"Vinit","mngrLastName":"Rajan","mngrGradYr":"1999","mngrId":"612488","phoneNumber":"+1 (905) 852-3345","address":"232 Toronto St S ","city":"Uxbridge","postalCode":"L9P 0C4"},{"name":"Shoppers Drug Mart","mngrFirstName":"Suvenna","mngrLastName":"Chan","mngrGradYr":"1991","mngrId":"111740","phoneNumber":"+1 (905) 479-4044","address":"4630 Highway #7","city":"Unionville","postalCode":"L3R 1M5"},{"name":"Shoppers Drug Mart","mngrFirstName":"Gorjan","mngrLastName":"Riskovski","mngrGradYr":"2006","mngrId":"607772","phoneNumber":"+1 (905) 560-4800","address":"75 Centennial Pky N","city":"Hamilton","postalCode":"L8E 2P2"},{"name":"Shoppers Drug Mart","mngrFirstName":"Nadeem","mngrLastName":"Remtulla","mngrGradYr":"2012","mngrId":"612438","phoneNumber":"+ (416) 538-0105","address":"958 Bloor St W","city":"Toronto","postalCode":"M6H 1L6"},{"name":"Shoppers Drug Mart","mngrFirstName":"Jatinderjit","mngrLastName":"Dhaliwall","mngrGradYr":"2004","mngrId":"220345","phoneNumber":"+1 (416) 787-0238","address":"770 Lawrence Ave. W","city":"Toronto","postalCode":"M6A 3C6"},{"name":"Shoppers Drug Mart","mngrFirstName":"Jatinderjit","mngrLastName":"Dhaliwall","mngrGradYr":"2004","mngrId":"220345","phoneNumber":"+1 (416) 635-5601","address":"3874 Bathurst St","city":"Toronto","postalCode":"M3H 3N3"},{"name":"Shoppers Drug Mart","mngrFirstName":"Baseer","mngrLastName":"Yasseen","mngrGradYr":"2011","mngrId":"609699","phoneNumber":"+1 (905) 335-1668","address":"3035 Appleby Line","city":"Burlington","postalCode":"L7M 0V7"},{"name":"Shoppers Drug Mart","mngrFirstName":"Hassanabbas","mngrLastName":"Mohamedali","mngrGradYr":"2012","mngrId":"612512","phoneNumber":"+1 (905) 878-3311","address":"265 Main St E","city":"Milton","postalCode":"L9T 1P1"},{"name":"Shoppers Drug Mart","mngrFirstName":"Layla","mngrLastName":"Khudhair","mngrGradYr":"2008","mngrId":"613839","phoneNumber":"+1 (519) 364-3141","address":"895 10th St.","city":"Hanover","postalCode":"N4N 1S4"},{"name":"Shoppers Drug Mart ","mngrFirstName":"Dalia","mngrLastName":"Salib","mngrGradYr":"1993","mngrId":"210820","phoneNumber":"+1 (416) 778-4765","address":"14 St. Mathews RdUnit G-008","city":"Toronto","postalCode":"M4M 2B5"},{"name":"Shoppers Simply Pharmacy","mngrFirstName":"Dominic","mngrLastName":"Gniewek","mngrGradYr":"1982","mngrId":"613899","phoneNumber":"+1 (519) 471-9702","address":"109-460 Springbank Dr","city":"London","postalCode":"N6J 1G8"},{"name":"Shoppers Simply Pharmacy","mngrFirstName":"Parth","mngrLastName":"Vaidya","mngrGradYr":"2008","mngrId":"610735","phoneNumber":"+1 (416) 746-2000","address":"104-1525 Albion Rd ","city":"Etobicoke ","postalCode":"m9v5g5"},{"name":"Shoppers Simply Pharmacy","mngrFirstName":"Melissa","mngrLastName":"Babel","mngrGradYr":"1995","mngrId":"200156","phoneNumber":"+1 (905) 842-3934","address":"Upper Oakville Shopping CentreE5-1011 Upper Middle Rd E","city":"Oakville","postalCode":"L6H 4L5"},{"name":"Shoppers Simply Pharmacy","mngrFirstName":"Frank","mngrLastName":"Hack","mngrGradYr":"1994","mngrId":"200700","phoneNumber":"+1 (416) 778-7780","address":"101 - 235 Danforth Ave","city":"Toronto","postalCode":"M4K 1N2"},{"name":"Shoppers Simply Pharmacy","mngrFirstName":"Paul","mngrLastName":"Read","mngrGradYr":"1974","mngrId":"62723","phoneNumber":"+1 (705) 742-3002","address":"361-365 George St N","city":"Peterborough","postalCode":"K9H 3R2"},{"name":"Shoppers Simply Pharmacy","mngrFirstName":"Michael","mngrLastName":"Sawyer","mngrGradYr":"2001","mngrId":"610736","phoneNumber":"+1 (519) 253-2200","address":"1270 Walker Rd","city":"Windsor","postalCode":"N8Y 4T4"},{"name":"Shoppers Simply Pharmacy","mngrFirstName":"Matthew","mngrLastName":"Rice","mngrGradYr":"2011","mngrId":"609500","phoneNumber":"+1 (613) 748-3118","address":"595 Montreal Rd","city":"Ottawa","postalCode":"K1K 4L2"},{"name":"Shoppers Simply Pharmacy","mngrFirstName":"Maggie","mngrLastName":"Willmore","mngrGradYr":"1996","mngrId":"201468","phoneNumber":"+1 (807) 345-5611","address":"The Port Arthur Clinic194 Court St N","city":"Thunder Bay","postalCode":"P7A 4V7"},{"name":"Shoppers Simply Pharmacy","mngrFirstName":"Becky","mngrLastName":"He","mngrGradYr":"2007","mngrId":"603542","phoneNumber":"+1 (705)-327-9029","address":"119 Memorial Ave","city":"Orillia","postalCode":"L3V 5X1"},{"name":"Shoppers Simply Pharmacy","mngrFirstName":"Sajjad","mngrLastName":"Giby","mngrGradYr":"2010","mngrId":"608162","phoneNumber":"+1 (613) 238-8552","address":"267 O'Connor St","city":"Ottawa","postalCode":"K2P 1V3"},{"name":"Shoppers Simply Pharmacy","mngrFirstName":"Mohan","mngrLastName":"Joshi","mngrGradYr":"2013","mngrId":"613767","phoneNumber":"+1 (705) 267-6555","address":"123 Third Ave","city":"Timmins","postalCode":"P4N 1C6"},{"name":"Shoppers Simply Pharmacy #3080","mngrFirstName":"Hassan","mngrLastName":"Khandwalla","mngrGradYr":"2000","mngrId":"608621","phoneNumber":"+1 (905) 885-8740","address":"Port Hope Professional Centre249 Ontario St","city":"Port Hope","postalCode":"L1A 3Y9"},{"name":"Shoprite Pharmacy","mngrFirstName":"Mina","mngrLastName":"Michael","mngrGradYr":"1996","mngrId":"218353","phoneNumber":"+1 (905) 433-2002","address":"16-600 King St E","city":"Oshawa","postalCode":"L1H 1G6"},{"name":"Silver Creek Guardian Pharmacy","mngrFirstName":"Susan","mngrLastName":"Suszek","mngrGradYr":"1989","mngrId":"100528","phoneNumber":"+1 (905) 667-4640","address":"104-325 Winterberry Dr","city":"Hamilton","postalCode":"L8J 0B6"},{"name":"Silverstone Pharmacy","mngrFirstName":"Wafik","mngrLastName":"Gurges","mngrGradYr":"1981","mngrId":"218085","phoneNumber":"+ (416) 740-0040","address":"5-2200 Martin Grove Rd","city":"Toronto","postalCode":"M9V 5H9"},{"name":"Simcoe North Pharmacy","mngrFirstName":"Rosetta","mngrLastName":"Li","mngrGradYr":"1996","mngrId":"206704","phoneNumber":"+1 (905) 720-1800","address":"7a-1053 Simcoe St. N.","city":"Oshawa","postalCode":"L1G 4X1"},{"name":"Simcoe Square Pharmacy","mngrFirstName":"Violet","mngrLastName":"Sargyos","mngrGradYr":"1989","mngrId":"210444","phoneNumber":"+1 (905) 775-9225","address":"9-157 Holland St EPo Box 610 Stn Main","city":"Bradford","postalCode":"L3Z 2B2"},{"name":"Simcoe Street Pharmacy Ltd.","mngrFirstName":"Dhwnish","mngrLastName":"Gandhi","mngrGradYr":"2012","mngrId":"619042","phoneNumber":"+1 (905) 721-0005","address":"777 Simcoe St. S","city":"Oshawa","postalCode":"L1H 4K5"},{"name":"Simpson's Apothecary Pharmasave","mngrFirstName":"Jillian","mngrLastName":"Grocholsky","mngrGradYr":"2012","mngrId":"612806","phoneNumber":"+1 (905) 468-8400","address":"233 King StBox 1415","city":"Niagara On The Lake","postalCode":"L0S 1J0"},{"name":"Simpson's Pharmasave","mngrFirstName":"Julie","mngrLastName":"Dyck","mngrGradYr":"2008","mngrId":"604844","phoneNumber":"+1 (905) 468-2121","address":"1882 Niagara Stone RdPo Box 329","city":"Virgil","postalCode":"L0S 1T0"},{"name":"Sina Pharmacy (No. 2) Inc.","mngrFirstName":"Nilofar","mngrLastName":"Bozorgi","mngrGradYr":"1990","mngrId":"209808","phoneNumber":"+ (416) 224-0003","address":"77 Finch Ave W","city":"Toronto","postalCode":"M2N 2H5"},{"name":"Sina Pharmacy Inc","mngrFirstName":"Farahnaz","mngrLastName":"Sadeghian Rizi","mngrGradYr":"1994","mngrId":"209476","phoneNumber":"+1 (416) 223-6991","address":"2722 Bayview Ave","city":"Toronto","postalCode":"M2L 1B9"},{"name":"Sinclair Pharmacy","mngrFirstName":"Theresa","mngrLastName":"Ryan","mngrGradYr":"1993","mngrId":"202288","phoneNumber":"+1 (519) 271-8940","address":"12 Wellington StPo Box 21055 Rpo Stratford Ctr","city":"Stratford","postalCode":"N5A 7V4"},{"name":"Sioux Lookout Remedy's Rx","mngrFirstName":"Colin","mngrLastName":"Pienaar","mngrGradYr":"1999","mngrId":"606083","phoneNumber":"+1 (807) 737-4998","address":"75 King Street","city":"Sioux Lookout","postalCode":"P8T 1B1"},{"name":"SKL Guardian Drugs","mngrFirstName":"Sam","mngrLastName":"Lai","mngrGradYr":"1984","mngrId":"82635","phoneNumber":"+1 (905) 305-7667","address":"10-4080 Steeles Ave E","city":"Markham","postalCode":"L3R 4C3"},{"name":"Skycare Pharmacy","mngrFirstName":"Mena","mngrLastName":"Bashta","mngrGradYr":"iver","mngrId":"613116","phoneNumber":"+1 (905) 235-7591","address":"540 Davis Dr","city":"Newmarket","postalCode":"L3Y 2P3"},{"name":"Skyway Pharmacy","mngrFirstName":"Mirette","mngrLastName":"Attaalla","mngrGradYr":"2001","mngrId":"607074","phoneNumber":"+ (416) 633-1888","address":"348 Wilson Ave","city":"Toronto","postalCode":"M3H 1S9"},{"name":"Smallman Pharmacy","mngrFirstName":"Russell","mngrLastName":"Walker","mngrGradYr":"1978","mngrId":"67415","phoneNumber":"+1 (705) 672-5261","address":"368 Main StPo Box 129","city":"Haileybury","postalCode":"P0J 1K0"},{"name":"Smartmeds Pharmacy","mngrFirstName":"Iryna","mngrLastName":"Krasiy","mngrGradYr":"1988","mngrId":"604328","phoneNumber":"+1 (905) 336-8672","address":"1252 Northside Rd","city":"Burlington","postalCode":"L7M 1H6"},{"name":"Smartmeds Pharmacy","mngrFirstName":"Gurpreet","mngrLastName":"Saran","mngrGradYr":"2006","mngrId":"614213","phoneNumber":"+1 (905) 339-2889","address":"948-960 Cumberland Ave","city":"Burlington","postalCode":"L7N 3J6"},{"name":"Smith Drugs & Apothecary Ltd.","mngrFirstName":"Philip","mngrLastName":"Smith","mngrGradYr":"1974","mngrId":"55573","phoneNumber":"+1 (519) 752-2281","address":"794 Colborne St E","city":"Brantford","postalCode":"N3S 3S4"},{"name":"Smith's Pharmacy","mngrFirstName":"Mike","mngrLastName":"Hannalah","mngrGradYr":"2000","mngrId":"219305","phoneNumber":"+1 (416) 488-2600","address":"3463 Yonge St","city":"Toronto","postalCode":"M4N 2N3"},{"name":"Smith's Pharmacy","mngrFirstName":"Tatiana","mngrLastName":"Ejchel-Cohen","mngrGradYr":"1998","mngrId":"612600","phoneNumber":"+1 (905) 553-1280","address":"Unit 3 - 3590 Rutherford Rd","city":"Vaughan","postalCode":"L4H 3T8"},{"name":"Smooth Rock Falls Pharmacy Ltd","mngrFirstName":"Lisa","mngrLastName":"Stewart","mngrGradYr":"1998","mngrId":"205960","phoneNumber":"+1 (705) 338-4470","address":"133-5th StPo Box 520","city":"Smooth Rock Falls","postalCode":"P0L 2B0"},{"name":"Smyth Medical Pharmacy","mngrFirstName":"Louca","mngrLastName":"El-Zayat","mngrGradYr":"1974","mngrId":"107573","phoneNumber":"+1 (613) 521-1300","address":"1929 Russell Rd","city":"Ottawa","postalCode":"K1G 4G3"},{"name":"Snowdon Pharmacy","mngrFirstName":"Jim","mngrLastName":"Snowdon","mngrGradYr":"1970","mngrId":"39381","phoneNumber":"+1 (416) 922-2156","address":"264 Bloor St W","city":"Toronto","postalCode":"M5S 1V8"},{"name":"Sobeys Pharmacy","mngrFirstName":"Iyabode","mngrLastName":"Kuye","mngrGradYr":"1983","mngrId":"212068","phoneNumber":"+1 (519) 442-1044","address":"307 Grand River St N","city":"Paris","postalCode":"N3L 2N9"},{"name":"Sobeys Pharmacy","mngrFirstName":"Trevor","mngrLastName":"Polson","mngrGradYr":"2008","mngrId":"605089","phoneNumber":"+1 (519) 880-9145","address":"450 Columbia St W","city":"Waterloo","postalCode":"N2T 2W1"},{"name":"Sobeys Pharmacy","mngrFirstName":"Ghada","mngrLastName":"Cheikh","mngrGradYr":"1988","mngrId":"103527","phoneNumber":"+1 (519) 735-1373","address":"19 Amy Croft Dr","city":"Lakeshore","postalCode":"N9K 1C7"},{"name":"Sobeys Pharmacy","mngrFirstName":"Diana","mngrLastName":"Lee","mngrGradYr":"1999","mngrId":"603929","phoneNumber":"+1 (613) 831-4311","address":"700 Terry Fox Dr","city":"Kanata","postalCode":"K2L 4H4"},{"name":"Sobeys Pharmacy","mngrFirstName":"Mahaba","mngrLastName":"Karas","mngrGradYr":"1965","mngrId":"18198","phoneNumber":"+1 (905) 731-6568","address":"9200 Bathurst St","city":"Vaughan","postalCode":"L4J 8W1"},{"name":"Sobeys Pharmacy","mngrFirstName":"Dinah","mngrLastName":"Lim","mngrGradYr":"1998","mngrId":"219069","phoneNumber":"+1 (905) 426-7288","address":"260 Kingston Rd W","city":"Ajax","postalCode":"L1T 4E4"},{"name":"Sobeys Pharmacy","mngrFirstName":"Bina","mngrLastName":"Gajjar","mngrGradYr":"1983","mngrId":"607239","phoneNumber":"+1 (905) 858-8212","address":"5602 Tenth Line West","city":"Mississauga","postalCode":"L5M 7L9"},{"name":"Sobeys Pharmacy","mngrFirstName":"Branka","mngrLastName":"Tadic","mngrGradYr":"1979","mngrId":"213865","phoneNumber":"+1 (519) 744-0839","address":"274 Highland Rd W","city":"Kitchener","postalCode":"N2J 2J4"},{"name":"Sobeys Pharmacy","mngrFirstName":"Steve","mngrLastName":"Paupin","mngrGradYr":"2003","mngrId":"604682","phoneNumber":"+1 (905) 648-0283","address":"977 Golf Links Rd","city":"Ancaster","postalCode":"L9K 1K1"},{"name":"Sobeys Pharmacy","mngrFirstName":"Natasa","mngrLastName":"Ceranic","mngrGradYr":"2011","mngrId":"609767","phoneNumber":"+1 (905) 440-4690","address":"1377 Wilson Rd N","city":"Oshawa","postalCode":"L1K 2Z5"},{"name":"Sobeys Pharmacy","mngrFirstName":"Zul","mngrLastName":"Nathoo","mngrGradYr":"1976","mngrId":"96547","phoneNumber":"+ (905) 796-5587","address":"8975 Chinguacousy Rd","city":"Brampton","postalCode":"L6Y 0J2"},{"name":"Sobeys Pharmacy","mngrFirstName":"Eva","mngrLastName":"Ho","mngrGradYr":"1985","mngrId":"88307","phoneNumber":"+1 (905) 619-0291","address":"1899 Brock Rd","city":"Pickering","postalCode":"L1V 4H7"},{"name":"Sobeys Pharmacy","mngrFirstName":"Noreen","mngrLastName":"Chaudary","mngrGradYr":"2004","mngrId":"220137","phoneNumber":"+1 (519) 853-5112","address":"372 Queen St E","city":"Acton","postalCode":"L7J 2N3"},{"name":"Sobeys Pharmacy","mngrFirstName":"Alin","mngrLastName":"Lutz","mngrGradYr":"1986","mngrId":"107468","phoneNumber":"+1 (705) 748-5309","address":"1200 Lansdowne St W","city":"Peterborough","postalCode":"K9J 2A1"},{"name":"Sobeys Pharmacy","mngrFirstName":"Sam","mngrLastName":"Bishay","mngrGradYr":"1990","mngrId":"210392","phoneNumber":"+1 (519) 576-7516","address":"1187 Fischer Hallman Rd","city":"Kitchener","postalCode":"N2E 4H9"},{"name":"Sobeys Pharmacy","mngrFirstName":"Charles","mngrLastName":"Todd","mngrGradYr":"1995","mngrId":"217233","phoneNumber":"+ (905) 849-0446","address":"511 Maple Grove Dr","city":"Oakville","postalCode":"L6J 4W3"},{"name":"Sobeys Pharmacy","mngrFirstName":"Nancy","mngrLastName":"Mousa","mngrGradYr":"1994","mngrId":"216717","phoneNumber":"+1 (905) 435-0804","address":"1615 Dundas St E","city":"Whitby","postalCode":"L1N 2L1"},{"name":"Sobeys Pharmacy ","mngrFirstName":"Merfat","mngrLastName":"Seif","mngrGradYr":"1991","mngrId":"215813","phoneNumber":"+1 (905) 847-3460","address":"1500 Upper Middle Rd","city":"Oakville","postalCode":"L6J 4L3"},{"name":"Sobeys Pharmacy","mngrFirstName":"Nelson","mngrLastName":"Leung","mngrGradYr":"1982","mngrId":"77062","phoneNumber":"+ (519) 941-0998","address":"500 Riddell Rd","city":"Orangeville","postalCode":"L9W 5L1"},{"name":"Sobeys Pharmacy","mngrFirstName":"Margaret","mngrLastName":"Momberg","mngrGradYr":"1982","mngrId":"219921","phoneNumber":"+ (705) 728-7392","address":"37 Mapleview Dr W","city":"Barrie","postalCode":"L4N 9H5"},{"name":"Sobeys Pharmacy","mngrFirstName":"Branka","mngrLastName":"Tadic","mngrGradYr":"1979","mngrId":"213865","phoneNumber":"+1 (519) 744-0839","address":"274 Highland Rd W","city":"Kitchener","postalCode":"N2J 2J4"},{"name":"Sobeys Pharmacy","mngrFirstName":"Qamar","mngrLastName":"Islam","mngrGradYr":"1964","mngrId":"76562","phoneNumber":"+ (613) 590-7144","address":"5150 Innes Rd","city":"Orleans","postalCode":"K4A 0G4"},{"name":"Sobeys Pharmacy","mngrFirstName":"Jeff","mngrLastName":"Butler","mngrGradYr":"1991","mngrId":"612711","phoneNumber":"+ (519) 380-0988","address":"215 Park Ave West","city":"Chatham","postalCode":"N7M 1W3"},{"name":"Sobeys Pharmacy","mngrFirstName":"Mohammad","mngrLastName":"Ghahremany","mngrGradYr":"1991","mngrId":"112372","phoneNumber":"+ (905) 775-0608","address":"40 Melbourne DrPO Box 1630","city":"Bradford","postalCode":"L3Z 2B1"},{"name":"Sobeys Pharmacy ","mngrFirstName":"Nineta","mngrLastName":"Anghelache","mngrGradYr":"1977","mngrId":"110809","phoneNumber":"+ (905) 508-4847","address":"11700 Yonge St","city":"Richmond Hill","postalCode":"L4E 3N6"},{"name":"Sobeys Pharmacy","mngrFirstName":"Karolina","mngrLastName":"Wegrzyn","mngrGradYr":"2005","mngrId":"604146","phoneNumber":"+ (519) 426-6773","address":"438 Norfolk St. S","city":"Simcoe","postalCode":"N3Y 2X3"},{"name":"Sobeys Pharmacy","mngrFirstName":"Serena","mngrLastName":"Smith","mngrGradYr":"2009","mngrId":"606448","phoneNumber":"+1 (705) 684-9405","address":"225 Edward St","city":"Gravenhurst","postalCode":"P1P 1K8"},{"name":"Sobeys Pharmacy","mngrFirstName":"Kumar","mngrLastName":"Sarhad","mngrGradYr":"1982","mngrId":"605800","phoneNumber":"+1 (905) 793-4146","address":"10970 Airport Rd","city":"Brampton","postalCode":"L6R 0E1"},{"name":"Sobeys Pharmacy","mngrFirstName":"Siraj","mngrLastName":"Desai","mngrGradYr":"1997","mngrId":"613009","phoneNumber":"+1 (905) 680-5136","address":"343 Glendale Ave","city":"St. Catharines","postalCode":"L2T 0A1"},{"name":"Sobeys Pharmacy","mngrFirstName":"Elham","mngrLastName":"Khalkhali","mngrGradYr":"1994","mngrId":"607778","phoneNumber":"+ (705) 431-1093","address":"2080 Jans Blvd","city":"Innisfil","postalCode":"L9S 2C3"},{"name":"Sobeys Pharmacy","mngrFirstName":"Marina","mngrLastName":"Plyas","mngrGradYr":"1999","mngrId":"212316","phoneNumber":"+1 (519) 743-8211","address":"235 Ira Needles Blvd","city":"Kitchener","postalCode":"N2N 0B2"},{"name":"Sobeys Pharmacy","mngrFirstName":"John","mngrLastName":"Youssef","mngrGradYr":"1999","mngrId":"610009","phoneNumber":"+1 (613) 599-3060","address":"840 March Rd","city":"Kanata","postalCode":"K2K 1X7"},{"name":"Sobeys Pharmacy","mngrFirstName":"Adly Nagy Assaad","mngrLastName":"Youssef","mngrGradYr":"1998","mngrId":"617542","phoneNumber":"+1 (613) 836-0312","address":"6315 Hazeldean Rd","city":"Stittsville","postalCode":"K2S 1B9"},{"name":"Sobeys Pharmacy","mngrFirstName":"Ish","mngrLastName":"Choudhury","mngrGradYr":"2011","mngrId":"609604","phoneNumber":"+1 (905) 332-1750","address":"1250 Brant St.","city":"Burlington","postalCode":"L7P 1X8"},{"name":"Sobeys Pharmacy","mngrFirstName":"John Maasarani","mngrLastName":"El Maasarani","mngrGradYr":"1996","mngrId":"215685","phoneNumber":"+1 (905) 726-3397","address":"15500 Bayview Ave","city":"Aurora","postalCode":"L4G 7J1"},{"name":"Sobeys Pharmacy #7222","mngrFirstName":"Heather","mngrLastName":"Langille","mngrGradYr":"2009","mngrId":"615734","phoneNumber":"+ (416) 259-5114","address":"125 The Queensway","city":"Etobicoke","postalCode":"M8Y 1H6"},{"name":"Sobeys Pharmacy LTC Belfield #7271","mngrFirstName":"Adrian","mngrLastName":"Leung","mngrGradYr":"2011","mngrId":"609757","phoneNumber":"+1 (416) 246-9048","address":"2-124 Belfield Rd","city":"Toronto","postalCode":"M9W 1G1"},{"name":"Sobeys Pharmacy Rosebury","mngrFirstName":"Diana","mngrLastName":"Baek","mngrGradYr":"2011","mngrId":"609509","phoneNumber":"+1 (416) 781-0606","address":"145 Marlee Ave","city":"Toronto","postalCode":"M6B 3H3"},{"name":"Sobeys Pharmacy Shellard Lane","mngrFirstName":"Arun","mngrLastName":"Mehta","mngrGradYr":"1994","mngrId":"611931","phoneNumber":"+ (519) 7588126","address":"310 Colborne St W","city":"Brantford","postalCode":"N3T 1M2"},{"name":"Solara Pharmacy","mngrFirstName":"Alex","mngrLastName":"Chan","mngrGradYr":"1987","mngrId":"93637","phoneNumber":"+1 (416) 259-2000","address":"3857 Lake Shore Blvd W","city":"Toronto","postalCode":"M8W 0A2"},{"name":"Target Pharmacy T-3511","mngrFirstName":"Krista","mngrLastName":"Leil","mngrGradYr":"2009","mngrId":"612877","phoneNumber":"+1 (613) 270-2001","address":"300 Eagleson Road","city":"Kanata","postalCode":"K2M 1C9"},{"name":"Target Pharmacy T-3511","mngrFirstName":"Krista","mngrLastName":"Leil","mngrGradYr":"2009","mngrId":"612877","phoneNumber":"+1 (613) 270-2001","address":"300 Eagleson Road","city":"Kanata","postalCode":"K2M 1C9"},{"name":"Target Pharmacy T-3572","mngrFirstName":"Shamim","mngrLastName":"Asif","mngrGradYr":"1988","mngrId":"214961","phoneNumber":"+1 (905) 875-5672","address":"55 Ontario St S","city":"Milton","postalCode":"L9T 2M3"},{"name":"Target Pharmacy T-3645","mngrFirstName":"Chirag","mngrLastName":"Gajjar","mngrGradYr":"1998","mngrId":"614784","phoneNumber":"+1 (905) 732-1130","address":"Seaway Mall800 Niagara Street North","city":"Welland","postalCode":"L3C 5Z4"},{"name":"Target Pharmacy T-7002","mngrFirstName":"Cathi","mngrLastName":"Li","mngrGradYr":"2013","mngrId":"613771","phoneNumber":"+1 (416) 761-5631","address":"201-1980 St Clair Ave W","city":"Toronto","postalCode":"M6N 0A3"},{"name":"Target Pharmacy T-7004","mngrFirstName":"Brian","mngrLastName":"Footitt","mngrGradYr":"1968","mngrId":"11312","phoneNumber":"+1 (705) 733-2090","address":"30 North Village Way","city":"Barrie","postalCode":"L4N 6P3"},{"name":"Tavistock IDA Pharmacy","mngrFirstName":"Marc","mngrLastName":"Michaud","mngrGradYr":"1977","mngrId":"64521","phoneNumber":"+1 (519) 655-2111","address":"17 Woodstock St S","city":"Tavistock","postalCode":"N0B 2R0"},{"name":"Tay Pharmacy","mngrFirstName":"Reza","mngrLastName":"Nowroozi Dayeni","mngrGradYr":"1991","mngrId":"614860","phoneNumber":"+1 (705) 506-0301","address":"152 William St","city":"Victoria Harbour","postalCode":"L0K 2A0"},{"name":"Taylor Creek Pharmacy","mngrFirstName":"Wafik","mngrLastName":"Nashed","mngrGradYr":"1998","mngrId":"214561","phoneNumber":"+1 (613) 686-1991","address":"570 Lacolle Way","city":"Orleans","postalCode":"K4A 0N9"},{"name":"Team Drugs","mngrFirstName":"Sara","mngrLastName":"Youanas","mngrGradYr":"2007","mngrId":"612988","phoneNumber":"+1 (905) 771-8786","address":"114-7330 Yonge St","city":"Thornhill","postalCode":"L4J 1V8"},{"name":"Tecumseh Pharmacy Plus","mngrFirstName":"Gus","mngrLastName":"Spanic","mngrGradYr":"1989","mngrId":"102385","phoneNumber":"+1 (519) 979-7587","address":"13390 Lanoue St","city":"Windsor","postalCode":"N8N 5E1"},{"name":"Tecumseh Pharmasave","mngrFirstName":"Sam","mngrLastName":"Chan","mngrGradYr":"\t\t\t\t","mngrId":"101648","phoneNumber":"+1 (519) 979-6222","address":"1-13126 Tecumseh Rd E","city":"Tecumseh","postalCode":"N8N 3T4"},{"name":"Temiskaming Hospital","mngrFirstName":"Nancy","mngrLastName":"Caldwell","mngrGradYr":"1984","mngrId":"83674","phoneNumber":"+1 (705) 647-8121","address":"Pharmacy Dept421 Shepherdson RdPo Box 4040","city":"New Liskeard","postalCode":"P0J 1P0"},{"name":"Tenth Eglinton Pharmacy","mngrFirstName":"Nabil","mngrLastName":"Georgy","mngrGradYr":"1988","mngrId":"211152","phoneNumber":"+ (905) 369-0410","address":"6-5030 Tenth Line","city":"Mississauga","postalCode":"L5M 7Z5"},{"name":"Terrace Hill Pharmacy","mngrFirstName":"Basim","mngrLastName":"Meleka","mngrGradYr":"1986","mngrId":"205512","phoneNumber":"+1 (519) 720-0877","address":"21-217 Terrace Hill St","city":"Brantford","postalCode":"N3R 1G8"},{"name":"Terry Fox Pharmacy","mngrFirstName":"Seham","mngrLastName":"Ibrahim","mngrGradYr":"1985","mngrId":"214329","phoneNumber":"+1 (905) 858-3020","address":"9-5380 Terry Fox Way","city":"Mississauga","postalCode":"L5V 0A5"},{"name":"Thamesford Pharmasave","mngrFirstName":"Candice","mngrLastName":"Yates","mngrGradYr":"1973","mngrId":"52566","phoneNumber":"+1 (519) 285-2425","address":"141 Dundas St","city":"Thamesford","postalCode":"N0M 2M0"},{"name":"Thamesville Pharmacy","mngrFirstName":"Aryo","mngrLastName":"Mehrabihaghi Hamedani","mngrGradYr":"1996","mngrId":"616896","phoneNumber":"+1 (519) 692-9929","address":"70 London Rd","city":"Thamesville","postalCode":"N0P 2K0"},{"name":"The Aim Clinic Pharmacy","mngrFirstName":"Maria","mngrLastName":"Musitano","mngrGradYr":"1990","mngrId":"108758","phoneNumber":"+1 (905) 523-9000","address":"1605 Main St West","city":"Hamilton","postalCode":"L8S 1E6"},{"name":"The Apothecary Shop","mngrFirstName":"Raymond","mngrLastName":"Chung","mngrGradYr":"1989","mngrId":"110914","phoneNumber":"+1 (416) 438-1010","address":"842 Markham Rd","city":"Scarborough","postalCode":"M1H 2Y2"},{"name":"The Apothecary Shop","mngrFirstName":"Richard","mngrLastName":"Graham","mngrGradYr":"1994","mngrId":"204960","phoneNumber":"+1 (705) 765-6866","address":"86 Joseph StPo Box 418","city":"Port Carling","postalCode":"P0B 1J0"},{"name":"The Boardwalk Pharmacy","mngrFirstName":"Andrew","mngrLastName":"Awadalla","mngrGradYr":"2003","mngrId":"219385","phoneNumber":"+1 (519) 578-3000","address":"430 The Boardwalk","city":"Waterloo","postalCode":"N2J 3Z4"},{"name":"The Brantford General Hospital","mngrFirstName":"Jennifer","mngrLastName":"D'Souza","mngrGradYr":"1996","mngrId":"200520","phoneNumber":"+1 (519) 752-7871","address":"Pharmacy Dept200 Terrace Hill St","city":"Brantford","postalCode":"N3R 1G9"},{"name":"The Chase Pharmacy","mngrFirstName":"Meng - Chih","mngrLastName":"Lin","mngrGradYr":"1978","mngrId":"203584","phoneNumber":"+1 (905) 828-8877","address":"1 & 2-1675 The Chase","city":"Mississauga","postalCode":"L5M 5Y7"},{"name":"The Chemist Pharmacy","mngrFirstName":"Willie","mngrLastName":"Woo","mngrGradYr":"1996","mngrId":"204732","phoneNumber":"+ (905) 472-2222","address":"27 Wootten Way N","city":"Markham","postalCode":"L3P 2Y2"},{"name":"The Collegeway Pharmacy","mngrFirstName":"Ed","mngrLastName":"Dous","mngrGradYr":"1989","mngrId":"209488","phoneNumber":"+1 (905) 607-7333","address":"2686 The Collegeway","city":"Mississauga","postalCode":"L5L 2M9"},{"name":"The Dispensary","mngrFirstName":"Josiah","mngrLastName":"Odumodu","mngrGradYr":"1967","mngrId":"28991","phoneNumber":"+1 (519) 539-7272","address":"Mckinney Medical Centre510 Ingersoll Ave","city":"Woodstock","postalCode":"N4S 4X9"},{"name":"The Dispensary","mngrFirstName":"Raouf","mngrLastName":"Basilious","mngrGradYr":"1997","mngrId":"616078","phoneNumber":"+1 (705) 646-7646","address":"232 Manitoba St","city":"Bracebridge","postalCode":"P1L 2E1"},{"name":"The Drive Pharmacy","mngrFirstName":"Justin","mngrLastName":"Garant","mngrGradYr":"2009","mngrId":"610593","phoneNumber":"+1 (519) 974-7700","address":"7875 Riverside Dr E","city":"Windsor","postalCode":"N8S 1E1"},{"name":"The Drugstore Pharmacy","mngrFirstName":"David","mngrLastName":"Yam","mngrGradYr":"2013","mngrId":"612396","phoneNumber":"+ (416) 752-0135","address":"1450 Lawrence Ave E","city":"Toronto","postalCode":"M4A 2S8"},{"name":"The Grand River Hospital","mngrFirstName":"","mngrLastName":"","mngrGradYr":"","mngrId":"110876","phoneNumber":"+1 (519) 749-4300","address":"Pharmacy DeptKitchener-Waterloo Hlth Cntr835 King St W","city":"Kitchener","postalCode":"N2G 1G3"},{"name":"The Greater Niagara General Hospital","mngrFirstName":"Jim","mngrLastName":"Friesen","mngrGradYr":"1992","mngrId":"112844","phoneNumber":"+1 (905) 358-0171","address":"Pharmacy Dept5546 Portage RdPo Box 1018","city":"Niagara Falls","postalCode":"L2E 6X2"},{"name":"The Greely Pharmacy","mngrFirstName":"Kashif","mngrLastName":"Islam","mngrGradYr":"2001","mngrId":"207988","phoneNumber":"+1 (613) 821-9292","address":"1-7163 Parkway Road","city":"Greely","postalCode":"K4P 1N3"},{"name":"The Hamilton Clinic","mngrFirstName":"Raafat","mngrLastName":"Sief","mngrGradYr":"1991","mngrId":"206296","phoneNumber":"+1 (905) 523-4567","address":"200 Main StLower Level","city":"Hamilton","postalCode":"L8N 1H3"},{"name":"The Hamilton Pharmacy","mngrFirstName":"Peter","mngrLastName":"Sadek","mngrGradYr":"2008","mngrId":"607932","phoneNumber":"+1 (289) 389-2224","address":"335 Queenston Rd","city":"Hamilton","postalCode":"L8K 1H7"},{"name":"The Healing Source Pharmacy","mngrFirstName":"Ivana","mngrLastName":"Vukcevic","mngrGradYr":"2000","mngrId":"605410","phoneNumber":"+1 (416) 769-1717","address":"2209 Bloor St W","city":"Toronto","postalCode":"M6S 1N5"},{"name":"The Hope Pharmacy","mngrFirstName":"Hanan","mngrLastName":"Kasim Mohammad","mngrGradYr":"1987","mngrId":"215325","phoneNumber":"+1 (289) 660-0536","address":"38 Church St S","city":"Ajax","postalCode":"L1S 6B3"},{"name":"The K-W Pharmacy","mngrFirstName":"Pradeep","mngrLastName":"Acharya","mngrGradYr":"1980","mngrId":"92444","phoneNumber":"+1 (519) 746-6133","address":"5a-65 University Ave E","city":"Waterloo","postalCode":"N2J 2V9"},{"name":"The Lady Minto Hospital","mngrFirstName":"Marc - Andr","mngrLastName":"Gravel","mngrGradYr":"2011","mngrId":"611036","phoneNumber":"+1 (705) 272-7288","address":"Pharmacy Dept241 - 8th StPo Box 4000","city":"Cochrane","postalCode":"P0L 1C0"},{"name":"The Medical Pharmacy","mngrFirstName":"Michael","mngrLastName":"Khozin","mngrGradYr":"1992","mngrId":"113727","phoneNumber":"+1 (416) 398-0188","address":"4430 Bathurst St","city":"Downsview","postalCode":"M3H 3S3"},{"name":"The Medicine Shoppe","mngrFirstName":"Chantal","mngrLastName":"Samaha","mngrGradYr":"1996","mngrId":"605070","phoneNumber":"+1 (613) 745-5905","address":"19-5303 Canotek Rd","city":"Gloucester","postalCode":"K1J 9M1"},{"name":"The Medicine Shoppe","mngrFirstName":"Ehab","mngrLastName":"Mekhail","mngrGradYr":"1985","mngrId":"205268","phoneNumber":"+1 (905) 884-2866","address":"Bayview Plaza7-10610 Bayview Ave","city":"Richmond Hill","postalCode":"L4C 3N8"},{"name":"The Medicine Shoppe","mngrFirstName":"Yun","mngrLastName":"Kim","mngrGradYr":"1996","mngrId":"606163","phoneNumber":"+1 (416) 221-9355","address":"5177 Yonge St","city":"Willowdale","postalCode":"M2N 5P5"},{"name":"The Medicine Shoppe","mngrFirstName":"Nader","mngrLastName":"Tadros","mngrGradYr":"1990","mngrId":"208856","phoneNumber":"+1 (905) 547-2111","address":"839 Main St E","city":"Hamilton","postalCode":"L8M 1L8"},{"name":"The Medicine Shoppe","mngrFirstName":"Jeffrey","mngrLastName":"Coolen","mngrGradYr":"1991","mngrId":"111198","phoneNumber":"+1 (905) 765-3332","address":"Caledonia Medical Centre14 Caithness St E","city":"Caledonia","postalCode":"N3W 1L4"},{"name":"The Medicine Shoppe","mngrFirstName":"Richard","mngrLastName":"Price","mngrGradYr":"1992","mngrId":"114898","phoneNumber":"+1 (905) 842-2770","address":"267 Lakeshore Rd E","city":"Oakville","postalCode":"L6J 1H9"},{"name":"The Medicine Shoppe","mngrFirstName":"Bankole","mngrLastName":"Kuye","mngrGradYr":"1980","mngrId":"212600","phoneNumber":"+1 (519) 448-1368","address":"75A Main St SPO BOX 99","city":"Saint-Georges","postalCode":"N0E 1N0"},{"name":"The Medicine Shoppe","mngrFirstName":"Allan","mngrLastName":"Rothman","mngrGradYr":"1969","mngrId":"35947","phoneNumber":"+1 (416) 538-7788","address":"515 St. Clair Ave W","city":"Toronto","postalCode":"M6C 1A1"},{"name":"The Medicine Shoppe","mngrFirstName":"Ashraf","mngrLastName":"Kamel","mngrGradYr":"1987","mngrId":"603376","phoneNumber":"+1 (905) 832-4544","address":"9983 Keele St","city":"Maple","postalCode":"L6A 1R6"},{"name":"The Medicine Shoppe","mngrFirstName":"Samir","mngrLastName":"Iskander","mngrGradYr":"1981","mngrId":"214757","phoneNumber":"+1 (905) 387-5100","address":"Canada Trust Plaza114-836 Upper James St","city":"Hamilton","postalCode":"L9C 3A4"},{"name":"The Medicine Shoppe","mngrFirstName":"Safwat","mngrLastName":"Khair","mngrGradYr":"1982","mngrId":"216621","phoneNumber":"+1 (416) 398-9898","address":"4256 Bathurst St","city":"Downsview","postalCode":"M3H 5Y8"},{"name":"The Medicine Shoppe","mngrFirstName":"Jon","mngrLastName":"MacDonald","mngrGradYr":"1978","mngrId":"67083","phoneNumber":"+1 (705) 253-0720","address":"316 Second Line W","city":"Sault Ste Marie","postalCode":"P6C 2J5"},{"name":"The Medicine Shoppe","mngrFirstName":"Deina","mngrLastName":"Bebawy","mngrGradYr":"2008","mngrId":"613610","phoneNumber":"+1 (705) 743-8443","address":"860 Chemong Rd","city":"Peterborough","postalCode":"K9H 5Z8"},{"name":"The Medicine Shoppe","mngrFirstName":"Laura","mngrLastName":"Furdas","mngrGradYr":"1984","mngrId":"83259","phoneNumber":"+1 (416) 282-2004","address":"164 Bennett Rd","city":"Scarborough","postalCode":"M1E 3Y3"},{"name":"The Medicine Shoppe","mngrFirstName":"John","mngrLastName":"Antony","mngrGradYr":"1969","mngrId":"49034","phoneNumber":"+1 (905) 721-1831","address":"10-1288 Ritson Rd N","city":"Oshawa","postalCode":"L1G 7Z9"},{"name":"The Medicine Shoppe","mngrFirstName":"Leisa","mngrLastName":"Barrett","mngrGradYr":"1991","mngrId":"208964","phoneNumber":"+1 (905) 377-0128","address":"6-1060 Burnham St","city":"Cobourg","postalCode":"K9A 5V9"},{"name":"The Medicine Shoppe","mngrFirstName":"Katia","mngrLastName":"Keleshian","mngrGradYr":"1990","mngrId":"203444","phoneNumber":"+1 (416) 492-9262","address":"3005 Sheppard Ave. E.","city":"Scarborough","postalCode":"M1T 3J5"},{"name":"The Medicine Shoppe","mngrFirstName":"Yasir","mngrLastName":"Abdalla","mngrGradYr":"1988","mngrId":"215233","phoneNumber":"+1 (905) 681-2290","address":"433 Guelph Line","city":"Burlington","postalCode":"L7R 3L7"},{"name":"The Medicine Shoppe","mngrFirstName":"Nabil","mngrLastName":"Aziz","mngrGradYr":"1998","mngrId":"611074","phoneNumber":"+1 (416) 651-6511","address":"2600 Eglinton Ave W","city":"Toronto","postalCode":"M6M 1T5"},{"name":"The Medicine Shoppe","mngrFirstName":"Peter","mngrLastName":"Wong","mngrGradYr":"1972","mngrId":"56529","phoneNumber":"+1 (416) 534-2321","address":"1168A Dundas Street W","city":"Toronto","postalCode":"M6J 1X4"},{"name":"The Medicine Shoppe Pharmacy","mngrFirstName":"Pruthwishkumar","mngrLastName":"Patel","mngrGradYr":"2000","mngrId":"219745","phoneNumber":"+1 (905) 721-8676","address":"3555 Thickson Rd N","city":"Whitby","postalCode":"L1R 2H1"},{"name":"The Medicine Shoppe Pharmacy","mngrFirstName":"Maha","mngrLastName":"Awad","mngrGradYr":"1982","mngrId":"209368","phoneNumber":"+1 (416) 516-6828","address":"1071 Bloor St W","city":"Toronto","postalCode":"M6H 1M5"},{"name":"The Medicine Shoppe Pharmacy","mngrFirstName":"Raymond","mngrLastName":"Chan","mngrGradYr":"1987","mngrId":"95362","phoneNumber":"+1 (416) 222-7701","address":"794 Sheppard Ave E","city":"North York","postalCode":"M2K 1C3"},{"name":"The Medicine Shoppe Pharmacy","mngrFirstName":"Winston","mngrLastName":"Clarke","mngrGradYr":"1998","mngrId":"206024","phoneNumber":"+1 (519) 337-1119","address":"429 Exmouth St","city":"Sarnia","postalCode":"N7T 5P1"},{"name":"The Medicine Shoppe Pharmacy","mngrFirstName":"Sanjay","mngrLastName":"Jariwala","mngrGradYr":"2001","mngrId":"212484","phoneNumber":"+1 (905) 662-5333","address":"826-840 Queenston Rd","city":"Stoney Creek","postalCode":"L8G 4A8"},{"name":"The Medicine Shoppe Pharmacy","mngrFirstName":"Mona","mngrLastName":"Mikhail","mngrGradYr":"1997","mngrId":"619118","phoneNumber":"+1 (613) 232-4337","address":"Kent Professional Building381 Kent St","city":"Ottawa","postalCode":"K2P 2A8"},{"name":"The Medicine Shoppe Pharmacy & Compounding Centre","mngrFirstName":"Shafina","mngrLastName":"Charania","mngrGradYr":"1998","mngrId":"210728","phoneNumber":"+1 (905) 620-0010","address":"670 Taunton Rd. EBuilding # B3","city":"Whitby","postalCode":"L1R 0K6"},{"name":"The Ottawa Hospital","mngrFirstName":"","mngrLastName":"","mngrGradYr":"","mngrId":"95621","phoneNumber":"+1 (613) 737-8345","address":"Pharmacy DeptGeneral Campus501 Smyth Rd","city":"Ottawa","postalCode":"K1H 8L6"},{"name":"The Ottawa Hospital","mngrFirstName":"Mario","mngrLastName":"Bedard","mngrGradYr":"1985","mngrId":"95621","phoneNumber":"+1 (613) 798-5555","address":"Pharmacy DeptCivic Campus1053 Carling Ave","city":"Ottawa","postalCode":"K1Y 4E9"},{"name":"The Ottawa Hospital","mngrFirstName":"Mario","mngrLastName":"Bedard","mngrGradYr":"1985","mngrId":"95621","phoneNumber":"+1 (613) 738-8210","address":"Pharmacy DeptRiverside Campus1967 Riverside Dr","city":"Ottawa","postalCode":"K1H 7W9"},{"name":"The Pharmacentre","mngrFirstName":"Neil","mngrLastName":"Jobanputra","mngrGradYr":"2010","mngrId":"614369","phoneNumber":"+1 (416) 323-6250","address":"77  Grenville St","city":"Toronto","postalCode":"M5S 1B3"},{"name":"The Pharmacy Network","mngrFirstName":"Sameet","mngrLastName":"Bawa","mngrGradYr":"2006","mngrId":"605630","phoneNumber":"+1 (416) 245-2273","address":"7 - 1575 Jane Street","city":"Toronto","postalCode":"M9N 2R3"},{"name":"The Pharmacy On King","mngrFirstName":"Matta","mngrLastName":"Abd Elnour","mngrGradYr":"1982","mngrId":"208876","phoneNumber":"+1 (519) 578-9991","address":"751 King St W","city":"Kitchener","postalCode":"N2G 1E5"},{"name":"The Pharmashoppe","mngrFirstName":"Shanthi","mngrLastName":"Sampath","mngrGradYr":"2000","mngrId":"208660","phoneNumber":"+1 (519) 342-3315","address":"25 Joseph St","city":"Kitchener","postalCode":"N2G 4X6"},{"name":"The Prescription Shop","mngrFirstName":"Brian","mngrLastName":"Stowe","mngrGradYr":"1982","mngrId":"77178","phoneNumber":"+1 (613) 526-3666","address":"Carleton Tech & Train Centre1125 Colonel By Dr","city":"Ottawa","postalCode":"K1S 5R1"},{"name":"The Prescription Shoppe","mngrFirstName":"Sherif","mngrLastName":"Hanna","mngrGradYr":"1992","mngrId":"213165","phoneNumber":"+1 (519) 623-3900","address":"2 George St N","city":"Cambridge","postalCode":"N1S 2M7"},{"name":"The Prescription Shoppe","mngrFirstName":"Sherif","mngrLastName":"Hanna","mngrGradYr":"1992","mngrId":"213165","phoneNumber":"+1 (519) 343-3912","address":"261 Main St WPO Box 728","city":"Palmerston","postalCode":"N0G 2P0"},{"name":"The Princess Margaret Hospital","mngrFirstName":"Emily","mngrLastName":"Musing","mngrGradYr":"1983","mngrId":"81124","phoneNumber":"+1 (416) 946-4501","address":"Pharmacy Dept610 University Ave","city":"Toronto","postalCode":"M5G 2M9"},{"name":"The Rehabilitation Centre","mngrFirstName":"Mario","mngrLastName":"Bedard","mngrGradYr":"1985","mngrId":"95621","phoneNumber":"+1 (613) 737-7350","address":"Pharmacy Dept505 Smyth Rd","city":"Ottawa","postalCode":"K1H 8M2"},{"name":"The Royal Ottawa Mental Health Centre","mngrFirstName":"Dina","mngrLastName":"Glaser","mngrGradYr":"1980","mngrId":"72389","phoneNumber":"+1 (613) 722-6521","address":"Pharmacy Dept1145 Carling Ave","city":"Ottawa","postalCode":"K1Z 7K4"},{"name":"The Scarborough General Hospital","mngrFirstName":"Hsiu","mngrLastName":"Hau","mngrGradYr":"1987","mngrId":"99333","phoneNumber":"+1 (416) 438-2911","address":"General DivisionPharmacy Dept3050 Lawrence Ave E","city":"Scarborough","postalCode":"M1P 2V5"},{"name":"The Stewart Pharmacy","mngrFirstName":"Carol","mngrLastName":"Allen","mngrGradYr":"1976","mngrId":"60712","phoneNumber":"+1 (519) 367-5521","address":"1024 Hwy 9PO Box 220","city":"Mildmay","postalCode":"N0G 2J0"},{"name":"The Tannery Pharmasave","mngrFirstName":"Ehab","mngrLastName":"Abdel Sayed","mngrGradYr":"1990","mngrId":"208828","phoneNumber":"+ (519) 744-1000","address":"121 Charles St W","city":"Kitchener","postalCode":"N2G 1H6"},{"name":"The Toronto General Hospital","mngrFirstName":"","mngrLastName":"","mngrGradYr":"","mngrId":"81124","phoneNumber":"+1 (416) 340-4800","address":"Pharmacy Dept200 Elizabeth St","city":"Toronto","postalCode":"M5G 2C4"},{"name":"The Toronto Western Hospital","mngrFirstName":"Jin","mngrLastName":"Huh","mngrGradYr":"1991","mngrId":"116025","phoneNumber":"+1 (416) 603-5800","address":"Pharmacy Dept399 Bathurst St","city":"Toronto","postalCode":"M5T 2S8"},{"name":"The Village Pharmacy","mngrFirstName":"Zahid","mngrLastName":"Somani","mngrGradYr":"1993","mngrId":"202748","phoneNumber":"+ (416) 967-9221","address":"473 Church St","city":"Toronto","postalCode":"M4Y 2C5"},{"name":"Theodore  Pharmacy","mngrFirstName":"Nashwa","mngrLastName":"Mikhail","mngrGradYr":"1992","mngrId":"617142","phoneNumber":"+1 (416) 701-1001","address":"1450 O'Connor Drive","city":"Toronto","postalCode":"M4B 2T8"},{"name":"Thistle Pharmacy","mngrFirstName":"Babatunde","mngrLastName":"Fashina","mngrGradYr":"1980","mngrId":"73679","phoneNumber":"+1 (905) 453-8148","address":"Rosedale Shopping Centre332 Main St N","city":"Brampton","postalCode":"L6V 1P8"},{"name":"Thomas Pharmacy","mngrFirstName":"Adel","mngrLastName":"Saad","mngrGradYr":"1980","mngrId":"214793","phoneNumber":"+1 (905) 819-9000","address":"2 - 5636 Glen Erin Dr","city":"Mississauga","postalCode":"L5M 6B1"},{"name":"Thompson Pharmacy","mngrFirstName":"Sean","mngrLastName":"Thompson","mngrGradYr":"1993","mngrId":"204056","phoneNumber":"+1 (705) 586-5858","address":"12 - 2120 Regent St.","city":"Sudbury","postalCode":"P3E 3Z9"},{"name":"Thomson Guardian Pharmacy","mngrFirstName":"Mark","mngrLastName":"Vickers","mngrGradYr":"1989","mngrId":"102075","phoneNumber":"+1 (519) 326-5778","address":"20 Talbot St E","city":"Leamington","postalCode":"N8H 1L2"},{"name":"Thornbury Pharmasave","mngrFirstName":"Shannon","mngrLastName":"Fry","mngrGradYr":"2005","mngrId":"217813","phoneNumber":"+1 (519) 599-2719","address":"45 Arthur St WPo Box 628","city":"Thornbury","postalCode":"N0H 2P0"},{"name":"Thorncliffe Pharmacy","mngrFirstName":"Selina","mngrLastName":"Chan-Ying","mngrGradYr":"1981","mngrId":"75140","phoneNumber":"+1 (416) 421-9359","address":"106-65 Overlea Blvd","city":"Toronto","postalCode":"M4H 1P1"},{"name":"Thorndale Pharmacy","mngrFirstName":"Wasim","mngrLastName":"Daoud","mngrGradYr":"1998","mngrId":"604661","phoneNumber":"+1 (519) 461-0431","address":"21831 Fairview RdRR 3","city":"Thorndale","postalCode":"N0M 2P0"},{"name":"Thornhill Woods Pharmacy","mngrFirstName":"Hany","mngrLastName":"Rizkalla","mngrGradYr":"1999","mngrId":"218717","phoneNumber":"+1 (905) 882-4567","address":"1101 Rutherford RdUnit 2","city":"Thornhill","postalCode":"L6A 1S2"},{"name":"Thornlea Pharmacy","mngrFirstName":"Ricardo","mngrLastName":"Silveira","mngrGradYr":"1976","mngrId":"204316","phoneNumber":"+1 (416)-425-5000","address":"62 Overlea BlvdUnit 4A","city":"Toronto","postalCode":"M4H 1C4"},{"name":"Thornton Pharmacy and Health Food Ltd.","mngrFirstName":"Annette","mngrLastName":"Jacildo","mngrGradYr":"1992","mngrId":"217657","phoneNumber":"+1 (705) 291-7979","address":"13-4171 Innisfill Beach Rd","city":"Thornton","postalCode":"L0L 2N0"},{"name":"Thunder Bay Regional Health Sciences Centre","mngrFirstName":"Deborah","mngrLastName":"Emery","mngrGradYr":"1984","mngrId":"82813","phoneNumber":"+ (807) 684-6325","address":"Inpatient Pharmacy Department980 Oliver Road","city":"Thunder Bay","postalCode":"P7B 6V4"},{"name":"Tilbury Pharmacy","mngrFirstName":"Josiah","mngrLastName":"Odumodu","mngrGradYr":"1967","mngrId":"28991","phoneNumber":"+1 (519) 682-0867","address":"8 Queen St NPo Box 40","city":"Tilbury","postalCode":"N0P 2L0"},{"name":"Tilley's Pharmasave","mngrFirstName":"Jeff","mngrLastName":"Bath","mngrGradYr":"1989","mngrId":"104469","phoneNumber":"+1 (807) 468-7913","address":"201 Main St S","city":"Kenora","postalCode":"P9N 1T3"},{"name":"Times Pharmacy","mngrFirstName":"Simon","mngrLastName":"Lau","mngrGradYr":"1993","mngrId":"208852","phoneNumber":"+1 (905) 889-6900","address":"83 - 550 Highway 7 East","city":"Richmond Hill","postalCode":"L4B 3Z4"},{"name":"Timmins Pharmacy","mngrFirstName":"Derek","mngrLastName":"Vogl","mngrGradYr":"1989","mngrId":"102318","phoneNumber":"+ (705) 267-6660","address":"57-1500 Riverside Dr","city":"Timmins","postalCode":"P4R 1A1"},{"name":"Tim's Pharmacy","mngrFirstName":"Tamer","mngrLastName":"Bibawi","mngrGradYr":"1998","mngrId":"215345","phoneNumber":"+1 (416) 221-3220","address":"80 Finch Ave West","city":"Toronto","postalCode":"M2N 2H4"},{"name":"TMC Pharmacy","mngrFirstName":"Jeffrey","mngrLastName":"Beqaj","mngrGradYr":"1983","mngrId":"103926","phoneNumber":"+1 (519) 979-1114","address":"13278 Tecumseh Road East","city":"Tecumseh","postalCode":"N8N 3T6"},{"name":"Tobia's Guardian Pharmacy","mngrFirstName":"Eric","mngrLastName":"Tobia","mngrGradYr":"2009","mngrId":"613167","phoneNumber":"+1 (613) 336-8111","address":"12357 Hwy 41","city":"Northbrook","postalCode":"K0H 2G0"},{"name":"Tomken Centre Pharmacy","mngrFirstName":"Fawzy","mngrLastName":"Ibrahim","mngrGradYr":"1981","mngrId":"207652","phoneNumber":"+1 (905) 270-0044","address":"925 Rathburn Road  E","city":"Mississauga","postalCode":"L4W 4C3"},{"name":"Tomken Medical Pharmacy","mngrFirstName":"Soheila","mngrLastName":"Rezaei","mngrGradYr":"2002","mngrId":"615821","phoneNumber":"+1 (905) 624-8222","address":"5153 Tomken Rd","city":"Mississauga","postalCode":"L4W 1P1"},{"name":"Tom's Pharmacy","mngrFirstName":"Tom","mngrLastName":"McAnulty","mngrGradYr":"1994","mngrId":"203604","phoneNumber":"+1 (905) 938-0001","address":"1 - 366 Bunting Rd","city":"St. Catharines","postalCode":"L2M 3Y6"},{"name":"Torbram Pharmacy","mngrFirstName":"Rita","mngrLastName":"Jurkuvenas","mngrGradYr":"1972","mngrId":"52086","phoneNumber":"+1 (905) 799-8888","address":"1090 Peter Robertson Blvd","city":"Brampton","postalCode":"L6R 3B3"},{"name":"Toronto East General Hospital","mngrFirstName":"Carmine","mngrLastName":"Stumpo","mngrGradYr":"1994","mngrId":"201736","phoneNumber":"+1 (416) 469-6580","address":"Pharmacy Dept825 Coxwell Ave","city":"Toronto","postalCode":"M4C 3E7"},{"name":"Toronto East General Hospital","mngrFirstName":"Carmine","mngrLastName":"Stumpo","mngrGradYr":"1994","mngrId":"201736","phoneNumber":"+1 (416) 469-6580","address":"Pharmacy Dept825 Coxwell Ave","city":"Toronto","postalCode":"M4C 3E7"},{"name":"Toronto General Hospital Outpatient Pharmacy","mngrFirstName":"Karen","mngrLastName":"Chuk","mngrGradYr":"1999","mngrId":"207196","phoneNumber":"+1 (416) 340-4075","address":"Norman Urquart Wing ( NCSB Building)University Health Network1Fl-585 University Ave","city":"Toronto","postalCode":"M5G 2N2"},{"name":"Toronto Manning Drug Mart","mngrFirstName":"William","mngrLastName":"Wong","mngrGradYr":"1986","mngrId":"90662","phoneNumber":"+1 (416) 348-8895","address":"260 Spadina Ave","city":"Toronto","postalCode":"M5T 2E4"},{"name":"Toronto Rehab. Institute","mngrFirstName":"Jin","mngrLastName":"Huh","mngrGradYr":"1991","mngrId":"116025","phoneNumber":"+1 (416) 597-3422","address":"Pharmacy DeptThe Lyndhurst Centre520 Sutherland Dr","city":"Toronto","postalCode":"M4G 3V9"},{"name":"Toronto Rehab. Institute","mngrFirstName":"Jin","mngrLastName":"Huh","mngrGradYr":"1991","mngrId":"116025","phoneNumber":"+1 (416) 597-3422","address":"Pharmacy DeptThe University Centre550 University Ave","city":"Toronto","postalCode":"M5G 2A2"},{"name":"Toronto Rehab. Institute","mngrFirstName":"Jin","mngrLastName":"Huh","mngrGradYr":"1991","mngrId":"116025","phoneNumber":"+1 (416) 597-3422","address":"Pharmacy DeptThe Queen Elizabeth Centre130 Dunn Ave","city":"Toronto","postalCode":"M6K 2R7"},{"name":"Torrance Compounding Pharmacy","mngrFirstName":"Sandra","mngrLastName":"Chee-Kwan","mngrGradYr":"1987","mngrId":"93572","phoneNumber":"+1 (416) 289-6680","address":"2650 Lawrence Ave East Unit 3","city":"Scarborough","postalCode":"M1P 2S1"},{"name":"Torrance Compounding Pharmacy","mngrFirstName":"Sandra","mngrLastName":"Chee-Kwan","mngrGradYr":"1987","mngrId":"93572","phoneNumber":"+1 (905) 477-9009","address":"Ste D - 8228 Birchmount Rd","city":"Markham","postalCode":"L3R 1A6"},{"name":"Total Care Drug Mart","mngrFirstName":"Gaurang","mngrLastName":"Shah","mngrGradYr":"1977","mngrId":"100293","phoneNumber":"+ (416) 291-7600","address":"A-11 3300 McNicoll Ave","city":"Scarborough","postalCode":"M1V 5J6"},{"name":"Total Health Pharmacy","mngrFirstName":"Sylvia","mngrLastName":"Mekhail","mngrGradYr":"2001","mngrId":"604292","phoneNumber":"+1 (905) 884-4444","address":"610 Major Mackenzie Dr E","city":"Richmond Hill","postalCode":"L4C 1J9"},{"name":"Total Health Pharmacy","mngrFirstName":"Emad","mngrLastName":"Boles","mngrGradYr":"1995","mngrId":"603479","phoneNumber":"+1 (905) 525-5424","address":"1461 Main St W","city":"Hamilton","postalCode":"L8S 1C9"},{"name":"Total Health Pharmacy","mngrFirstName":"Engy","mngrLastName":"Tadros","mngrGradYr":"2002","mngrId":"605363","phoneNumber":"+1 (416) 485-6515","address":"1849 Yonge St","city":"Toronto","postalCode":"M4S 1Y2"},{"name":"Total Health Pharmacy","mngrFirstName":"Louis","mngrLastName":"Hanna","mngrGradYr":"1987","mngrId":"605745","phoneNumber":"+1 (416) 593-9711","address":"449 Queen St W","city":"Toronto","postalCode":"M5V 2A9"},{"name":"Total Health Pharmacy","mngrFirstName":"Fawzy","mngrLastName":"El Deiry","mngrGradYr":"1990","mngrId":"214945","phoneNumber":"+1 (416) 767-3393","address":"98 Guestville Ave","city":"Toronto","postalCode":"M6N 4N6"},{"name":"Total Health Pharmacy","mngrFirstName":"Sherry","mngrLastName":"Kamel","mngrGradYr":"1994","mngrId":"607315","phoneNumber":"+1 (416) 746-2044","address":"2115 Finch Ave WSuite 217","city":"Downsview","postalCode":"M3N 2V6"},{"name":"Total Health Pharmacy","mngrFirstName":"Pamela","mngrLastName":"Martinez","mngrGradYr":"2012","mngrId":"612435","phoneNumber":"+1 (905) 898-5210","address":"679 Davis Dr","city":"Newmarket","postalCode":"L3Y 5G8"},{"name":"Total Health Pharmacy","mngrFirstName":"Christine","mngrLastName":"Kamel","mngrGradYr":"2001","mngrId":"209856","phoneNumber":"+1 (905) 825-2560","address":"1131 Nottinghill Gate","city":"Oakville","postalCode":"L6M 1K5"},{"name":"Total Health Pharmacy","mngrFirstName":"Nabil","mngrLastName":"Gobran","mngrGradYr":"1991","mngrId":"604487","phoneNumber":"+1 (905) 857-4332","address":"12295 Hwy 50","city":"Bolton","postalCode":"L7E 1M2"},{"name":"Total Health Pharmacy","mngrFirstName":"Janet","mngrLastName":"Staddon","mngrGradYr":"1981","mngrId":"74861","phoneNumber":"+1 (905) 898-4700","address":"8-17725 Yonge St","city":"Newmarket","postalCode":"L3Y 7C1"},{"name":"Total Health Pharmacy","mngrFirstName":"Samer","mngrLastName":"Mikhail","mngrGradYr":"1997","mngrId":"218381","phoneNumber":"+1 (519) 747-0320","address":"373 Bridge St West","city":"Waterloo","postalCode":"N2K 3K3"},{"name":"Total Health Pharmacy","mngrFirstName":"Magdy","mngrLastName":"Hanna","mngrGradYr":"1994","mngrId":"612651","phoneNumber":"+1 (905) 737-0480","address":"250 Harding Blvd W","city":"Richmond Hill","postalCode":"L4C 9M7"},{"name":"Total Health Pharmacy","mngrFirstName":"Sarah","mngrLastName":"Awadalla","mngrGradYr":"2006","mngrId":"605821","phoneNumber":"+1 (416) 739-7800","address":"2100 Finch Ave W","city":"Downsview","postalCode":"M3N 2Z9"},{"name":"Total Health Pharmacy","mngrFirstName":"Suzan","mngrLastName":"El-Dabh","mngrGradYr":"1989","mngrId":"209012","phoneNumber":"+1 (416) 242-6377","address":"Unit 7-1635 Lawrence Ave W","city":"North York","postalCode":"M6L 3C9"},{"name":"Total Health Pharmacy","mngrFirstName":"Nadeem","mngrLastName":"Ahmed","mngrGradYr":"1984","mngrId":"84441","phoneNumber":"+1 (905) 671-3784","address":"7330 Goreway Dr","city":"Mississauga","postalCode":"L4T 4J2"},{"name":"Total Health Pharmacy","mngrFirstName":"Raief","mngrLastName":"Killeny","mngrGradYr":"1996","mngrId":"613693","phoneNumber":"+1 (905) 637-3377","address":"3155 Harvester Rd","city":"Burlington","postalCode":"L7N 3V2"},{"name":"Total Health Pharmacy","mngrFirstName":"Bassant","mngrLastName":"Mansour","mngrGradYr":"1994","mngrId":"606038","phoneNumber":"+1 (905) 845-2733","address":"465 Morden Rd","city":"Oakville","postalCode":"L6K 3W6"},{"name":"Total Health Pharmacy","mngrFirstName":"Vivian","mngrLastName":"Salib","mngrGradYr":"1996","mngrId":"214289","phoneNumber":"+1 (905) 878-2000","address":"497 Laurier Ave","city":"Milton","postalCode":"L9T 3K8"},{"name":"Total Health Pharmacy","mngrFirstName":"Mariam","mngrLastName":"Ghattas","mngrGradYr":"1996","mngrId":"219753","phoneNumber":"+1 (905) 820-2002","address":"3-3405 South Millway","city":"Mississauga","postalCode":"L5L 3R1"},{"name":"Total Health Pharmacy","mngrFirstName":"Dipika","mngrLastName":"Patel","mngrGradYr":"1975","mngrId":"80748","phoneNumber":"+ (416) 674-0300","address":"25 Woodbine Downs Blvd","city":"Etobicoke","postalCode":"M9W 6N5"},{"name":"Total Health Pharmacy","mngrFirstName":"Leonora","mngrLastName":"Cabading","mngrGradYr":"1981","mngrId":"108669","phoneNumber":"+ (905) 848-9955","address":"308-3024 Hurontario St","city":"Mississauga","postalCode":"L5B 4M4"},{"name":"Total Health Pharmacy","mngrFirstName":"Malak","mngrLastName":"Meleka","mngrGradYr":"1992","mngrId":"614232","phoneNumber":"+1 (416) 539-9555","address":"1173 Queen St W","city":"Toronto","postalCode":"M6J 1J4"},{"name":"Total Health Pharmacy","mngrFirstName":"Mike","mngrLastName":"Awad","mngrGradYr":"1992","mngrId":"202900","phoneNumber":"+1 (905) 951-1020","address":"113-170 McEwan Dr","city":"Bolton","postalCode":"L7E 4C8"},{"name":"Total Health Pharmacy","mngrFirstName":"Sahar","mngrLastName":"El Narekh","mngrGradYr":"1993","mngrId":"214337","phoneNumber":"+1 (905) 279-5151","address":"160 Dundas St E","city":"Mississauga","postalCode":"L5A 1W4"},{"name":"Total Health Pharmacy","mngrFirstName":"Mary","mngrLastName":"Roufail","mngrGradYr":"1997","mngrId":"603480","phoneNumber":"+1 (905) 526-1000","address":"135A-1685 Main St W","city":"Hamilton","postalCode":"L8S 1G5"},{"name":"Total Health Pharmacy","mngrFirstName":"Essam","mngrLastName":"Saleh","mngrGradYr":"1984","mngrId":"101095","phoneNumber":"+1 (416) 439-4900","address":"2060 Ellesmere Rd","city":"Scarborough","postalCode":"M1H 3B7"},{"name":"Total Health Pharmacy","mngrFirstName":"Bassant","mngrLastName":"Mansour","mngrGradYr":"1994","mngrId":"606038","phoneNumber":"+1 (905) 257-0606","address":"231 Oak Park Blvd","city":"Oakville","postalCode":"L6H 7S8"},{"name":"Total Health Pharmacy #122","mngrFirstName":"Essam","mngrLastName":"Danial","mngrGradYr":"1988","mngrId":"214737","phoneNumber":"+ (905) 433-2111","address":"17T-1615 Dundas St E","city":"Whitby","postalCode":"L1N 2L1"},{"name":"Total Health Pharmacy #123","mngrFirstName":"Nesreen","mngrLastName":"Fikry","mngrGradYr":"1994","mngrId":"610071","phoneNumber":"+1 (905) 876-4440","address":"470 Bronte St. S.","city":"Milton","postalCode":"L9T 2J4"},{"name":"Total-Care Pharmacy","mngrFirstName":"May","mngrLastName":"Shenouda","mngrGradYr":"1986","mngrId":"219721","phoneNumber":"+1 (416) 265-0127","address":"3155 Eglinton Ave E","city":"Scarborough","postalCode":"M1J 2G2"},{"name":"Totten Pharmacy","mngrFirstName":"Adewale","mngrLastName":"Aderinto","mngrGradYr":"1989","mngrId":"606964","phoneNumber":"+ (519) 254-6000","address":"2780 Totten Street","city":"Windsor","postalCode":"N9B 0A9"},{"name":"Tottenham Medical Pharmacy","mngrFirstName":"Mary","mngrLastName":"Iskandar","mngrGradYr":"2005","mngrId":"610248","phoneNumber":"+1 (905) 936-3771","address":"119 Queen St NPo Box 880","city":"Tottenham","postalCode":"L0G 1W0"},{"name":"Tottenham Medical Pharmacy","mngrFirstName":"Mary","mngrLastName":"Iskandar","mngrGradYr":"2005","mngrId":"610248","phoneNumber":"+1 (905) 936-3771","address":"119 Queen St NPo Box 880","city":"Tottenham","postalCode":"L0G 1W0"},{"name":"Tower Hill Pharmacy","mngrFirstName":"Sherif","mngrLastName":"Hassan","mngrGradYr":"2002","mngrId":"620477","phoneNumber":"+1 (905) 737-8333","address":"Unit 16-380 Tower Hill Rd","city":"Richmond Hill","postalCode":"L4E 0T8"},{"name":"Town Centre Pharmacy","mngrFirstName":"Ramsis","mngrLastName":"Tadrus","mngrGradYr":"1981","mngrId":"204584","phoneNumber":"+1 (289) 286-0486","address":"2668 Binbrook Rd.","city":"Hamilton","postalCode":"L0R 1C0"},{"name":"Town Square Pharmacy","mngrFirstName":"Abhay","mngrLastName":"Patel","mngrGradYr":"2011","mngrId":"617667","phoneNumber":"+1 (519) 662-9995","address":"Unit K-100 Mill St","city":"New Hamburg","postalCode":"N3A 1R1"},{"name":"Trainyards Pharmacy","mngrFirstName":"Krystle","mngrLastName":"Mascarenas","mngrGradYr":"2005","mngrId":"609559","phoneNumber":"+1 (613) 789-3420","address":"550 Terminal AveUnit B22, Trainyards","city":"Ottawa","postalCode":"K1G 0Z3"},{"name":"Transplant Outpatient Pharmacy","mngrFirstName":"Shabdis","mngrLastName":"Djazayeri","mngrGradYr":"2012","mngrId":"617328","phoneNumber":"+1 (416) 340-4415","address":"Toronto General Hospital585 University AveClinical Services Building, 12th floor, Room 1202","city":"Toronto","postalCode":"M5G 2N2"},{"name":"TRC Pharmacy Kitchener","mngrFirstName":"Ehab","mngrLastName":"Saad","mngrGradYr":"2010","mngrId":"617629","phoneNumber":"+1 (519) 579-9647","address":"1145 King Street East","city":"Kitchener","postalCode":"N2G 2N3"},{"name":"Trelawny Pharmacy","mngrFirstName":"Lina","mngrLastName":"Thakrar","mngrGradYr":"1988","mngrId":"104426","phoneNumber":"+ (905) 785-8900","address":"3899 Trelawny Circle, #9","city":"Mississauga","postalCode":"L5N 6S3"},{"name":"Tremont Medical Pharmacy","mngrFirstName":"Mag","mngrLastName":"Riad-Mikhail","mngrGradYr":"1994","mngrId":"212532","phoneNumber":"+ (905) 682-6200","address":"2A-2F Tremont Dr","city":"St. Catharines","postalCode":"L2T 3B2"},{"name":"Trent Hills Pharmacy","mngrFirstName":"Mohamed","mngrLastName":"Mostafa","mngrGradYr":"2003","mngrId":"614981","phoneNumber":"+1 (705) 653-0404","address":"2 - 119 Isabella St","city":"Campbellford","postalCode":"K0L 1L0"},{"name":"Trenton Pharmacy","mngrFirstName":"William","mngrLastName":"Chuen","mngrGradYr":"1977","mngrId":"104329","phoneNumber":"+1 (613) 392-3838","address":"64 Ontario St","city":"Trenton","postalCode":"K8V 6H9"},{"name":"Trillium Pharmacy","mngrFirstName":"Paul","mngrLastName":"Yu","mngrGradYr":"1978","mngrId":"66311","phoneNumber":"+1 (416) 492-3704","address":"3443 Finch Ave E","city":"Scarborough","postalCode":"M1W 2S1"},{"name":"Trinity Drug Mart","mngrFirstName":"Christine","mngrLastName":"Ho","mngrGradYr":"1971","mngrId":"47031","phoneNumber":"+1 (416) 297-6008","address":"22-25 Glen Watford Dr","city":"Scarborough","postalCode":"M1S 2B7"},{"name":"Trinity Drug Store","mngrFirstName":"Amir","mngrLastName":"Ramzy","mngrGradYr":"2003","mngrId":"614023","phoneNumber":"+1 (416) 603-1771","address":"750 Dundas St W","city":"Toronto","postalCode":"M6J 3S3"},{"name":"Trust Care LTC Services","mngrFirstName":"Cherry","mngrLastName":"Caluya","mngrGradYr":"1998","mngrId":"607031","phoneNumber":"+1 (416) 679-9099","address":"Unit 2 - 25 Signal Hill Avenue","city":"Etobicoke","postalCode":"M9W 6V8"},{"name":"Trust Care Pharmasave","mngrFirstName":"Jimrod","mngrLastName":"Suello","mngrGradYr":"2002","mngrId":"220013","phoneNumber":"+1 (613) 749-8577","address":"Unit 4 - 1020 St. Laurent Blvd.","city":"Ottawa","postalCode":"K1K 4S2"},{"name":"Trutina Pharmacy Inc.","mngrFirstName":"Nicola","mngrLastName":"Luciani","mngrGradYr":"1994","mngrId":"201220","phoneNumber":"+ (905) 304-9300","address":"201 Wilson St E","city":"Ancaster","postalCode":"L9G 2B8"},{"name":"Turbitt Pharmacy Limited Pharmasave","mngrFirstName":"Zakhary","mngrLastName":"Henein","mngrGradYr":"1990","mngrId":"616085","phoneNumber":"+1 (519) 376-0120","address":"17B - 104 Grey Rd","city":"Township of Georgian Bluffs","postalCode":"N4K 5R7"},{"name":"Turner Drug Store Ltd","mngrFirstName":"Jeffrey","mngrLastName":"Robb","mngrGradYr":"1983","mngrId":"81701","phoneNumber":"+1 (519) 672-3340","address":"52 Grand Ave","city":"London","postalCode":"N6C 1L5"},{"name":"Tuscany Guardian Pharmacy","mngrFirstName":"Samar","mngrLastName":"Boctor","mngrGradYr":"1994","mngrId":"612539","phoneNumber":"+ (905) 760-1044","address":"16-9100 Jane St","city":"Vaughan","postalCode":"L4K 0A4"},{"name":"Tuxedo Drug Mart","mngrFirstName":"Magdy","mngrLastName":"Hanna","mngrGradYr":"1977","mngrId":"211936","phoneNumber":"+1 (416) 431-3456","address":"42 Tuxedo Court","city":"Scarborough","postalCode":"M1G 3S3"},{"name":"Twain Pharmacy","mngrFirstName":"Emad","mngrLastName":"Youssef","mngrGradYr":"1981","mngrId":"104310","phoneNumber":"+1 (905) 696-0888","address":"735 Twain Ave","city":"Mississauga","postalCode":"L5W 1X1"},{"name":"U & C Pharmacy","mngrFirstName":"Norman","mngrLastName":"Sue","mngrGradYr":"1995","mngrId":"201740","phoneNumber":"+ (416) 850-9989","address":"700 University AveUnit HSC 112","city":"Toronto","postalCode":"M5G 1Z5"},{"name":"Ultra Med Pharmacy Ltd.","mngrFirstName":"Kris","mngrLastName":"Shah","mngrGradYr":"1977","mngrId":"80608","phoneNumber":"+ (905) 488-0083","address":"4-31 Steeplebush Ave","city":"Brampton","postalCode":"L6R 3B4"},{"name":"Ultra Pharmacy","mngrFirstName":"Hiriti","mngrLastName":"Tesfagiorgis","mngrGradYr":"1983","mngrId":"105384","phoneNumber":"+ (416) 323-0055","address":"411 Parliament St","city":"Toronto","postalCode":"M5A 3A1"},{"name":"Ultra-Bloor Pharmacy","mngrFirstName":"Sydney","mngrLastName":"Charendoff","mngrGradYr":"1960","mngrId":"70521","phoneNumber":"+1 (416) 792-3021","address":"1254 Bloor St W","city":"Toronto","postalCode":"M6H 1N5"},{"name":"Unicare B Pharmacy","mngrFirstName":"Babak","mngrLastName":"Zandi","mngrGradYr":"1998","mngrId":"614877","phoneNumber":"+1 (416) 901-7002","address":"1880 O'Connor Dr","city":"Toronto","postalCode":"M4A 1X1"},{"name":"Unicare Pharmacy","mngrFirstName":"Sailesh","mngrLastName":"Patel","mngrGradYr":"1984","mngrId":"82562","phoneNumber":"+1 (416) 503-0013","address":"3170 Lake Shore Blvd W","city":"Etobicoke","postalCode":"M8V 3X8"},{"name":"Unicare Pharmacy","mngrFirstName":"Jai","mngrLastName":"Patel","mngrGradYr":"2000","mngrId":"216085","phoneNumber":"+ (905) 361-1335","address":"325 Central Parkway WUnit #35","city":"Mississauga","postalCode":"L5B 3X9"},{"name":"Unidrugs","mngrFirstName":"Chad","mngrLastName":"Karroum","mngrGradYr":"1998","mngrId":"212969","phoneNumber":"+1 (647) 660-2290","address":"1300 Bay St","city":"Toronto","postalCode":"M5R 3K8"},{"name":"Unionville Guardian Pharmacy","mngrFirstName":"Li Ping","mngrLastName":"Zhang","mngrGradYr":"1995","mngrId":"613277","phoneNumber":"+1 (905) 944-9191","address":"101 - 9249 Kennedy Rd","city":"Unionville","postalCode":"L3R 6H9"},{"name":"Unionville Guardian Pharmacy","mngrFirstName":"Li Ping","mngrLastName":"Zhang","mngrGradYr":"1995","mngrId":"613277","phoneNumber":"+1 (905) 944-9191","address":"101 - 9249 Kennedy Rd","city":"Unionville","postalCode":"L3R 6H9"},{"name":"Unionville Pharmacy","mngrFirstName":"Cheong","mngrLastName":"Chan","mngrGradYr":"1985","mngrId":"87866","phoneNumber":"+1 (905) 604-7730","address":"111 - 548 Carlton Road","city":"Markham","postalCode":"L3R 0C6"},{"name":"United Drug Mart","mngrFirstName":"Rifaat","mngrLastName":"Fares","mngrGradYr":"1976","mngrId":"99368","phoneNumber":"+1 (416) 533-8511","address":"154 Ossington Ave","city":"Toronto","postalCode":"M6J 2Z5"},{"name":"Universal Pharmacy","mngrFirstName":"Stephen","mngrLastName":"Hwang","mngrGradYr":"1970","mngrId":"70068","phoneNumber":"+1 (416) 533-6656","address":"819 Lansdowne Ave","city":"Toronto","postalCode":"M6H 3Z2"},{"name":"University Centre Pharmacy","mngrFirstName":"Geoffrey","mngrLastName":"Newton","mngrGradYr":"1978","mngrId":"92452","phoneNumber":"+1 (905) 540-3787","address":"Mcmaster University109b-1280 Main St W","city":"Hamilton","postalCode":"L8S 4K1"},{"name":"University Heatlh Centre Pharmacy","mngrFirstName":"Arifhusein","mngrLastName":"Panju","mngrGradYr":"1992","mngrId":"113050","phoneNumber":"+1 (416) 514-1090","address":"59-4801 Keele St","city":"North York","postalCode":"M3J 3A4"},{"name":"University Pharmacy","mngrFirstName":"Jack","mngrLastName":"Siembab","mngrGradYr":"1987","mngrId":"203956","phoneNumber":"+1 (519) 885-2530","address":"240 King St. N.","city":"Waterloo","postalCode":"N2J 2Y7"},{"name":"University Pharmacy","mngrFirstName":"Sobia","mngrLastName":"Karbhari","mngrGradYr":"2007","mngrId":"620089","phoneNumber":"+ (519) 720-9910","address":"160 Colborne St","city":"Brantford","postalCode":"N3T 2G6"},{"name":"University Square Pharmacy","mngrFirstName":"Kenneth","mngrLastName":"Chan","mngrGradYr":"1988","mngrId":"97098","phoneNumber":"+1 (519) 763-3301","address":"8-987 Gordon St","city":"Guelph","postalCode":"N1G 4W3"},{"name":"Upper Canada Remedy's Rx 189","mngrFirstName":"Vicente","mngrLastName":"Dorotan","mngrGradYr":"2006","mngrId":"609576","phoneNumber":"+1 (613) 543-3535","address":"139 Main StPo Box 899","city":"Morrisburg","postalCode":"K0C 1X0"},{"name":"Upper Gage Pharmacy","mngrFirstName":"Sam","mngrLastName":"Agaybey","mngrGradYr":"1988","mngrId":"208784","phoneNumber":"+1 (905) 574-5000","address":"6-558 Upper Gage Ave","city":"Hamilton","postalCode":"L8V 4J6"},{"name":"Upper James Clinic Pharmacy","mngrFirstName":"Tamer","mngrLastName":"Aziz","mngrGradYr":"1988","mngrId":"609651","phoneNumber":"+1 (905) 383-8020","address":"609 Upper James St","city":"Hamilton","postalCode":"L9C 2Y9"},{"name":"Upper Ottawa Pharmacy","mngrFirstName":"Michael","mngrLastName":"Hanna","mngrGradYr":"2009","mngrId":"615647","phoneNumber":"+1 (905) 645-0500","address":"2-1447 Upper Ottawa St","city":"Hamilton","postalCode":"L8W 3J6"},{"name":"Upper Village Pharmacy","mngrFirstName":"Evelyn","mngrLastName":"Lau","mngrGradYr":"2012","mngrId":"612344","phoneNumber":"+1 (416) 901-9801","address":"801 Eglinton Ave West","city":"Toronto","postalCode":"M5N 1E1"},{"name":"Uptown Apothecary","mngrFirstName":"Shani-Abbas","mngrLastName":"Siwani","mngrGradYr":"2009","mngrId":"614754","phoneNumber":"+1 (905) 780-6161","address":"9325 Yonge St","city":"Richmond Hill","postalCode":"L4C 0A8"},{"name":"Uptown Apothecary","mngrFirstName":"Shani-Abbas","mngrLastName":"Siwani","mngrGradYr":"2009","mngrId":"614754","phoneNumber":"+1 (905) 780-6161","address":"9325 Yonge St","city":"Richmond Hill","postalCode":"L4C 0A8"},{"name":"Uptown Pharmacy","mngrFirstName":"Marina","mngrLastName":"Nassar","mngrGradYr":"2005","mngrId":"614919","phoneNumber":"+ (416) 485-5005","address":"243 Eglinton Ave W","city":"Toronto","postalCode":"M4R 1B1"},{"name":"Urban Pharmacy Inc","mngrFirstName":"James","mngrLastName":"Seto","mngrGradYr":"1985","mngrId":"86037","phoneNumber":"+1 (905) 897-2210","address":"Rathburn Square900 Rathburn Rd W","city":"Mississauga","postalCode":"L5C 4L3"},{"name":"Urgent Care Pharmacy","mngrFirstName":"Olivia","mngrLastName":"Nashed","mngrGradYr":"1977","mngrId":"608739","phoneNumber":"+1 (519) 853-3712","address":"10 Eastern Ave","city":"Acton","postalCode":"L7J 0A5"},{"name":"Val Est Pharmacy","mngrFirstName":"Robert","mngrLastName":"Bignucolo","mngrGradYr":"2001","mngrId":"214205","phoneNumber":"+1 (705) 897-1867","address":"17-3140 Highway 69 N","city":"Val Caron","postalCode":"P3N 1G3"},{"name":"Valley Creek Pharmacy","mngrFirstName":"Brandon","mngrLastName":"Ragavaloo","mngrGradYr":"1993","mngrId":"606403","phoneNumber":"+1 (905) 794-1001","address":"1975 Cottrelle Boulevard","city":"Brampton","postalCode":"L6P 2Z8"},{"name":"Valley Plaza Pharmacy Pharmasave","mngrFirstName":"Robert","mngrLastName":"Aubin","mngrGradYr":"1982","mngrId":"79146","phoneNumber":"+1 (705) 969-4409","address":"Hanmer Valley Shopping Centre5085 Hwy 69 NPo Box 3040","city":"Hanmer","postalCode":"P3P 1J6"},{"name":"Valley Prescription Centre","mngrFirstName":"Sean","mngrLastName":"Lahti","mngrGradYr":"1991","mngrId":"109061","phoneNumber":"+1 (705) 897-1127","address":"2-2956 Hwy 69 N","city":"Val Caron","postalCode":"P3N 1E3"},{"name":"Valley Way Pharmacy","mngrFirstName":"Ihab","mngrLastName":"Rezkalla","mngrGradYr":"1990","mngrId":"206288","phoneNumber":"+1 (905) 354-1979","address":"103-6150 Valley Way","city":"Niagara Falls","postalCode":"L2E 1Y3"},{"name":"Value Plus Pharmacy","mngrFirstName":"Anoja","mngrLastName":"Devaranjan","mngrGradYr":"1996","mngrId":"205912","phoneNumber":"+ (416) 754-4442","address":"211/212-5215 Finch Ave E","city":"Scarborough","postalCode":"M1S 0C2"},{"name":"Valueplus Pharmacy","mngrFirstName":"Anoja","mngrLastName":"Devaranjan","mngrGradYr":"1996","mngrId":"205912","phoneNumber":"+ (416) 754-1400","address":"8-2677 Kennedy Rd","city":"Scarborough","postalCode":"M1T 3H8"},{"name":"Van Kirk Pharmacy","mngrFirstName":"Hany","mngrLastName":"Ghabras","mngrGradYr":"2000","mngrId":"606616","phoneNumber":"+ (905) 495-9911","address":"205 Van Kirk Dr Unit 12a","city":"Brampton","postalCode":"L7A 3V4"},{"name":"Van Mills IDA Pharmacy","mngrFirstName":"Sam","mngrLastName":"Mikhaeil","mngrGradYr":"2001","mngrId":"603248","phoneNumber":"+1 (905) 403-0400","address":"D114 - 1900 Fowler Drive","city":"Mississauga","postalCode":"L5K 0A1"},{"name":"Vanier Pharmacy","mngrFirstName":"Steven","mngrLastName":"Fisher","mngrGradYr":"2007","mngrId":"612044","phoneNumber":"+1 (613) 746-8102","address":"101-355 Montreal Rd","city":"Vanier","postalCode":"K1L 6B3"},{"name":"Vankleek Hill Pharmacy","mngrFirstName":"George","mngrLastName":"Gabra","mngrGradYr":"1995","mngrId":"605816","phoneNumber":"+1 (613) 678-2201","address":"28 Main St","city":"Vankleek Hill","postalCode":"K0B 1R0"},{"name":"Vantage Medical Pharmacy","mngrFirstName":"Molhem","mngrLastName":"Farah","mngrGradYr":"1991","mngrId":"203180","phoneNumber":"+1 (613) 841-3470","address":"111 B-1803 St. Joseph Blvd","city":"Ottawa","postalCode":"K1C 6E7"},{"name":"Vardhman's Guardian Pharmacy","mngrFirstName":"Bobita","mngrLastName":"Khullar","mngrGradYr":"1996","mngrId":"603156","phoneNumber":"+1 (905) 673-3784","address":"126-2980 Drew Road","city":"Mississauga","postalCode":"L4T 0A7"},{"name":"Vaughan Medical Pharmacy","mngrFirstName":"Mohamed","mngrLastName":"Hetata","mngrGradYr":"1994","mngrId":"214489","phoneNumber":"+1 (905) 303-9555","address":"110 - 10083 Keele St","city":"Maple","postalCode":"L6A 3Y8"},{"name":"Vaughan Neighborhood Pharmacy","mngrFirstName":"Suzan","mngrLastName":"Awad","mngrGradYr":"1996","mngrId":"603446","phoneNumber":"+ (905) 669-6008","address":"68-3175 Rutherford Rd","city":"Vaughan","postalCode":"L4K 5Y6"},{"name":"Vellore Pharmacy","mngrFirstName":"Carmen Samir","mngrLastName":"Abdel Shahid","mngrGradYr":"1999","mngrId":"612693","phoneNumber":"+1 (905) 417-5467","address":"10395 Weston Rd","city":"Vaughan","postalCode":"L4H 3T4"},{"name":"Verona Drug Mart","mngrFirstName":"Hany","mngrLastName":"Girgis","mngrGradYr":"1996","mngrId":"219969","phoneNumber":"+ (613) 374-5500","address":"6674 Hwy # 38PO Box 448","city":"Verona","postalCode":"K0H 2W0"},{"name":"Vibrin Drug Mart","mngrFirstName":"Stephen","mngrLastName":"Kwok","mngrGradYr":"1978","mngrId":"66842","phoneNumber":"+1 (905) 890-2233","address":"Sandalwood Shopping CentreUnits 2 & 350 Bristol Rd E","city":"Mississauga","postalCode":"L4Z 3K8"},{"name":"Victor Pharmacy","mngrFirstName":"Victor","mngrLastName":"Lee","mngrGradYr":"1988","mngrId":"97381","phoneNumber":"+1 (416) 597-0366","address":"123 Edward St","city":"Toronto","postalCode":"M5G 1E2"},{"name":"Victoria Drug Mart","mngrFirstName":"Seyed","mngrLastName":"Qaaboos","mngrGradYr":"1996","mngrId":"208924","phoneNumber":"+1 (705) 328-1999","address":"Kent Place Mall189 Kent St W","city":"Lindsay","postalCode":"K9V 5G6"},{"name":"Victoria Hills Pharmacy","mngrFirstName":"Salah","mngrLastName":"El Sheikh","mngrGradYr":"1988","mngrId":"215977","phoneNumber":"+1 (519) 742-6000","address":"7-101 Hazelglen Dr","city":"Kitchener","postalCode":"N2M 5A2"},{"name":"Victoria Medical Pharmacy","mngrFirstName":"Joe","mngrLastName":"Asindi","mngrGradYr":"1995","mngrId":"219613","phoneNumber":"+1 (905) 354-1115","address":"1-4632 Victoria Ave","city":"Niagara Falls","postalCode":"L2E 4B7"},{"name":"Victoria Park Pharmacy","mngrFirstName":"William","mngrLastName":"Yau","mngrGradYr":"1979","mngrId":"69213","phoneNumber":"+1 (416) 752-0888","address":"1314 Victoria Park Ave","city":"East York","postalCode":"M4B 2L4"},{"name":"Victoria Park Pharmacy Brantford","mngrFirstName":"Dipak","mngrLastName":"Patel","mngrGradYr":"2003","mngrId":"619228","phoneNumber":"+ (519) 756-7251","address":"c/o St. Andrews Church95 Darling St  Suite 203","city":"Brantford","postalCode":"N3T 2K7"},{"name":"Victoria Pharmacy","mngrFirstName":"Tony","mngrLastName":"Cinquina","mngrGradYr":"1990","mngrId":"111147","phoneNumber":"+1 (905) 526-1500","address":"Victoria Medical Building304 Victoria Ave N","city":"Hamilton","postalCode":"L8L 5G4"},{"name":"Victoria Pharmacy","mngrFirstName":"Michael","mngrLastName":"Danchuk","mngrGradYr":"1986","mngrId":"90301","phoneNumber":"+1 (613) 729-6149","address":"Unit B - 1065 Wellington St","city":"Ottawa","postalCode":"K1Y 2Y2"},{"name":"Victoria Terrace Pharmacy","mngrFirstName":"Sherif","mngrLastName":"Ghali","mngrGradYr":"1980","mngrId":"108715","phoneNumber":"+1 (416) 285-5556","address":" 3 -1448 Lawrence Ave E","city":"North York","postalCode":"M4A 2V6"},{"name":"Vidal Pharmacy","mngrFirstName":"Lee","mngrLastName":"Aube","mngrGradYr":"1964","mngrId":"42293","phoneNumber":"+1 (519) 344-2222","address":"373 Vidal St. S","city":"Sarnia","postalCode":"N7T 2V3"},{"name":"Villa Royale Pharmacy","mngrFirstName":"Sherine","mngrLastName":"Dawoud","mngrGradYr":"1988","mngrId":"613620","phoneNumber":"+1 (905) 303-8400","address":"9750 Weston Road #23","city":"Woodbridge","postalCode":"L4H 2Z7"},{"name":"Village Gate Pharmasave","mngrFirstName":"Phong","mngrLastName":"Tan","mngrGradYr":"1998","mngrId":"206480","phoneNumber":"+1 (705) 738-2372","address":"101 East St","city":"Bobcaygeon","postalCode":"K0M 1A0"},{"name":"Village Pharmacy","mngrFirstName":"Yousif","mngrLastName":"Al-bahrani","mngrGradYr":"1977","mngrId":"113549","phoneNumber":"+1 (905) 278-7237","address":"225 Lakeshore Rd E","city":"Mississauga","postalCode":"L5G 1G8"},{"name":"Village Pharmacy","mngrFirstName":"Mina","mngrLastName":"Gobrail","mngrGradYr":"2000","mngrId":"604975","phoneNumber":"+1 (519) 595-8300","address":"8 Main St N","city":"Milverton","postalCode":"N0K 1M0"},{"name":"Village Pharmacy","mngrFirstName":"Nicolina","mngrLastName":"Nam","mngrGradYr":"1985","mngrId":"91855","phoneNumber":"+1 (905) 385-1975","address":"393 Rymal Rd W","city":"Hamilton","postalCode":"L9B 1V2"},{"name":"Village Pharmacy","mngrFirstName":"Mike","mngrLastName":"Hyde","mngrGradYr":"1984","mngrId":"83771","phoneNumber":"+1 (705) 652-3300","address":"135 Queen St","city":"Lakefield","postalCode":"K0L 2H0"},{"name":"Village Square Pharmacy","mngrFirstName":"Akil","mngrLastName":"Dhirani","mngrGradYr":"1990","mngrId":"110396","phoneNumber":"+1 (416) 492-4167","address":"Village Square Plaza2942 Finch Ave E","city":"Scarborough","postalCode":"M1W 2T4"},{"name":"Village Square Pharmacy","mngrFirstName":"Dan","mngrLastName":"Chenier","mngrGradYr":"2011","mngrId":"611042","phoneNumber":"+1 (705) 549-3141","address":"101-2 Poyntz St","city":"Penetanguishene","postalCode":"L9M 1M2"},{"name":"Vina Pharmacy","mngrFirstName":"Anh","mngrLastName":"Hua","mngrGradYr":"1970","mngrId":"76074","phoneNumber":"+1 (416) 469-5386","address":"1025 Gerrard St E","city":"Toronto","postalCode":"M4M 1Z6"},{"name":"Vina Pharmacy","mngrFirstName":"Michael","mngrLastName":"Do","mngrGradYr":"2010","mngrId":"607944","phoneNumber":"+1 (416) 588-8538","address":"1460 Queen St W","city":"Toronto","postalCode":"M6K 1M2"},{"name":"VIP Pharmacy","mngrFirstName":"Ash","mngrLastName":"Shihora","mngrGradYr":"1989","mngrId":"109452","phoneNumber":"+1 (289) 820-8900","address":"601 East Main St.Unit #1","city":"Welland","postalCode":"L3B 3Y3"},{"name":"Viscount Pharmacy","mngrFirstName":"Dennis","mngrLastName":"Martin","mngrGradYr":"1979","mngrId":"73016","phoneNumber":"+ (519) 438-4567","address":"231 Wharncliffe Rd S","city":"London","postalCode":"N6J 2L3"},{"name":"Vita Pharmacy","mngrFirstName":"David","mngrLastName":"Ta","mngrGradYr":"1973","mngrId":"69434","phoneNumber":"+1 (416) 977-2770","address":"2-525 Dundas St W","city":"Toronto","postalCode":"M5T 1H4"},{"name":"Vitacare Pharmacy","mngrFirstName":"Rubini","mngrLastName":"Sivapathasundram","mngrGradYr":"1998","mngrId":"605333","phoneNumber":"+1 (905) 930-9877","address":"1 - 198 Barton Street ","city":"Hamilton","postalCode":"L8E 2K3"},{"name":"Vital Pharmacy","mngrFirstName":"Tu","mngrLastName":"Chu","mngrGradYr":"1992","mngrId":"209588","phoneNumber":"+1 (613) 971-0888","address":"3 - 224 Hunt Club Rd","city":"Ottawa","postalCode":"K1V 1C1"},{"name":"Vital RX Pharmacy","mngrFirstName":"Mukesh","mngrLastName":"Chaudhry","mngrGradYr":"1988","mngrId":"96806","phoneNumber":"+ (905) 846-4411","address":"Earlsbridge Plaza5-10 Earlsbridge Blvd","city":"Brampton","postalCode":"L7A 3P1"},{"name":"Vitality Compounding Pharmacy","mngrFirstName":"Ildiko","mngrLastName":"Illes Szarvady","mngrGradYr":"1986","mngrId":"209604","phoneNumber":"+1 (416) 691-2000","address":"918 Kingston Rd","city":"Toronto","postalCode":"M4E 1S5"},{"name":"Vodden MD Pharmacy","mngrFirstName":"Sylvana","mngrLastName":"Tarola","mngrGradYr":"1979","mngrId":"69256","phoneNumber":"+1 (905) 451-5905","address":"7 - 389 Main St North","city":"Brampton","postalCode":"L6X 3P1"},{"name":"Vodden Medical Arts Pharmacy","mngrFirstName":"Cosimo","mngrLastName":"Fragomeni","mngrGradYr":"1987","mngrId":"93998","phoneNumber":"+1 (905) 455-3381","address":"320 Main Street North Unit 12","city":"Brampton","postalCode":"L6V 4A3"},{"name":"Walden Family Drugstore","mngrFirstName":"Todd","mngrLastName":"Duhamel","mngrGradYr":"1987","mngrId":"93114","phoneNumber":"+1 (705) 692-5868","address":"Walden Plaza14-135 Regional Road 24","city":"Lively","postalCode":"P3Y 1J1"},{"name":"Walkers Medical Pharmacy","mngrFirstName":"Nancy","mngrLastName":"Haroun","mngrGradYr":"2006","mngrId":"610718","phoneNumber":"+1 (905) 335-5959","address":"1821 Walkers Line","city":"Burlington","postalCode":"L7M 0H6"},{"name":"Wallaceburg Pharmacy","mngrFirstName":"Rushabh","mngrLastName":"Damani","mngrGradYr":"1993","mngrId":"604724","phoneNumber":"+1 (519) 626 9600","address":"4-1044 Dufferin Ave","city":"Wallaceburg","postalCode":"N8A 2V8"},{"name":"Wallace's Drug Store Limited","mngrFirstName":"Eugene","mngrLastName":"Patel","mngrGradYr":"1994","mngrId":"205088","phoneNumber":"+1 (613) 354-3321","address":"27 Dundas St EPO Box 126 Stn Main","city":"Napanee","postalCode":"K7R 3M3"},{"name":"Wal-Mart Pharmacy","mngrFirstName":"Michael","mngrLastName":"Johnson","mngrGradYr":"1995","mngrId":"200844","phoneNumber":"+1 (519) 894-0636","address":"Fairview Shopping Centre2960 Kingsway Dr","city":"Kitchener","postalCode":"N2C 1X1"},{"name":"Wal-Mart Pharmacy","mngrFirstName":"Abey","mngrLastName":"John","mngrGradYr":"1996","mngrId":"609470","phoneNumber":"+1 (519) 969-5131","address":"Gateway Plaza3120 Dougall Ave","city":"Windsor","postalCode":"N9E 1S7"},{"name":"Wal-Mart Pharmacy","mngrFirstName":"Hiteshkumar","mngrLastName":"Patel","mngrGradYr":"2003","mngrId":"619187","phoneNumber":"+1 (613) 384-1645","address":"1130 Midland Ave","city":"Kingston","postalCode":"K7P 2X9"},{"name":"Wal-Mart Pharmacy","mngrFirstName":"Luke","mngrLastName":"Agada","mngrGradYr":"1997","mngrId":"612540","phoneNumber":"+1 (416) 249-8487","address":"North Park Plaza1305 Lawrence Ave W ","city":"Toronto","postalCode":"M6L 1A5"},{"name":"Wal-Mart Pharmacy","mngrFirstName":"Suchdev","mngrLastName":"Kalsi","mngrGradYr":"1998","mngrId":"605043","phoneNumber":"+1 (613) 224-6891","address":"1375 Baseline Rd","city":"Ottawa","postalCode":"K2C 3G1"},{"name":"Wal-Mart Pharmacy","mngrFirstName":"Shafiq","mngrLastName":"Ahmad","mngrGradYr":"1986","mngrId":"609678","phoneNumber":"+1 (905) 985-1941","address":"1535 Highway 7A","city":"Port Perry","postalCode":"L9L 1B5"},{"name":"Wal-Mart Pharmacy","mngrFirstName":"Jeffrey","mngrLastName":"Kwong","mngrGradYr":"2006","mngrId":"220361","phoneNumber":"+1 (905) 417-0234","address":"1900 Major Mackenzie Dr","city":"Maple","postalCode":"L6A 4R9"},{"name":"Wal-Mart Pharmacy","mngrFirstName":"Hossam","mngrLastName":"Moustafa","mngrGradYr":"1988","mngrId":"613156","phoneNumber":"+1 (905) 451-4718","address":"9455 Mississauga Rd","city":"Brampton","postalCode":"L6X 0B3"},{"name":"Wal-Mart Pharmacy","mngrFirstName":"Kevin","mngrLastName":"Im","mngrGradYr":"2000","mngrId":"208468","phoneNumber":"+1 (416) 265-6053","address":"3132 Eglinton Ave E","city":"Scarborough","postalCode":"M1J 2H1"},{"name":"Wal-Mart Pharmacy","mngrFirstName":"Amilcar","mngrLastName":"Sanchez Cisnero","mngrGradYr":"1999","mngrId":"612249","phoneNumber":"+1 (905) 615-1290","address":"1500 Dundas St E","city":"Mississauga","postalCode":"L4X 1L4"},{"name":"Wal-Mart Pharmacy","mngrFirstName":"Bhavik","mngrLastName":"Shah","mngrGradYr":"2008","mngrId":"617213","phoneNumber":"+1 (416) 614-3235","address":"2202 Jane St","city":"Toronto","postalCode":"M3M 1A4"},{"name":"Wal-Mart Pharmacy","mngrFirstName":"Daniel","mngrLastName":"Ngai","mngrGradYr":"2010","mngrId":"607816","phoneNumber":"+1 (416) 431-9209","address":"3469 Lawrence Ave E","city":"Scarborough","postalCode":"M1H 1B2"},{"name":"Wal-Mart Pharmacy","mngrFirstName":"Bhupesh","mngrLastName":"Gupta","mngrGradYr":"2001","mngrId":"218801","phoneNumber":"+1 (613) 831-8142","address":"5357 Fernbank Rd","city":"Kanata","postalCode":"K2S 1B6"},{"name":"Wal-Mart Pharmacy","mngrFirstName":"Sofia","mngrLastName":"Massad","mngrGradYr":"1996","mngrId":"212869","phoneNumber":"+1 (905) 830-4212","address":"1111 Davis Dr","city":"Newmarket","postalCode":"L3Y 8X2"},{"name":"Wal-Mart Pharmacy","mngrFirstName":"Amir","mngrLastName":"Yanni","mngrGradYr":"2000","mngrId":"609433","phoneNumber":"+1 (905) 832-6595","address":"3600 Major Mackenzie Dr","city":"Vaughan","postalCode":"L6A 1S1"},{"name":"Wal-Mart Pharmacy","mngrFirstName":"Xerez","mngrLastName":"Garcia-Singson","mngrGradYr":"2001","mngrId":"603982","phoneNumber":"+1 (416) 465-3399","address":"Gerrard Square Shopping Mall1000 Gerrard St E","city":"Toronto","postalCode":"M4M 3G6"},{"name":"Wal-Mart Pharmacy","mngrFirstName":"Rutul","mngrLastName":"Vyas","mngrGradYr":"2007","mngrId":"613614","phoneNumber":"+1 (905) 579-1933","address":"1300 King St E","city":"Oshawa","postalCode":"L1H 8J4"},{"name":"Wal-Mart Pharmacy","mngrFirstName":"Chau","mngrLastName":"Ma","mngrGradYr":"2002","mngrId":"211628","phoneNumber":"+1 (705) 942-7989","address":"293 Bay St","city":"Sault Ste Marie","postalCode":"P6A 1X3"},{"name":"Wal-Mart Pharmacy","mngrFirstName":"Jason","mngrLastName":"Marcotte","mngrGradYr":"1993","mngrId":"201984","phoneNumber":"+1 (807) 577-6223","address":"1101 Arthur St W","city":"Thunder Bay","postalCode":"P7E 5S2"},{"name":"Wal-Mart Pharmacy","mngrFirstName":"Nelia","mngrLastName":"Ngo","mngrGradYr":"1987","mngrId":"603284","phoneNumber":"+1 (519) 885-4220","address":"70 Bridgeport Rd","city":"Waterloo","postalCode":"N2J 2J9"},{"name":"Wal-Mart Pharmacy","mngrFirstName":"Janice","mngrLastName":"Nuque","mngrGradYr":"2001","mngrId":"603286","phoneNumber":"+1 (519) 893-6120","address":"1005 Ottawa St. N.","city":"Kitchener","postalCode":"N2A 1H2"},{"name":"Wal-Mart Pharmacy","mngrFirstName":"Robelyn","mngrLastName":"Tamayo","mngrGradYr":"2004","mngrId":"608649","phoneNumber":"+1 (519) 291-6525","address":"600 Mitchell Rd S","city":"Listowel","postalCode":"N4W 3T1"},{"name":"Wal-Mart Pharmacy","mngrFirstName":"Malay","mngrLastName":"Vora","mngrGradYr":"1999","mngrId":"608441","phoneNumber":"+1 (905) 548-6270","address":"1115 Barton St E","city":"Hamilton","postalCode":"L8H 2V2"},{"name":"Wal-Mart Pharmacy","mngrFirstName":"Cathy","mngrLastName":"Freeman","mngrGradYr":"1987","mngrId":"94722","phoneNumber":"+1 (519) 843-3436","address":"801 St David St N","city":"Fergus","postalCode":"N1M 2L1"},{"name":"Wal-Mart Pharmacy","mngrFirstName":"Charles","mngrLastName":"Zammit","mngrGradYr":"1991","mngrId":"111295","phoneNumber":"+1 (905) 873-3021","address":"300 Guelph St","city":"Georgetown","postalCode":"L7G 4B2"},{"name":"Wal-Mart Pharmacy","mngrFirstName":"Randa","mngrLastName":"Saleh","mngrGradYr":"1984","mngrId":"208004","phoneNumber":"+1 (905) 612-1366","address":"7333 Goreway Dr","city":"Malton","postalCode":"L4T 2T8"},{"name":"Wal-Mart Pharmacy","mngrFirstName":"Michael","mngrLastName":"Khzym","mngrGradYr":"1992","mngrId":"214925","phoneNumber":"+1 (519) 272-1295","address":"920 Ontario St","city":"Stratford","postalCode":"N5A 3K1"},{"name":"Wal-Mart Pharmacy","mngrFirstName":"Cecilia","mngrLastName":"San Jose","mngrGradYr":"2006","mngrId":"612716","phoneNumber":"+1 (905) 452-9126","address":"15 Resolution Drive","city":"Brampton","postalCode":"L6W 0A6"},{"name":"Wal-Mart Pharmacy","mngrFirstName":"Selim","mngrLastName":"Hawa","mngrGradYr":"2013","mngrId":"617842","phoneNumber":"+1 (416) 633-7593","address":"3757 Keele St","city":"Toronto","postalCode":"M3J 1N4"},{"name":"Walpole Island First Nation Pharmacy Ltd.","mngrFirstName":"Allan","mngrLastName":"Lau","mngrGradYr":"1975","mngrId":"59560","phoneNumber":"+ (519) 627-8868","address":"Thunderbird Plaza, Unit 16RR#3 Station Main","city":"Walpole Island","postalCode":"N8A 4K9"},{"name":"Walsh's IDA Pharmacy Mount Forest","mngrFirstName":"Joseph","mngrLastName":"Walsh","mngrGradYr":"1990","mngrId":"109878","phoneNumber":"+1 (519) 323-1221","address":"129 Main St SPo Box 700","city":"Mount Forest","postalCode":"N0G 2L0"},{"name":"Walshs Pharmacy Ltd","mngrFirstName":"Joseph","mngrLastName":"Walsh","mngrGradYr":"1990","mngrId":"109878","phoneNumber":"+1 (519) 848-2530","address":"200 George St","city":"Arthur","postalCode":"N0G 1A0"},{"name":"Walthers IDA Pharmacy","mngrFirstName":"Bill","mngrLastName":"Appleby","mngrGradYr":"1995","mngrId":"200132","phoneNumber":"+1 (519) 348-8833","address":"40 Ontario RdPO Box 518","city":"Mitchell","postalCode":"N0K 1N0"},{"name":"Warden Medical Pharmacy","mngrFirstName":"Ihab","mngrLastName":"Salib","mngrGradYr":"1996","mngrId":"608728","phoneNumber":"+1 (416) 491-7770","address":"3321 Sheppard Ave","city":"Scarborough","postalCode":"M1T 3K2"},{"name":"Warden Pharmacy","mngrFirstName":"Sean","mngrLastName":"Xu","mngrGradYr":"1998","mngrId":"609448","phoneNumber":"+1 (905) 604-7188","address":"119-30 Gibson Dr.","city":"Markham","postalCode":"L3R 2S3"},{"name":"Warden Woods Pharmacy","mngrFirstName":"Mohiuddin","mngrLastName":"Ahsan","mngrGradYr":"1994","mngrId":"617879","phoneNumber":"+1 (416) 699 5559","address":"99 Firvalley Court","city":"Toronto","postalCode":"M1L 1P2"},{"name":"Wardrop Pharmasave","mngrFirstName":"Robert","mngrLastName":"Rogers","mngrGradYr":"1992","mngrId":"612615","phoneNumber":"+1 (519) 832-2015","address":"639 Goderich StPo Box 100","city":"Port Elgin","postalCode":"N0H 2C0"},{"name":"Warkworth Pharmacy","mngrFirstName":"Alykhan","mngrLastName":"Velji","mngrGradYr":"1987","mngrId":"98213","phoneNumber":"+1 (705) 924-2711","address":"26 Main StPo Box 226","city":"Warkworth","postalCode":"K0K 3K0"},{"name":"Wasaga Beach IDA Pharmacy","mngrFirstName":"George","mngrLastName":"Mankarios","mngrGradYr":"2006","mngrId":"605532","phoneNumber":"+1 (705) 429-7557","address":"30-45th St SUnit 1","city":"Wasaga Beach","postalCode":"L9Z 0A6"},{"name":"Waterdown Pharmacy","mngrFirstName":"Chris","mngrLastName":"Burling","mngrGradYr":"2009","mngrId":"613144","phoneNumber":"+1 (905) 689-0999","address":"Unit 15A - 115 Hamilton Street North","city":"Waterdown","postalCode":"L0R 2H6"},{"name":"Watsons Drugs","mngrFirstName":"David","mngrLastName":"Watson","mngrGradYr":"1985","mngrId":"86835","phoneNumber":"+1 (905) 885-4588","address":"68 Walton St","city":"Port Hope","postalCode":"L1A 1N1"},{"name":"Watson's Pharmacy and Compounding Centre","mngrFirstName":"Scott","mngrLastName":"Watson","mngrGradYr":"1993","mngrId":"219729","phoneNumber":"+1 (613) 238-1881","address":"192 Main St","city":"Ottawa","postalCode":"K1S 1C2"},{"name":"Watson's Pharmacy and Compounding Centre","mngrFirstName":"Scott","mngrLastName":"Watson","mngrGradYr":"1993","mngrId":"219729","phoneNumber":"+1 (613) 238-1882","address":"1308 Wellington St W","city":"Ottawa","postalCode":"K1Y 3B2"},{"name":"Waypoint Centre for Mental Health Care","mngrFirstName":"Paul","mngrLastName":"Greenall","mngrGradYr":"1982","mngrId":"77852","phoneNumber":"+1 (705) 549-3181","address":"Pharmacy Dept500 Church St","city":"Penetanguishene","postalCode":"L9M 1G3"},{"name":"We Care Pharmacy","mngrFirstName":"John","mngrLastName":"Payne","mngrGradYr":"2003","mngrId":"607077","phoneNumber":"+1 (519) 255-2181","address":"1030 Oullette Ave","city":"Windsor","postalCode":"N9A 1E1"},{"name":"Weber Community Pharmacy","mngrFirstName":"SHYAM","mngrLastName":"Patel","mngrGradYr":"2003","mngrId":"619363","phoneNumber":"+1 (519) 896-6464","address":"1360 Weber St East","city":"Kitchener","postalCode":"N2A 1C4"},{"name":"Welcome Guardian Drugs","mngrFirstName":"Andrew","mngrLastName":"Ng","mngrGradYr":"1981","mngrId":"75035","phoneNumber":"+1 (416) 480-1420","address":"1881 Yonge St","city":"Toronto","postalCode":"M4S 3C4"},{"name":"Welcome Guardian Drugs","mngrFirstName":"Andrew","mngrLastName":"Ng","mngrGradYr":"1981","mngrId":"75035","phoneNumber":"+1 (416) 533-2088","address":"137 Roncesvalles Ave","city":"Toronto","postalCode":"M6R 2L2"},{"name":"Welcome Guardian Drugs","mngrFirstName":"Andrew","mngrLastName":"Ng","mngrGradYr":"1981","mngrId":"75035","phoneNumber":"+1 (416) 466-8787","address":"837 Danforth Ave","city":"Toronto","postalCode":"M4J 1L2"},{"name":"Welland Ave Pharmacy","mngrFirstName":"Lalit","mngrLastName":"Satija","mngrGradYr":"1990","mngrId":"218577","phoneNumber":"+1 (905) 988-1500","address":"125 Welland Avenue","city":"St. Catharines","postalCode":"L2R 2N4"},{"name":"Welland Medical Pharmacy ","mngrFirstName":"John","mngrLastName":"Phlamon","mngrGradYr":"2001","mngrId":"605411","phoneNumber":"+1 (905) 788-1766","address":"Main Floor165 Plymouth Rd","city":"Welland","postalCode":"L3B 3E1"},{"name":"Welland Medical Pharmacy","mngrFirstName":"Pierre","mngrLastName":"Nasralla","mngrGradYr":"2000","mngrId":"208584","phoneNumber":"+1 (905) 714-9009","address":"595 Ontario Rd","city":"Welland","postalCode":"L3B 0B3"},{"name":"Wellcare College Pharmacy","mngrFirstName":"Lesley","mngrLastName":"Neves-Azevedo","mngrGradYr":"2001","mngrId":"210116","phoneNumber":"+1 (416) 536-6558","address":"College Street Medical Centre815 College St","city":"Toronto","postalCode":"M6G 1C9"},{"name":"Wellcare Compounding Pharmacy Inc.","mngrFirstName":"Nimish","mngrLastName":"Pattni","mngrGradYr":"1994","mngrId":"603381","phoneNumber":"+1 (647) 822-0941","address":"203 - 2444 Hurontario Street","city":"Mississauga","postalCode":"L5B 2V1"},{"name":"Wellcare Heartlake Pharmacy","mngrFirstName":"Angelo","mngrLastName":"Arciero","mngrGradYr":"1998","mngrId":"205944","phoneNumber":"+1 (905) 846-2828","address":"10425 Kennedy Rd NRR 4","city":"Brampton","postalCode":"L6Z 0A4"},{"name":"Wellcare Pharmacy","mngrFirstName":"Wai - Yan","mngrLastName":"Wu","mngrGradYr":"1990","mngrId":"105104","phoneNumber":"+1 (416) 630-4513","address":"3352 Keele St","city":"Toronto","postalCode":"M3J 1L5"},{"name":"Wellcare Union Medical Pharmacy","mngrFirstName":"Nelson","mngrLastName":"Da Silva","mngrGradYr":"2001","mngrId":"209780","phoneNumber":"+ (416) 243-9361","address":"110-1263 Wilson Ave","city":"Toronto","postalCode":"M3M 3G3"},{"name":"Wellington Drug Store","mngrFirstName":"Emad","mngrLastName":"Keryakos","mngrGradYr":"1992","mngrId":"613590","phoneNumber":"+1 (613) 680-6789","address":"1221 Wellington St W","city":"Ottawa","postalCode":"K1Y 2Z9"},{"name":"Wellington Medical Pharmacy Pharmachoice","mngrFirstName":"Angela","mngrLastName":"Zaharia","mngrGradYr":"1996","mngrId":"603222","phoneNumber":"+1 (519) 637-9900","address":"101-460 Wellington St","city":"St. Thomas","postalCode":"N5R 6H9"},{"name":"Wellington Pharmacy","mngrFirstName":"Mounir","mngrLastName":"Atia","mngrGradYr":"1979","mngrId":"202892","phoneNumber":"+1 (519) 336-6104","address":"145 Wellington St","city":"Sarnia","postalCode":"N7T 1G4"},{"name":"Wellington Pharmacy","mngrFirstName":"Gail","mngrLastName":"Wilson","mngrGradYr":"1990","mngrId":"210508","phoneNumber":"+1 (613) 399-2420","address":"Po Box 519274 Main St","city":"Wellington","postalCode":"K0K 3L0"},{"name":"Wellington Pharmacy","mngrFirstName":"Ela","mngrLastName":"Azemodeh Ardlan","mngrGradYr":"1983","mngrId":"215673","phoneNumber":"+1 (905) 727-8711","address":"2-300 Wellington St E","city":"Aurora","postalCode":"L4G 1J5"},{"name":"Wellington Square Drug Mart","mngrFirstName":"Phil","mngrLastName":"Boyonoski","mngrGradYr":"1985","mngrId":"86428","phoneNumber":"+1 (705) 945-8088","address":"625 Trunk Rd","city":"Sault Ste Marie","postalCode":"P6A 3T1"},{"name":"Wellmedica Pharmacy","mngrFirstName":"Alexander","mngrLastName":"Anapolsky","mngrGradYr":"2009","mngrId":"606427","phoneNumber":"+1 (289) 371-3030","address":"Unit 55 - 7600 Weston Rd","city":"Woodbridge","postalCode":"L4L 8B7"},{"name":"Wellness Centre Pharmacy","mngrFirstName":"Surinder","mngrLastName":"Riat","mngrGradYr":"1977","mngrId":"114502","phoneNumber":"+1 (416) 621-2548","address":"230 Browns Line","city":"Etobicoke","postalCode":"M8W 3T4"},{"name":"Wellness Healthcare Phrmcy Inc","mngrFirstName":"Swan","mngrLastName":"Wong","mngrGradYr":"1985","mngrId":"107816","phoneNumber":"+1 (905) 270-2870","address":"8-1170 Burnhamthorpe Rd W","city":"Mississauga","postalCode":"L5C 4E6"},{"name":"Wellness Pharmacy","mngrFirstName":"Alan","mngrLastName":"Tso","mngrGradYr":"1986","mngrId":"98361","phoneNumber":"+1 (905) 277-5885","address":"67-1177 Central Pky W","city":"Mississauga","postalCode":"L5C 4P3"},{"name":"West Brampton Pharmacy","mngrFirstName":"Rakesh","mngrLastName":"Gautam","mngrGradYr":"1996","mngrId":"615273","phoneNumber":"+ (905) 450-0450","address":"80 Clementine DrUnit 5","city":"Brampton","postalCode":"L6Y 0L8"},{"name":"West Carleton Drug Mart","mngrFirstName":"Ryan","mngrLastName":"White","mngrGradYr":"2010","mngrId":"608134","phoneNumber":"+1 (613) 839-3133","address":"Carp Plaza461 Donald B Munro DrPo Box 48","city":"Carp","postalCode":"K0A 1L0"},{"name":"West Elgin Pharmacy","mngrFirstName":"William","mngrLastName":"Nicholson","mngrGradYr":"1975","mngrId":"58084","phoneNumber":"+1 (519) 768-1440","address":"229 Graham St","city":"West Lorne","postalCode":"N0L 2P0"},{"name":"West End Pharmacy","mngrFirstName":"Maged","mngrLastName":"Labib","mngrGradYr":"1999","mngrId":"608216","phoneNumber":"+1 (905) 521-4991","address":"690 Main St W","city":"Hamilton","postalCode":"L8S 1A4"},{"name":"West End Pharmacy","mngrFirstName":"George","mngrLastName":"Jansen","mngrGradYr":"1984","mngrId":"82821","phoneNumber":"+1 (519) 273-7200","address":"150 Huron St","city":"Stratford","postalCode":"N5A 5S8"},{"name":"West Grand Pharmacy","mngrFirstName":"Clara","mngrLastName":"Soegiharto","mngrGradYr":"1974","mngrId":"63886","phoneNumber":"+1 (519) 966-8621","address":"West Grand Plaza2950 Dougall Ave","city":"Windsor","postalCode":"N9E 1S2"},{"name":"West Haldimand General Hospital","mngrFirstName":"Jennifer","mngrLastName":"D'Souza","mngrGradYr":"1996","mngrId":"200520","phoneNumber":"+1 (905) 768-3311","address":"Pharmacy Dept75 Parkview Rd","city":"Hagersville","postalCode":"N0A 1H0"},{"name":"West Hill Pharmasave","mngrFirstName":"Shady","mngrLastName":"Mikhail","mngrGradYr":"2005","mngrId":"604322","phoneNumber":"+1 (416) 284-4741","address":"4-4218 Lawrence Ave E","city":"Scarborough","postalCode":"M1E 4X9"},{"name":"West Lincoln Memorial Hospital","mngrFirstName":"Aimee","mngrLastName":"Proulx","mngrGradYr":"1990","mngrId":"219765","phoneNumber":"+1 (905) 945-2253","address":"Pharmacy Dept169 Main St E","city":"Grimsby","postalCode":"L3M 1P3"},{"name":"West Lincoln Pharmacy","mngrFirstName":"Bruce","mngrLastName":"McAlpine","mngrGradYr":"1987","mngrId":"93319","phoneNumber":"+1 (905) 957-5700","address":"239 St. Catharines St","city":"Smithville","postalCode":"L0R 2A0"},{"name":"West Lynde Pharmacy","mngrFirstName":"Samir","mngrLastName":"Aljawhiri","mngrGradYr":"1973","mngrId":"116572","phoneNumber":"+1 (905) 666-5388","address":"B6-965 Dundas St W","city":"Whitby","postalCode":"L1P 1G8"},{"name":"West Main Community Pharmacy","mngrFirstName":"Meena","mngrLastName":"Farag","mngrGradYr":"2002","mngrId":"614608","phoneNumber":"+ (905) 735-0600","address":"5-154 West Main St","city":"Welland","postalCode":"L3C 5A2"},{"name":"West Tecumseh Pharmacy","mngrFirstName":"Robin","mngrLastName":"Chang","mngrGradYr":"2003","mngrId":"220129","phoneNumber":"+1(519)253-6789","address":"1760 Tecumseh Rd W","city":"Windsor","postalCode":"N9B 1V2"},{"name":"Westboro Pharmasave","mngrFirstName":"Mark","mngrLastName":"Barnes","mngrGradYr":"2001","mngrId":"215553","phoneNumber":"+1 (613) 722-7647","address":"421 Richmond Rd","city":"Ottawa","postalCode":"K2A 4H1"},{"name":"Westbram Pharmacy","mngrFirstName":"Mohamed","mngrLastName":"Walji","mngrGradYr":"1979","mngrId":"88080","phoneNumber":"+1 (905) 454-5111","address":"101-100 Pertosa Dr","city":"Brampton","postalCode":"L6X 5E9"},{"name":"Westdale Pharmacy","mngrFirstName":"Nermine","mngrLastName":"Basl","mngrGradYr":"2001","mngrId":"606661","phoneNumber":"+1 (905) 528-5144","address":"3-1309 Main St W","city":"Hamilton","postalCode":"L8S 1C5"}]